{"type":"FeatureCollection","metadata":{"route":"Belfast–Derry: Belfast Grand Central to Derry~Londonderry","source":"OpenStreetMap contributors","sourceUrl":"https://www.openstreetmap.org/way/1377748735","license":"ODbL 1.0","geometryVersion":"2026-08-12","osmRelationIds":[],"osmWayIds":[1377748735,10399014,1320822107,329332025,329332024,329332020,329332019,1208790334,1208790335,329332014,362292262,44999326,329332023,26369680,14891580,10399550,133029867,356636883,354368887,362362653,361711858,151506754,151506753,133484037,133484038,290376009,290376008,133034766,33839906,152263649,41714323,203177031,203177026,97606615,97606601,347393581,363234543,363234542,113835744,113835735,289295785,289295781,289295778,289295783,289295786,289295779,370651033,370651029,149124341,149124340,182019552,182019553,133032175,145588646,1013917729,1013917728,145588673,148902477,148902475,349397798,133434463,349397792,155830593,155830592,152129795,1318434276,1314156515,1314156516,1314156517,113830971,1321155926,1321155925,113830961,1314125648,1314156514,1314125649,399031218,399031215,356380768,356378616,1328615656,1328615657,399028328,399028329,354382485,354382482,399028325,399028326,399028322,399028323,153270521,494003586,494003583,149279250,149279262,399026187,399026188,146863700,146863712,146863732,146863734,227694405,227694404,349628809,349628810,349629491,181752999,227694403,366943231,144428810,144428820,169277396,169277399,139262099,185964357,1035815085,200445285,200445284,365820382,365820383,356377331,354690796,308568539,308568536,308568541,308568538,365817975,157918580,237558859,237558857,398989151,237555257,237555260,144316395,144316394,196329823,196329821,364638322,364638319,200672368,200672367,196329822,196329820,364637485,364637486,364637484,364637483,398985400,398985399,153334595,673127613,673127611,673127610,673127609,398984601,398984602,673126830,364634920,364634919,673126829,77830542,77830541,183668673,398984529,363760651,152627751,28682914,28682911,364024277,364024278,54717815,398932918,398932919,398932915,398932917,356375825,354372465,24893461,54724332,54724040,54724360,150276425,150276419,398922755,1484806472,1484806471,1223420558,1223420539,398922752,221545031,221545028,407189877,404244371,38490414,231269896,1247689355,231269895,398906133,231275365,231275361,231275358,231275362,398804083,398804076,398804064,398804069,398803549,398803550,231274428,231274427,231274426,167512235,167512234,211523552,211523555,398785518,398785519,349435528],"approximateLengthKm":153.29},"features":[{"type":"Feature","properties":{"name":"Belfast–Derry","source":"OpenStreetMap contributors"},"geometry":{"type":"LineString","coordinates":[[-5.9395768,54.5949881],[-5.9398921,54.5947714],[-5.9400309,54.5946734],[-5.9410955,54.5939457],[-5.9411212,54.5939297],[-5.9412362,54.5938581],[-5.94203,54.5934185],[-5.9423906,54.5932237],[-5.9430158,54.5928605],[-5.9432277,54.5927282],[-5.9436247,54.5924556],[-5.9439137,54.5922514],[-5.9441161,54.5920912],[-5.9442249,54.5919969],[-5.9443876,54.5918464],[-5.9444703,54.5917691],[-5.9445387,54.5916806],[-5.9445788,54.5916196],[-5.9446219,54.5915537],[-5.944651,54.5915027],[-5.9446782,54.59145],[-5.9447059,54.5913894],[-5.944729,54.5913367],[-5.9447544,54.5912599],[-5.9447721,54.5911902],[-5.9447865,54.5911012],[-5.9447909,54.5910423],[-5.9447895,54.5909717],[-5.9447818,54.5908064],[-5.9447431,54.5906493],[-5.9446512,54.5904586],[-5.9445627,54.5903352],[-5.9444434,54.5901926],[-5.9442178,54.589996],[-5.944109,54.5899154],[-5.9438746,54.5897793],[-5.9437011,54.5896965],[-5.9434359,54.5896029],[-5.9420717,54.5892504],[-5.9409254,54.5889505],[-5.9395132,54.5885772],[-5.9386839,54.5883562],[-5.9383007,54.588257],[-5.9380846,54.5882067],[-5.9378984,54.5881673],[-5.9376996,54.5881338],[-5.9373517,54.5880858],[-5.9370064,54.5880506],[-5.9366714,54.5880319],[-5.9362045,54.5880238],[-5.9357769,54.5880492],[-5.9351474,54.5881096],[-5.9333396,54.5883691],[-5.9326925,54.5884306],[-5.9324587,54.5884477],[-5.9322006,54.5884556],[-5.9318528,54.5884533],[-5.9315519,54.5884491],[-5.9311723,54.5884295],[-5.9307978,54.5883964],[-5.9301952,54.5883164],[-5.9293772,54.5881896],[-5.9287813,54.5881057],[-5.9284918,54.5880804],[-5.9280575,54.588057],[-5.9274818,54.588055],[-5.927199,54.5880667],[-5.9267984,54.588094],[-5.9264314,54.588133],[-5.9260409,54.5881799],[-5.9255999,54.5882598],[-5.9253541,54.5883203],[-5.9248391,54.5884705],[-5.9245664,54.5885642],[-5.9242499,54.5886773],[-5.9239166,54.5888002],[-5.9236608,54.5889133],[-5.9233713,54.5890577],[-5.9231726,54.5891903],[-5.9227601,54.5894415],[-5.9212555,54.590595],[-5.9210821,54.5907325],[-5.9204692,54.5912059],[-5.9200569,54.591518],[-5.919844,54.5916795],[-5.9189178,54.592384],[-5.9186161,54.5926089],[-5.9184271,54.5927701],[-5.9183709,54.5928157],[-5.9181168,54.5930164],[-5.9179281,54.5931864],[-5.9177323,54.5933654],[-5.9175685,54.5935229],[-5.917486,54.5936268],[-5.9174116,54.5937416],[-5.9173578,54.5938577],[-5.9173201,54.5939769],[-5.9172834,54.5941237],[-5.9172764,54.5941665],[-5.9172764,54.5942473],[-5.917306,54.5946792],[-5.9173507,54.5949628],[-5.9175155,54.5955102],[-5.9175769,54.5957365],[-5.9175927,54.5957952],[-5.9176652,54.5960452],[-5.9176925,54.5961584],[-5.9177075,54.5962659],[-5.9177124,54.5963664],[-5.9177084,54.5964657],[-5.9176892,54.5965629],[-5.9176689,54.5966565],[-5.917638,54.5967473],[-5.9175601,54.5969764],[-5.9171083,54.5981651],[-5.9170349,54.5983899],[-5.9169323,54.5986887],[-5.9168439,54.5989319],[-5.9167511,54.5991955],[-5.9166694,54.5994591],[-5.9166142,54.59966],[-5.9165833,54.5998379],[-5.9165683,54.5999784],[-5.9165737,54.6001128],[-5.9165925,54.6002332],[-5.9166246,54.6003598],[-5.9166635,54.6004818],[-5.9167267,54.6006177],[-5.9168081,54.6007613],[-5.9168965,54.6008915],[-5.9170044,54.6010173],[-5.9171139,54.6011267],[-5.9172562,54.6012534],[-5.9174026,54.6013635],[-5.917659,54.6015309],[-5.9178537,54.6016416],[-5.9181246,54.6017758],[-5.918393,54.6018842],[-5.9186824,54.6019879],[-5.918932,54.6020725],[-5.9189633,54.6020831],[-5.9194105,54.6022327],[-5.9199741,54.6024266],[-5.9210657,54.6028021],[-5.9220739,54.6031538],[-5.9226772,54.6034545],[-5.9227835,54.603534],[-5.9230776,54.6037252],[-5.9233608,54.6039324],[-5.9236465,54.6041632],[-5.9238746,54.6043781],[-5.9241674,54.6047173],[-5.9242599,54.6048529],[-5.9244063,54.6051053],[-5.9245451,54.6053816],[-5.9246977,54.6056867],[-5.9247098,54.6057368],[-5.9247218,54.6058214],[-5.9247451,54.6061461],[-5.9247488,54.6064699],[-5.9247437,54.6069839],[-5.9247285,54.6072765],[-5.924689,54.6074891],[-5.9246378,54.6076592],[-5.9245836,54.6077884],[-5.9244768,54.6079893],[-5.9243522,54.6081801],[-5.9241011,54.6084657],[-5.9236657,54.6088778],[-5.9232781,54.6092133],[-5.9229656,54.6094805],[-5.9228036,54.6096251],[-5.9226707,54.6097473],[-5.9224827,54.609933],[-5.9223253,54.6101102],[-5.922186,54.6103019],[-5.9221073,54.610443],[-5.9219476,54.6107725],[-5.9218799,54.6109214],[-5.9218391,54.6110599],[-5.9217707,54.6113535],[-5.921768,54.6115632],[-5.92176,54.6125946],[-5.9217412,54.6129891],[-5.9217412,54.613396],[-5.9217296,54.6135333],[-5.9217194,54.6139145],[-5.9217046,54.6141886],[-5.9216615,54.6146222],[-5.9216151,54.6150067],[-5.9215749,54.6154882],[-5.9215025,54.6160225],[-5.921355,54.6173675],[-5.9213339,54.6177893],[-5.921127,54.619843],[-5.9210993,54.6201123],[-5.9210579,54.6205154],[-5.9210349,54.6207399],[-5.9209984,54.6210559],[-5.9209321,54.62182],[-5.9209143,54.6220626],[-5.920861,54.6234122],[-5.9208471,54.624811],[-5.9208481,54.6253965],[-5.920853,54.6262148],[-5.9208415,54.6264169],[-5.9208481,54.6268518],[-5.9208521,54.6274338],[-5.920856,54.628033],[-5.9208738,54.6284622],[-5.920859,54.6294762],[-5.9208629,54.6298356],[-5.92086,54.6306104],[-5.920858,54.6308954],[-5.9208521,54.6324043],[-5.9208382,54.6329748],[-5.9208056,54.6339584],[-5.9207947,54.6344722],[-5.920767,54.6351148],[-5.9207344,54.6356886],[-5.9207235,54.6361029],[-5.9206751,54.6370046],[-5.9206128,54.6374943],[-5.9205871,54.6377035],[-5.9205189,54.6380922],[-5.9203271,54.6389653],[-5.9202243,54.639463],[-5.9201067,54.6399424],[-5.9199999,54.6403904],[-5.9198981,54.6408126],[-5.9197765,54.6412451],[-5.9196717,54.6415918],[-5.9195598,54.6419378],[-5.9193479,54.6425307],[-5.9190844,54.6432128],[-5.9187023,54.6440277],[-5.9184833,54.6444675],[-5.9182202,54.6449067],[-5.9177835,54.645532],[-5.9173633,54.6460679],[-5.9169321,54.64657],[-5.9165737,54.6469816],[-5.9160347,54.64762],[-5.915624,54.6480806],[-5.9152364,54.6485301],[-5.9147798,54.6490049],[-5.9143559,54.6494743],[-5.9132224,54.6508996],[-5.912697,54.6515757],[-5.9121417,54.6523616],[-5.9111775,54.6536636],[-5.9103065,54.6548964],[-5.9091489,54.6565085],[-5.9089924,54.6567327],[-5.9080667,54.6580278],[-5.9073678,54.659189],[-5.9070221,54.659793],[-5.9068056,54.6602108],[-5.906588,54.6608213],[-5.9063941,54.6614641],[-5.9061268,54.6626234],[-5.9060933,54.6628125],[-5.906021,54.6632887],[-5.9058986,54.6639621],[-5.9057308,54.6649338],[-5.9055174,54.6659277],[-5.9051432,54.6682568],[-5.9049473,54.6696099],[-5.9047955,54.670559],[-5.9046751,54.6713451],[-5.9045263,54.6722537],[-5.9044879,54.6724612],[-5.904357,54.6732712],[-5.9042562,54.6738757],[-5.9041578,54.6744802],[-5.9040077,54.6753582],[-5.9039009,54.6759391],[-5.9038457,54.6762174],[-5.9037804,54.6764506],[-5.9037316,54.6766248],[-5.9035756,54.6771037],[-5.9034074,54.6775712],[-5.9032318,54.6780594],[-5.903092,54.6784645],[-5.9029344,54.6788963],[-5.9029036,54.6789797],[-5.9026867,54.6795859],[-5.9024582,54.6802649],[-5.9023616,54.6806557],[-5.9023275,54.6807921],[-5.902278,54.6811788],[-5.9021948,54.681811],[-5.9021576,54.6823481],[-5.9021688,54.6826998],[-5.9022196,54.6831493],[-5.9022792,54.6835082],[-5.9023632,54.6838606],[-5.9024957,54.6843089],[-5.9026879,54.6848018],[-5.9030587,54.6855232],[-5.9034522,54.6861783],[-5.904023,54.686922],[-5.904547,54.6874983],[-5.9049763,54.6879063],[-5.9052112,54.6881388],[-5.9055138,54.6883943],[-5.9060899,54.6888425],[-5.9065693,54.6891859],[-5.9070558,54.6895138],[-5.9075427,54.6898056],[-5.9077533,54.6899188],[-5.9080686,54.6901011],[-5.9084668,54.6903032],[-5.908955,54.6905521],[-5.9093029,54.6907063],[-5.9097931,54.6909331],[-5.9102148,54.6911176],[-5.9107167,54.6913211],[-5.9114005,54.6915825],[-5.9117634,54.6917237],[-5.9124896,54.6919731],[-5.9128088,54.6920776],[-5.9132403,54.6922131],[-5.9138066,54.6923678],[-5.9143883,54.6925397],[-5.9158408,54.6928916],[-5.9163798,54.693013],[-5.917531,54.6932455],[-5.9181107,54.6933387],[-5.9188191,54.6934443],[-5.919389,54.6935316],[-5.9199443,54.6935947],[-5.9210336,54.6937189],[-5.9218348,54.6937942],[-5.9226555,54.6938742],[-5.9241015,54.6940257],[-5.9246453,54.6940953],[-5.9257999,54.6942167],[-5.9274315,54.6943748],[-5.9285339,54.6944661],[-5.9291413,54.6945075],[-5.9299375,54.6945461],[-5.9305954,54.6945649],[-5.9315952,54.6945828],[-5.9328637,54.6945866],[-5.9341126,54.6945828],[-5.9361595,54.694595],[-5.9369704,54.694612],[-5.93883,54.6947061],[-5.9408036,54.6948661],[-5.9413986,54.6949328],[-5.9420698,54.6950099],[-5.9427183,54.6950985],[-5.9440648,54.6953139],[-5.9447301,54.6954373],[-5.9460093,54.6957166],[-5.9492925,54.6964936],[-5.9507689,54.6967646],[-5.951508,54.6968873],[-5.9553642,54.6974892],[-5.9596008,54.6981545],[-5.9635036,54.6987729],[-5.9671297,54.6993476],[-5.9754195,54.7006666],[-5.9808661,54.7015193],[-5.9809288,54.7015293],[-5.9823281,54.7017531],[-5.9846473,54.7021145],[-5.9854626,54.7022467],[-5.9856972,54.7022847],[-5.9870377,54.7025086],[-5.9880539,54.7027109],[-5.9893549,54.7030079],[-5.9902842,54.7032592],[-5.991162,54.7035208],[-5.9915832,54.7036602],[-5.9930312,54.7041713],[-5.9936477,54.7044222],[-5.9940414,54.7045838],[-5.9945422,54.7047978],[-5.9953258,54.7051615],[-5.9958887,54.7054458],[-5.9961504,54.705588],[-5.9963304,54.7056851],[-5.9969282,54.7060388],[-5.9974719,54.7063967],[-5.9981285,54.7068738],[-5.998605,54.7072538],[-5.9989939,54.7075895],[-5.9998342,54.7083412],[-6.000612,54.7090243],[-6.0014342,54.7096865],[-6.0017583,54.7099154],[-6.0021076,54.7101692],[-6.0026141,54.7104965],[-6.0031519,54.7108279],[-6.003692,54.71114],[-6.0044374,54.7115331],[-6.0051996,54.7119006],[-6.0056305,54.7120969],[-6.0060518,54.7122813],[-6.0076195,54.7128825],[-6.008246,54.7130988],[-6.0135613,54.7148334],[-6.0153294,54.7154068],[-6.0162261,54.7157008],[-6.0171731,54.7160086],[-6.0179905,54.7162742],[-6.0188488,54.7165605],[-6.0194045,54.7167422],[-6.0207909,54.717197],[-6.0218844,54.7175575],[-6.0226358,54.7178113],[-6.0233656,54.7180505],[-6.0237713,54.7181808],[-6.0239297,54.718228],[-6.0248876,54.7185268],[-6.0261671,54.7188665],[-6.0266653,54.7189795],[-6.027305,54.7191078],[-6.0280276,54.7192402],[-6.0286458,54.7193421],[-6.0292304,54.7194246],[-6.0298245,54.7194925],[-6.0306479,54.7195743],[-6.0313993,54.7196305],[-6.0320811,54.7196596],[-6.0328313,54.7196894],[-6.0335635,54.7196901],[-6.0342213,54.719686],[-6.0348575,54.7196652],[-6.0357229,54.7196152],[-6.036245,54.7195799],[-6.0368896,54.7195147],[-6.0377118,54.7194149],[-6.0382688,54.7193386],[-6.0389722,54.7192235],[-6.040008,54.7190253],[-6.0411064,54.7187622],[-6.042004,54.7185304],[-6.0429102,54.7182585],[-6.0441738,54.7178039],[-6.0454022,54.7173126],[-6.0463019,54.7169483],[-6.0469297,54.716689],[-6.0476247,54.7164013],[-6.0484253,54.7160754],[-6.0491863,54.7157662],[-6.0500181,54.7154202],[-6.0505415,54.715206],[-6.0509592,54.7150347],[-6.0517358,54.7147172],[-6.0528461,54.7142602],[-6.0534247,54.7140286],[-6.0540812,54.7137638],[-6.0546898,54.7135183],[-6.0553752,54.7132354],[-6.05603,54.7129615],[-6.0597468,54.71145],[-6.0598239,54.7114151],[-6.0641968,54.7096529],[-6.0655877,54.7090757],[-6.0662738,54.7087926],[-6.0671517,54.7084464],[-6.0681906,54.7080623],[-6.0686456,54.707882],[-6.0691723,54.7076774],[-6.0694519,54.7075752],[-6.0701161,54.7073324],[-6.0716008,54.7068155],[-6.0731578,54.7063364],[-6.0733783,54.706269],[-6.074464,54.7059563],[-6.0755717,54.7056703],[-6.0804174,54.7044971],[-6.0809829,54.7043636],[-6.0813369,54.7042828],[-6.0827484,54.7039409],[-6.0837482,54.7037023],[-6.0861961,54.7031246],[-6.0874655,54.7028256],[-6.0881541,54.7026618],[-6.0886059,54.7025516],[-6.0907036,54.7020401],[-6.0927068,54.7015698],[-6.0929515,54.7015117],[-6.0974697,54.7004392],[-6.0990533,54.7000651],[-6.1005928,54.6996909],[-6.1036819,54.6989585],[-6.1078955,54.6979634],[-6.1085389,54.6978129],[-6.1095376,54.6975798],[-6.110349,54.697389],[-6.1108627,54.6972614],[-6.1112735,54.6971659],[-6.1120366,54.6970062],[-6.1132442,54.6967689],[-6.1134938,54.6967245],[-6.1149394,54.6964771],[-6.1156999,54.6963571],[-6.1164595,54.6962484],[-6.1168522,54.6961934],[-6.1175315,54.6961025],[-6.1185098,54.6959901],[-6.1197908,54.6958607],[-6.1205781,54.6957871],[-6.1214015,54.6957243],[-6.1231731,54.6956065],[-6.1234681,54.6955949],[-6.1242889,54.6955631],[-6.1251043,54.6955336],[-6.1257158,54.6955212],[-6.1266573,54.6955112],[-6.1277516,54.6955073],[-6.1289975,54.695522],[-6.130403,54.6955685],[-6.1313377,54.695608],[-6.1325045,54.6956755],[-6.1336592,54.6957638],[-6.1342976,54.6958134],[-6.1349306,54.6958723],[-6.1364793,54.6960622],[-6.1385087,54.6963474],[-6.1403258,54.6966488],[-6.1422859,54.6970032],[-6.1424786,54.6970396],[-6.1432506,54.6971852],[-6.1450848,54.6975338],[-6.1465136,54.697799],[-6.1492662,54.6983118],[-6.1507881,54.698586],[-6.1526574,54.6989363],[-6.1555711,54.6994815],[-6.1568655,54.699725],[-6.1572544,54.6997985],[-6.1574859,54.699841],[-6.1575685,54.6998554],[-6.1576499,54.6998711],[-6.1583636,54.7000022],[-6.1597992,54.7002677],[-6.1605163,54.7003986],[-6.1617876,54.7006316],[-6.1646822,54.7011663],[-6.1677762,54.7017292],[-6.1740384,54.7029029],[-6.1749807,54.7030846],[-6.1761599,54.7032894],[-6.1768477,54.7033962],[-6.1779588,54.7035378],[-6.1786726,54.7036144],[-6.1793685,54.7036726],[-6.1798756,54.7036976],[-6.1811618,54.7037697],[-6.1830836,54.703844],[-6.1837924,54.7038907],[-6.1839009,54.7038978],[-6.1842798,54.7039228],[-6.1856875,54.7040702],[-6.1870748,54.7042886],[-6.1897336,54.7047828],[-6.1901722,54.7048633],[-6.1920676,54.7052273],[-6.1934387,54.7055241],[-6.1946348,54.7058388],[-6.1977957,54.7069597],[-6.1979902,54.7070265],[-6.1984481,54.7072167],[-6.2011469,54.7084858],[-6.2026448,54.7093455],[-6.2038216,54.7101266],[-6.2052426,54.7111936],[-6.2057107,54.7115679],[-6.2061177,54.7119418],[-6.2067567,54.7125954],[-6.2072658,54.7131929],[-6.207414,54.7133819],[-6.208032,54.7141037],[-6.208865,54.7150823],[-6.209346,54.7156388],[-6.2114415,54.7180991],[-6.2118017,54.7185255],[-6.2119239,54.718663],[-6.2119547,54.7186978],[-6.2124058,54.7192193],[-6.2127836,54.719656],[-6.2131646,54.720083],[-6.2170577,54.7245977],[-6.2171395,54.7246918],[-6.2176735,54.7253144],[-6.2186818,54.7264871],[-6.2191093,54.726976],[-6.2192123,54.7271046],[-6.2198181,54.7278049],[-6.2199854,54.7279968],[-6.2200927,54.7281253],[-6.2214328,54.7296683],[-6.221574,54.7298303],[-6.2222651,54.7306578],[-6.2233543,54.7318982],[-6.2241482,54.7326601],[-6.2243574,54.732863],[-6.2252294,54.7335754],[-6.2256832,54.733911],[-6.2260654,54.7341815],[-6.2263554,54.7343853],[-6.2269174,54.7347406],[-6.2270352,54.7348151],[-6.227808,54.7352716],[-6.2283282,54.7355479],[-6.2285464,54.735665],[-6.2288894,54.7358333],[-6.2294192,54.7360893],[-6.2301259,54.7364006],[-6.2307616,54.7366684],[-6.2309135,54.7367294],[-6.231563,54.7369664],[-6.2325795,54.7373555],[-6.2328888,54.7374597],[-6.2333412,54.737593],[-6.2339114,54.7377632],[-6.2347618,54.7380016],[-6.2357025,54.7382292],[-6.2365296,54.7384071],[-6.2375852,54.7386252],[-6.2379244,54.7387003],[-6.2382723,54.7387666],[-6.2392174,54.7389628],[-6.2409246,54.7393132],[-6.2429885,54.7397369],[-6.2446606,54.7400754],[-6.2463967,54.7404389],[-6.2471787,54.7405995],[-6.2472867,54.7406217],[-6.2483689,54.7408349],[-6.2499049,54.7411664],[-6.2511762,54.7414892],[-6.2521055,54.7417603],[-6.2525096,54.7418885],[-6.2532043,54.742109],[-6.25414,54.7424555],[-6.2550236,54.7428106],[-6.255814,54.7431484],[-6.2571673,54.7437833],[-6.2573846,54.7439029],[-6.2582895,54.7444009],[-6.2592476,54.7449712],[-6.2602542,54.7456555],[-6.2609849,54.7461956],[-6.2618051,54.7468735],[-6.2624352,54.7474695],[-6.2630951,54.7481559],[-6.2637066,54.7489171],[-6.2642351,54.7496496],[-6.264257,54.7496831],[-6.2644968,54.7499914],[-6.2646722,54.750237],[-6.26492,54.7505797],[-6.2655024,54.7514233],[-6.2663325,54.7525084],[-6.2664575,54.7526775],[-6.2669165,54.7533481],[-6.267199,54.7537335],[-6.2677663,54.7545018],[-6.2678855,54.7546489],[-6.2684307,54.7554259],[-6.2688933,54.7560371],[-6.2709726,54.7588444],[-6.2715988,54.7597033],[-6.2735288,54.762356],[-6.2736596,54.7625318],[-6.2748138,54.7640828],[-6.2757816,54.7653832],[-6.276407,54.76625],[-6.2767654,54.7667156],[-6.2783904,54.768919],[-6.2787016,54.7693278],[-6.2794472,54.7703071],[-6.2802637,54.7713983],[-6.2815933,54.7731801],[-6.2820754,54.7738189],[-6.2834926,54.7757158],[-6.2847801,54.7774369],[-6.285207,54.7779839],[-6.2858894,54.7789028],[-6.2862371,54.7793624],[-6.2867215,54.7800078],[-6.2874128,54.7809265],[-6.288405,54.7822285],[-6.2896099,54.7838179],[-6.2901631,54.7845477],[-6.290987,54.7856345],[-6.2919182,54.7868723],[-6.2922969,54.7873674],[-6.2928207,54.7880523],[-6.2930916,54.7884227],[-6.2934992,54.7889864],[-6.2941422,54.7898087],[-6.2949382,54.7908345],[-6.295384,54.7914625],[-6.2959155,54.7921746],[-6.296363,54.7927434],[-6.297,54.7935978],[-6.2971623,54.7938081],[-6.2972562,54.7939338],[-6.2979337,54.794906],[-6.2980367,54.7950538],[-6.2985372,54.7958428],[-6.2990471,54.7969045],[-6.299182,54.7972041],[-6.299625,54.7983981],[-6.2998948,54.7997199],[-6.2999531,54.8002542],[-6.3000105,54.8013858],[-6.2998948,54.8028895],[-6.2997593,54.8038559],[-6.2996823,54.8043229],[-6.2995912,54.8048625],[-6.2994721,54.8056121],[-6.2993344,54.8064761],[-6.299304,54.8066632],[-6.2992351,54.8070776],[-6.2991672,54.8075353],[-6.299076,54.8081196],[-6.2989544,54.8088995],[-6.2987863,54.8098884],[-6.2986063,54.8110459],[-6.2985971,54.8111055],[-6.2985422,54.8114728],[-6.2984999,54.8119204],[-6.2983891,54.8124878],[-6.2982014,54.8135777],[-6.2980284,54.8146461],[-6.2980187,54.8147062],[-6.2978903,54.8154988],[-6.2978454,54.815818],[-6.2976174,54.8171394],[-6.2974028,54.8185782],[-6.2972773,54.819389],[-6.2972686,54.8194438],[-6.2971694,54.8200571],[-6.2968529,54.822049],[-6.2967165,54.8228931],[-6.2963704,54.8250482],[-6.2960227,54.827263],[-6.2960068,54.8273643],[-6.2955904,54.8300232],[-6.2954395,54.8310702],[-6.2952958,54.8318566],[-6.2951057,54.8330333],[-6.2949976,54.8337106],[-6.2947327,54.8354323],[-6.2945882,54.8363705],[-6.2945829,54.8364235],[-6.2945741,54.8364938],[-6.2943953,54.8375241],[-6.2942485,54.8382752],[-6.293805,54.8396934],[-6.2937594,54.8398193],[-6.2933433,54.8408205],[-6.2930042,54.8414707],[-6.2927826,54.8418588],[-6.2926863,54.8420493],[-6.2918729,54.8433489],[-6.2907964,54.8447947],[-6.2904648,54.8452492],[-6.2892005,54.8469738],[-6.2891067,54.8470912],[-6.2885863,54.8477661],[-6.2875878,54.8491112],[-6.2868492,54.8501249],[-6.2867526,54.8502561],[-6.2863697,54.8507811],[-6.2857683,54.8515625],[-6.2853096,54.8521122],[-6.2850092,54.852421],[-6.2846873,54.852702],[-6.2840774,54.8531797],[-6.2828938,54.8539342],[-6.2821044,54.8543789],[-6.2813694,54.8548112],[-6.2801732,54.8555909],[-6.2797733,54.8558584],[-6.279652,54.8559396],[-6.2790815,54.8564571],[-6.2786482,54.8569219],[-6.2784113,54.8572423],[-6.2781327,54.8576263],[-6.2779779,54.8579996],[-6.2779094,54.8583056],[-6.277883,54.8585736],[-6.2779175,54.8588404],[-6.2779988,54.8591869],[-6.2780379,54.8592947],[-6.2782985,54.8597915],[-6.2786003,54.860194],[-6.2789645,54.8606191],[-6.2793602,54.8609968],[-6.2794921,54.8611167],[-6.27972,54.8613023],[-6.2800869,54.8615678],[-6.2806955,54.8620064],[-6.2810485,54.8622334],[-6.2811469,54.8623045],[-6.2818206,54.8627137],[-6.2819805,54.8628051],[-6.2822143,54.8629265],[-6.2824899,54.8630689],[-6.2835362,54.8635652],[-6.2837594,54.8636699],[-6.284667,54.8641017],[-6.2861651,54.8648298],[-6.2866156,54.8650691],[-6.2876,54.8656279],[-6.288041,54.8658935],[-6.2889692,54.8664977],[-6.2896231,54.8669232],[-6.291226,54.8680454],[-6.291596,54.8682644],[-6.2921952,54.8685996],[-6.2928161,54.8689222],[-6.2933104,54.869148],[-6.2937028,54.8693118],[-6.2942327,54.869517],[-6.2943069,54.8695404],[-6.2955817,54.8699558],[-6.2967522,54.8702622],[-6.2982462,54.8705215],[-6.2997885,54.8706959],[-6.3021511,54.870927],[-6.3044153,54.8711759],[-6.3057617,54.8713287],[-6.3070492,54.8715201],[-6.308747,54.8718257],[-6.3095732,54.8720124],[-6.3106353,54.8722701],[-6.3114507,54.8724986],[-6.3125209,54.8728304],[-6.3136287,54.87321],[-6.3152755,54.8738181],[-6.3178344,54.8747379],[-6.3191218,54.8751978],[-6.3207714,54.8758042],[-6.3231606,54.8766686],[-6.3234154,54.8767596],[-6.3294329,54.8789268],[-6.3302781,54.8792425],[-6.3311655,54.8795629],[-6.3337358,54.8805637],[-6.3345402,54.8809122],[-6.3353902,54.8813037],[-6.3368283,54.8820426],[-6.3377778,54.8825565],[-6.3394451,54.8835927],[-6.3398355,54.8838401],[-6.3401214,54.8840685],[-6.3403526,54.8842409],[-6.3419564,54.8855172],[-6.343247,54.8867116],[-6.3433693,54.8868397],[-6.3436393,54.8871183],[-6.3440159,54.8875484],[-6.3442907,54.8878695],[-6.3445045,54.8881221],[-6.3446397,54.8882905],[-6.3447289,54.8883974],[-6.3449326,54.8886368],[-6.3452213,54.8890459],[-6.3455365,54.8895035],[-6.3457443,54.8898534],[-6.3470648,54.8920273],[-6.3474457,54.8926798],[-6.3480974,54.8938846],[-6.3485078,54.894591],[-6.3494573,54.8962153],[-6.3497738,54.8967751],[-6.3502593,54.8976636],[-6.3508682,54.8987185],[-6.3516487,54.9000835],[-6.3525767,54.9017136],[-6.3537059,54.9037046],[-6.3540278,54.9042289],[-6.3545991,54.9052189],[-6.3554333,54.9066824],[-6.356297,54.9081889],[-6.3566081,54.9087949],[-6.3569434,54.9094934],[-6.3572679,54.9102597],[-6.3574585,54.910713],[-6.3578126,54.9118417],[-6.3579977,54.9125632],[-6.3581103,54.9130658],[-6.3582122,54.9135423],[-6.3583142,54.9139477],[-6.3584885,54.914677],[-6.358628,54.9155003],[-6.3587272,54.9161925],[-6.3589657,54.9174027],[-6.359242,54.9188949],[-6.3593547,54.9196441],[-6.3595639,54.9205181],[-6.3597114,54.9209837],[-6.3598682,54.9213868],[-6.3599005,54.9214515],[-6.3601392,54.9219329],[-6.3604649,54.92253],[-6.360745,54.9230269],[-6.3609905,54.9233909],[-6.3613442,54.9241086],[-6.3614384,54.9243748],[-6.3615787,54.9248909],[-6.3616585,54.9253953],[-6.3616731,54.9256498],[-6.3616697,54.9259],[-6.3616324,54.9264199],[-6.3615461,54.9267773],[-6.3614379,54.9270909],[-6.3612807,54.9274632],[-6.3610251,54.9278403],[-6.3607026,54.9283193],[-6.3604764,54.9285556],[-6.3600773,54.9290164],[-6.3596247,54.9293916],[-6.3590013,54.9298642],[-6.3575603,54.930841],[-6.3573634,54.9309713],[-6.3568194,54.9313953],[-6.3562269,54.9319319],[-6.3556083,54.9325527],[-6.35508,54.9332488],[-6.3544469,54.9342624],[-6.3543182,54.9344997],[-6.3541197,54.9348695],[-6.3538634,54.9354602],[-6.3525145,54.9386477],[-6.3523171,54.9390959],[-6.3521068,54.9396122],[-6.3517393,54.9406275],[-6.3515677,54.9412469],[-6.351447,54.9416136],[-6.3512351,54.9425426],[-6.3511492,54.9431481],[-6.351117,54.9445454],[-6.3511117,54.9446933],[-6.3511626,54.9451108],[-6.3512377,54.9457378],[-6.3513665,54.946391],[-6.351506,54.9469533],[-6.3516486,54.9474156],[-6.3518964,54.9482342],[-6.3520981,54.9487292],[-6.352736,54.9503256],[-6.3529372,54.9506891],[-6.3532058,54.9512471],[-6.3534383,54.9516722],[-6.3536183,54.9519958],[-6.3543026,54.9531392],[-6.3546472,54.9537046],[-6.355916,54.9559412],[-6.3570197,54.9578411],[-6.3572378,54.9582479],[-6.3575087,54.9587084],[-6.3581793,54.9598557],[-6.3587452,54.9608606],[-6.3589753,54.9612442],[-6.3593696,54.9619264],[-6.3597961,54.9626856],[-6.3603272,54.9635726],[-6.3606115,54.9640207],[-6.3612928,54.9650123],[-6.3618641,54.9656636],[-6.3626419,54.9664735],[-6.363224,54.9670109],[-6.3639884,54.967636],[-6.3654298,54.9687824],[-6.3657471,54.9690713],[-6.3661773,54.9694699],[-6.3664419,54.9697373],[-6.3669142,54.9702326],[-6.3672447,54.9706355],[-6.3682055,54.971973],[-6.3686077,54.972631],[-6.3688291,54.9730964],[-6.3691059,54.9737432],[-6.3694035,54.9747533],[-6.369627,54.975776],[-6.3696721,54.9764299],[-6.3696725,54.9764779],[-6.3696751,54.9767686],[-6.3696524,54.9771584],[-6.3696326,54.9774937],[-6.3695272,54.9781457],[-6.3693735,54.9788154],[-6.3688445,54.9804274],[-6.3687945,54.9806417],[-6.3687812,54.9806844],[-6.368678,54.9810933],[-6.3686165,54.9813702],[-6.3685611,54.9817474],[-6.3685025,54.9823596],[-6.3685028,54.9825881],[-6.3684898,54.983019],[-6.3685146,54.9834017],[-6.3685528,54.9838581],[-6.3686291,54.9844321],[-6.3687194,54.9849365],[-6.3688651,54.9855379],[-6.368985,54.9859686],[-6.3690432,54.9861722],[-6.3691397,54.9864585],[-6.3694219,54.9872782],[-6.3694588,54.9874006],[-6.3695986,54.9877147],[-6.3696271,54.9877781],[-6.3699308,54.9887317],[-6.3707113,54.9909544],[-6.3718441,54.9942039],[-6.3723081,54.9953779],[-6.3726929,54.9962292],[-6.3728794,54.9965684],[-6.3731415,54.9969713],[-6.3736139,54.9976659],[-6.374148,54.9983179],[-6.3744671,54.9986905],[-6.375151,54.9993854],[-6.3755866,54.9997796],[-6.376186,55.0003033],[-6.376629,55.0006606],[-6.3767155,55.0007243],[-6.3780709,55.0016502],[-6.3792249,55.0023364],[-6.3793113,55.0023839],[-6.3801061,55.002809],[-6.3809486,55.003219],[-6.3819119,55.0036477],[-6.3828736,55.0040325],[-6.3842,55.0045157],[-6.385548,55.0049527],[-6.3862145,55.0051758],[-6.3873267,55.0055447],[-6.3890234,55.006133],[-6.3899846,55.0064992],[-6.3909478,55.0069006],[-6.3922572,55.0074806],[-6.3935159,55.0081118],[-6.3948746,55.0088596],[-6.395531,55.0092587],[-6.3965798,55.009928],[-6.3973061,55.0104303],[-6.3984543,55.0112974],[-6.398911,55.0116828],[-6.4004579,55.0130978],[-6.4010034,55.013657],[-6.4012591,55.0139157],[-6.4019218,55.014614],[-6.4024239,55.0151405],[-6.4036625,55.016429],[-6.4039845,55.0167826],[-6.4047096,55.0175708],[-6.4052811,55.0182103],[-6.4059878,55.01896],[-6.4076257,55.0207103],[-6.4079556,55.0210678],[-6.4086195,55.0217759],[-6.4093276,55.0225255],[-6.4101041,55.023345],[-6.411073,55.0243552],[-6.411647,55.0249669],[-6.4132377,55.0266592],[-6.4140828,55.027559],[-6.4141544,55.0276383],[-6.4151135,55.0286566],[-6.4156297,55.029197],[-6.4161508,55.0297411],[-6.4179035,55.0315984],[-6.419198,55.0329841],[-6.4194358,55.0332277],[-6.420289,55.0341898],[-6.4206343,55.0346191],[-6.4219076,55.0363949],[-6.4228721,55.0378289],[-6.423486,55.0387377],[-6.4241683,55.0397361],[-6.4245379,55.0402745],[-6.4249483,55.0408707],[-6.4252919,55.0413689],[-6.4259074,55.0422562],[-6.4266304,55.0433721],[-6.427298,55.0445187],[-6.427679,55.0451746],[-6.4279086,55.0455571],[-6.4282986,55.0461891],[-6.4285852,55.0466126],[-6.4289955,55.0471789],[-6.4297853,55.0480716],[-6.4304056,55.0486884],[-6.4310698,55.0492971],[-6.4323338,55.0504455],[-6.4330929,55.0512474],[-6.4335832,55.0518198],[-6.4339638,55.0523077],[-6.4342004,55.0526227],[-6.4346751,55.0533817],[-6.4352346,55.0543996],[-6.4355439,55.0550133],[-6.4358077,55.0555011],[-6.4362269,55.0561422],[-6.4363973,55.0563786],[-6.4366849,55.0567794],[-6.4372346,55.0574721],[-6.4378942,55.0581576],[-6.4385306,55.0587613],[-6.4394053,55.0595089],[-6.4403107,55.0601767],[-6.4407177,55.0604532],[-6.4420861,55.0613766],[-6.4429324,55.061947],[-6.4440227,55.0627524],[-6.4448567,55.0634141],[-6.4459366,55.0643613],[-6.4465664,55.0649638],[-6.447725,55.0662451],[-6.4489065,55.0677363],[-6.4511587,55.0707828],[-6.4524687,55.0725201],[-6.4527898,55.072929],[-6.4531532,55.0733485],[-6.4536867,55.0738738],[-6.4538313,55.0739956],[-6.4539136,55.0740649],[-6.4543221,55.0744089],[-6.4551665,55.0750426],[-6.4561142,55.0756364],[-6.4570945,55.0761818],[-6.4579592,55.0765986],[-6.459213,55.0771252],[-6.4601379,55.0774449],[-6.4611268,55.0777579],[-6.4631439,55.0782699],[-6.4638652,55.0784013],[-6.4650083,55.0785896],[-6.4677977,55.0789121],[-6.4684165,55.0789578],[-6.4692404,55.0790007],[-6.4703135,55.0790249],[-6.4714583,55.0790109],[-6.4726274,55.0789718],[-6.4737201,55.0788972],[-6.4743812,55.0788254],[-6.4750211,55.0787434],[-6.4763238,55.0785504],[-6.4776021,55.0782792],[-6.4785853,55.0780404],[-6.4797271,55.0777217],[-6.4804713,55.0774943],[-6.4828474,55.0767445],[-6.4843891,55.0763048],[-6.4853775,55.0760867],[-6.4861787,55.0759291],[-6.4871908,55.0757806],[-6.4873511,55.0757566],[-6.4885468,55.0756002],[-6.49098,55.0752925],[-6.4919673,55.0751796],[-6.4940605,55.0748639],[-6.4948775,55.0747124],[-6.4957135,55.0745471],[-6.4968656,55.0742871],[-6.4980257,55.0739925],[-6.4996566,55.0735153],[-6.4998243,55.0734635],[-6.5009677,55.0731051],[-6.5028221,55.0723801],[-6.5048389,55.0714707],[-6.5067752,55.0704602],[-6.5078032,55.0698699],[-6.510603,55.0683063],[-6.5110241,55.0681052],[-6.5115996,55.0677861],[-6.5121726,55.0674764],[-6.5123168,55.0673971],[-6.5138474,55.0665463],[-6.5139871,55.0664659],[-6.5143313,55.0662755],[-6.5148625,55.0660008],[-6.5152087,55.0658296],[-6.5158653,55.0655419],[-6.5159275,55.0655162],[-6.5163396,55.065371],[-6.5168713,55.0651931],[-6.5175406,55.0649819],[-6.5180025,55.0648764],[-6.5188033,55.0647302],[-6.5198468,55.0645616],[-6.5208873,55.0644404],[-6.5216008,55.0643898],[-6.5223055,55.0643671],[-6.5232037,55.0643743],[-6.5235386,55.0643773],[-6.5256278,55.0644631],[-6.5268403,55.064511],[-6.5281542,55.064563],[-6.5297367,55.0646359],[-6.5314949,55.0647004],[-6.5350249,55.0648635],[-6.536802,55.0649717],[-6.5381503,55.0650985],[-6.5384511,55.0651385],[-6.5393658,55.0652779],[-6.5403236,55.0654239],[-6.5422604,55.0657953],[-6.5436936,55.0661472],[-6.545153,55.0665515],[-6.546516,55.0669967],[-6.5477398,55.0674344],[-6.5496749,55.0681415],[-6.5528427,55.0692976],[-6.554336,55.069844],[-6.5555443,55.0702917],[-6.5572718,55.0709102],[-6.558478,55.0713466],[-6.5603026,55.0720195],[-6.5614818,55.0724182],[-6.5627216,55.0727894],[-6.5633774,55.0729761],[-6.5637148,55.0730721],[-6.5649048,55.0733837],[-6.5662125,55.0736885],[-6.5665271,55.0737627],[-6.5675843,55.0739769],[-6.56887,55.0742134],[-6.5695365,55.0743331],[-6.5710466,55.0745612],[-6.5731736,55.0748691],[-6.5745683,55.0750564],[-6.576189,55.0752725],[-6.5763042,55.0752897],[-6.5773533,55.075444],[-6.5783031,55.0755945],[-6.5803288,55.0759787],[-6.5806585,55.0760425],[-6.5814312,55.0762108],[-6.5815126,55.0762271],[-6.5834239,55.0766633],[-6.584463,55.0769414],[-6.5845152,55.0769615],[-6.587326,55.077776],[-6.5877715,55.0779186],[-6.5878456,55.0779405],[-6.5921174,55.0792049],[-6.5938117,55.079798],[-6.594299,55.0799869],[-6.5972943,55.0812237],[-6.5974211,55.0812729],[-6.5996961,55.0824143],[-6.6014824,55.0834371],[-6.6029132,55.0843776],[-6.6041446,55.0852543],[-6.6054036,55.0862998],[-6.6064697,55.0872765],[-6.6082454,55.0891956],[-6.6086966,55.0897984],[-6.6093329,55.0907216],[-6.6097804,55.0914521],[-6.6101213,55.0920841],[-6.6104022,55.0926418],[-6.6108769,55.0937558],[-6.611201,55.0947477],[-6.6114218,55.095598],[-6.6118124,55.097413],[-6.6120333,55.0984208],[-6.6122206,55.0992271],[-6.6123893,55.1000111],[-6.6125768,55.1009503],[-6.6130194,55.1024994],[-6.6132924,55.1031978],[-6.61396,55.1046887],[-6.6144476,55.1055847],[-6.6150094,55.1064856],[-6.6155645,55.1072566],[-6.6155927,55.1072958],[-6.6162025,55.1080594],[-6.6168026,55.1087679],[-6.6179213,55.109942],[-6.6188072,55.1107604],[-6.6193617,55.1112465],[-6.6199104,55.1116673],[-6.6205787,55.1122141],[-6.621904,55.1131469],[-6.6231259,55.1139831],[-6.624175,55.1146765],[-6.624912,55.1151762],[-6.6264484,55.1161977],[-6.628453,55.1174485],[-6.6300446,55.1183573],[-6.6313025,55.1190369],[-6.6326936,55.11972],[-6.6328197,55.1197851],[-6.6336243,55.1201556],[-6.6345939,55.1205766],[-6.6351436,55.1208038],[-6.6384661,55.1221669],[-6.6394671,55.1225733],[-6.6407611,55.1231182],[-6.6419398,55.1236083],[-6.6434138,55.124215],[-6.6447869,55.1247778],[-6.6456584,55.1251375],[-6.6472452,55.1257922],[-6.6489353,55.1264936],[-6.6505101,55.1271195],[-6.6507982,55.1272472],[-6.6537122,55.1284495],[-6.6568997,55.1297934],[-6.6582771,55.1303571],[-6.6589837,55.1306463],[-6.6596443,55.1310219],[-6.6602644,55.1313746],[-6.6610177,55.1320023],[-6.661382,55.1323719],[-6.6615935,55.1326226],[-6.6619108,55.1329987],[-6.6626626,55.1339226],[-6.6630713,55.1344141],[-6.6631678,55.1345364],[-6.6632148,55.1345959],[-6.663452,55.1348792],[-6.6637346,55.1352394],[-6.6641155,55.1357134],[-6.6646657,55.1363897],[-6.6650349,55.1367474],[-6.6653189,55.1369541],[-6.6655127,55.1370749],[-6.6660298,55.1373565],[-6.6667997,55.1376758],[-6.6673663,55.1378533],[-6.6685849,55.1381953],[-6.6704464,55.1386841],[-6.6706051,55.1387282],[-6.6711721,55.1388858],[-6.6721981,55.1391518],[-6.672558,55.1392504],[-6.6731268,55.1394004],[-6.6734465,55.1395128],[-6.6738518,55.1396554],[-6.674276,55.1398372],[-6.6746714,55.1400359],[-6.6752949,55.140436],[-6.6764536,55.1413458],[-6.6776033,55.142284],[-6.6804032,55.1445942],[-6.6815459,55.1453462],[-6.6823924,55.1459735],[-6.6834074,55.1467406],[-6.6839838,55.1471326],[-6.6845421,55.1474226],[-6.6850546,55.1476802],[-6.688238,55.1490767],[-6.6899479,55.1497759],[-6.6916342,55.1504972],[-6.6951174,55.1519454],[-6.6960373,55.1522245],[-6.6969997,55.1524625],[-6.6980269,55.1526383],[-6.6990777,55.1527645],[-6.7011544,55.1528386],[-6.7032924,55.152856],[-6.7043419,55.1528638],[-6.7053978,55.1529006],[-6.7064376,55.1530042],[-6.7074484,55.1531448],[-6.7113407,55.1541241],[-6.7160778,55.1553822],[-6.716759,55.1555431],[-6.7172901,55.1556466],[-6.7177045,55.1557178],[-6.7185213,55.1558305],[-6.7193943,55.1559147],[-6.7205906,55.1559845],[-6.7214569,55.1560343],[-6.7231065,55.1561262],[-6.724913,55.1562266],[-6.7250109,55.156232],[-6.7255929,55.1562672],[-6.7264539,55.1563285],[-6.7273122,55.1564082],[-6.7276595,55.1564519],[-6.7279962,55.1565032],[-6.7288062,55.1566396],[-6.7295022,55.1567798],[-6.7302197,55.1569338],[-6.7310257,55.1571039],[-6.731766,55.1572411],[-6.7324325,55.1573414],[-6.733138,55.1574334],[-6.7337277,55.1574891],[-6.7345743,55.1575407],[-6.7390603,55.1577636],[-6.7399843,55.1578173],[-6.7410907,55.1578701],[-6.7422467,55.1579268],[-6.7433062,55.1579766],[-6.7440599,55.1580149],[-6.7449799,55.1580632],[-6.7460863,55.1581184],[-6.7465584,55.1581398],[-6.7478593,55.1582126],[-6.7491145,55.1582754],[-6.7502759,55.1583321],[-6.7513515,55.1583942],[-6.7523573,55.1584463],[-6.7539009,55.1585252],[-6.7546748,55.1585635],[-6.755702,55.1586149],[-6.7566864,55.1586785],[-6.7577875,55.1587566],[-6.7588317,55.1588502],[-6.7604603,55.159034],[-6.7611027,55.1591129],[-6.7618416,55.1592071],[-6.7621167,55.1592401],[-6.7628689,55.1593305],[-6.763915,55.1594638],[-6.7649919,55.1595994],[-6.7660876,55.1597457],[-6.7683124,55.16003],[-6.7690863,55.1601365],[-6.7702007,55.1602759],[-6.7714345,55.160436],[-6.772372,55.1605533],[-6.7735615,55.1607042],[-6.7744011,55.160813],[-6.7755879,55.1609869],[-6.7761686,55.1610811],[-6.7767011,55.1611823],[-6.7772587,55.1612935],[-6.7784163,55.161576],[-6.7803234,55.1620702],[-6.7815049,55.1623851],[-6.7821853,55.162584],[-6.7828138,55.1627934],[-6.7832572,55.1629611],[-6.7838552,55.163238],[-6.7844226,55.1635414],[-6.7846565,55.1636755],[-6.7856278,55.1642762],[-6.7859748,55.1645177],[-6.7864683,55.1648195],[-6.7865272,55.1648541],[-6.7865988,55.1648964],[-6.7867575,55.164981],[-6.7871892,55.1651943],[-6.7875028,55.1653343],[-6.7879234,55.1654979],[-6.7884459,55.1656806],[-6.7889102,55.1658167],[-6.7894906,55.1659779],[-6.7900491,55.1661178],[-6.7904056,55.1662051],[-6.7904566,55.1662172],[-6.7910788,55.1663621],[-6.7920604,55.1665762],[-6.7928294,55.166739],[-6.7937013,55.1668861],[-6.7941967,55.1669517],[-6.794645,55.1670111],[-6.7955844,55.1670988],[-6.8051079,55.1678697],[-6.8054454,55.1678875],[-6.8057911,55.1679117],[-6.8065789,55.1679542],[-6.8070251,55.1679672],[-6.8081029,55.167942],[-6.808761,55.1679266],[-6.8102623,55.167869],[-6.8114135,55.1677941],[-6.8118375,55.1677453],[-6.8121835,55.167699],[-6.8129134,55.1675976],[-6.813682,55.1674555],[-6.814751,55.1672434],[-6.8156747,55.1670423],[-6.8169504,55.166808],[-6.8180905,55.1666549],[-6.8188914,55.1665701],[-6.8197408,55.1665018],[-6.8200945,55.1664718],[-6.8204041,55.1664538],[-6.8206192,55.1664445],[-6.8211017,55.1664236],[-6.8217597,55.1664087],[-6.8227804,55.1664236],[-6.8237226,55.1664321],[-6.8249788,55.1664813],[-6.8269006,55.1665005],[-6.8282615,55.166462],[-6.8304338,55.1663659],[-6.8327518,55.1662528],[-6.8346063,55.1661139],[-6.8365355,55.1659687],[-6.8383339,55.1657787],[-6.8405473,55.1655224],[-6.8425363,55.1652725],[-6.8479052,55.1646193],[-6.8496157,55.1644049],[-6.8515113,55.1641364],[-6.8515725,55.1641277],[-6.8518655,55.1640862],[-6.8528992,55.1639186],[-6.8544669,55.1636558],[-6.8558047,55.1634383],[-6.857071,55.163233],[-6.8582686,55.1630276],[-6.8595059,55.1627905],[-6.8606797,55.1625398],[-6.8619249,55.1622302],[-6.8629343,55.1619819],[-6.8634075,55.1618567],[-6.8639521,55.1617145],[-6.8647167,55.1615264],[-6.8658033,55.1612606],[-6.8671331,55.1609343],[-6.8681503,55.160681],[-6.8685581,55.1605809],[-6.8702686,55.1601565],[-6.8714186,55.1598726],[-6.872529,55.1595932],[-6.8739196,55.1592533],[-6.8748899,55.1590117],[-6.8757174,55.1588017],[-6.8764021,55.1586084],[-6.8770789,55.1584045],[-6.8777874,55.1581628],[-6.8783003,55.157971],[-6.8788,55.1577656],[-6.8792573,55.1575708],[-6.8803882,55.1570296],[-6.8811102,55.1566728],[-6.8816818,55.1563973],[-6.8833381,55.1555749],[-6.885301,55.1545965],[-6.8878845,55.1533126],[-6.8885238,55.1529901],[-6.8894137,55.1525649],[-6.8901315,55.1522487],[-6.8909618,55.151919],[-6.8926908,55.1512618],[-6.8945335,55.1505609],[-6.8954367,55.1502149],[-6.8955017,55.1501899],[-6.8976381,55.1493714],[-6.8988439,55.148911],[-6.9011913,55.1480148],[-6.9055429,55.1463529],[-6.910869,55.1443156],[-6.9119433,55.1439041],[-6.9121353,55.1438305],[-6.9141308,55.1430686],[-6.9146284,55.1428786],[-6.9182203,55.1415049],[-6.9183196,55.1414658],[-6.9273394,55.1379923],[-6.9283743,55.137535],[-6.9302411,55.1366665],[-6.9317503,55.1359647],[-6.9342214,55.1348258],[-6.9369327,55.1335684],[-6.9398459,55.1322037],[-6.9415963,55.1313905],[-6.9439435,55.1303628],[-6.9451635,55.1297961],[-6.946763,55.1290113],[-6.9492564,55.1278573],[-6.9501753,55.1274304],[-6.9510643,55.1270198],[-6.9521223,55.1265082],[-6.9529747,55.1261289],[-6.954612,55.125376],[-6.9562434,55.1246134],[-6.9597093,55.1229993],[-6.9626275,55.1216423],[-6.9634514,55.1212625],[-6.9655587,55.1202911],[-6.9682058,55.1190553],[-6.9699811,55.11823],[-6.9743749,55.1161874],[-6.9752091,55.1157916],[-6.9757121,55.1155688],[-6.9815066,55.1128837],[-6.985716,55.110933],[-6.9876529,55.1100311],[-6.9921353,55.1079438],[-6.993795,55.1071745],[-6.9970681,55.1056644],[-6.9980168,55.1052244],[-6.9993637,55.1045946],[-7.0004644,55.1040816],[-7.0010815,55.1037953],[-7.00174,55.1034631],[-7.0024082,55.1031017],[-7.0029913,55.1027402],[-7.0035283,55.1023816],[-7.0040143,55.1020257],[-7.0046581,55.1014891],[-7.0051733,55.1010068],[-7.0055887,55.1005522],[-7.0060061,55.1000801],[-7.0063443,55.0996238],[-7.0067517,55.0989824],[-7.0073147,55.0980684],[-7.0078455,55.0972052],[-7.0083171,55.0963886],[-7.0085863,55.095815],[-7.0088035,55.0952527],[-7.0089665,55.0946861],[-7.0091097,55.0939514],[-7.0091676,55.0935507],[-7.0091986,55.093358],[-7.0092825,55.0925795],[-7.0093146,55.0920397],[-7.0093321,55.0915884],[-7.0093467,55.0912951],[-7.0093105,55.0906352],[-7.0092751,55.0903229],[-7.009169,55.0899033],[-7.0089838,55.0894271],[-7.0087542,55.0889834],[-7.0084406,55.0884408],[-7.0079394,55.0876212],[-7.0074653,55.0868425],[-7.0070159,55.0861218],[-7.0067543,55.0857041],[-7.0065937,55.0854477],[-7.0059937,55.0844641],[-7.0054851,55.0836487],[-7.0051913,55.0831653],[-7.0047987,55.0825223],[-7.0045098,55.0820616],[-7.0041641,55.0814962],[-7.0037518,55.0808291],[-7.0033864,55.0802511],[-7.0031683,55.0799088],[-7.0027814,55.0792673],[-7.0023172,55.0785196],[-7.0016753,55.0774807],[-7.0013469,55.0768927],[-7.0012234,55.0765832],[-7.0011222,55.0762241],[-7.0010703,55.0759033],[-7.0010629,55.075629],[-7.001095,55.0753435],[-7.0011815,55.0749774],[-7.0013247,55.0746282],[-7.0015148,55.0743173],[-7.0017839,55.0739935],[-7.0021049,55.0736571],[-7.0024456,55.0733786],[-7.0028506,55.0731016],[-7.0032851,55.0728513],[-7.0042149,55.0723705],[-7.0042688,55.0723478],[-7.0048587,55.0720565],[-7.0058225,55.0715602],[-7.007146,55.0708498],[-7.0083508,55.0702032],[-7.0103534,55.0691233],[-7.010595,55.0689965],[-7.0123033,55.0680822],[-7.0143713,55.0669763],[-7.01645,55.0658642],[-7.025164,55.0611953],[-7.0260847,55.0606969],[-7.0288838,55.0592251],[-7.0294834,55.0588802],[-7.0307952,55.0581795],[-7.0311378,55.0579965],[-7.0336049,55.0566802],[-7.0379877,55.0543263],[-7.0381286,55.0542524],[-7.0381759,55.0542276],[-7.0383053,55.0541562],[-7.0386376,55.0539788],[-7.0407486,55.0528619],[-7.0419413,55.0522573],[-7.0432484,55.0516542],[-7.0444869,55.0511313],[-7.0459314,55.0505777],[-7.0472427,55.0501106],[-7.0483,55.0497768],[-7.0491524,55.0495173],[-7.0504083,55.0491876],[-7.0516147,55.0488965],[-7.0528981,55.0486141],[-7.0541587,55.0483622],[-7.0554014,55.0481484],[-7.0566098,55.0479671],[-7.0587678,55.0476809],[-7.059462,55.0475929],[-7.0597692,55.0475547],[-7.0631808,55.0471083],[-7.0676666,55.0465177],[-7.0699944,55.0462136],[-7.0721224,55.045931],[-7.0733667,55.0457678],[-7.0745102,55.0456241],[-7.0765148,55.045438],[-7.0794456,55.0451998],[-7.0795714,55.0451896],[-7.0853397,55.0447207],[-7.0897284,55.0443586],[-7.0916682,55.044189],[-7.0917246,55.0441852],[-7.0919472,55.0441664],[-7.0940182,55.0439695],[-7.1011772,55.0432803],[-7.1028393,55.0431189],[-7.1076916,55.0426573],[-7.1089175,55.0425383],[-7.1097702,55.0424676],[-7.1106191,55.0424054],[-7.1113473,55.0423731],[-7.1120862,55.0423562],[-7.1131999,55.0423739],[-7.1142429,55.0424131],[-7.1155603,55.0424611],[-7.1163843,55.0424698],[-7.1172362,55.0424552],[-7.1179025,55.0424232],[-7.1184859,55.0423873],[-7.1191565,55.0423294],[-7.1192403,55.0423198],[-7.1208218,55.0421468],[-7.1222748,55.0419696],[-7.1236486,55.0417965],[-7.1248354,55.0416502],[-7.1257381,55.0415513],[-7.1267811,55.041473],[-7.1277593,55.0414276],[-7.1290864,55.0414194],[-7.1298273,55.04144],[-7.1308091,55.0414874],[-7.1317406,55.0415574],[-7.1325678,55.041644],[-7.1334022,55.0417553],[-7.1342186,55.0418851],[-7.135035,55.0420397],[-7.1360779,55.0422787],[-7.1369699,55.0425054],[-7.1380726,55.0428325],[-7.1417779,55.0440178],[-7.1438271,55.0446402],[-7.1450046,55.0449706],[-7.146422,55.045341],[-7.1488695,55.0457881],[-7.1507284,55.0461277],[-7.1525657,55.0464627],[-7.1545076,55.04681],[-7.1569431,55.0472541],[-7.1575627,55.0473786],[-7.1598103,55.0477812],[-7.1616182,55.0481208],[-7.1681869,55.0493116],[-7.1698767,55.0495436],[-7.1704668,55.0495959],[-7.1710434,55.049642],[-7.1733019,55.0497833],[-7.175402,55.0499262],[-7.1770516,55.0500276],[-7.1784678,55.050106],[-7.1803078,55.050232],[-7.1826199,55.0503749],[-7.1853101,55.0505362],[-7.1904148,55.0508538],[-7.1974106,55.0512815],[-7.2029632,55.0516267],[-7.2052283,55.0517552],[-7.2063915,55.0518308],[-7.2075201,55.0518988],[-7.2091004,55.0519238],[-7.2106431,55.0519226],[-7.2119518,55.0518635],[-7.2133034,55.051757],[-7.2134201,55.051747],[-7.213633,55.0517211],[-7.2143396,55.0516486],[-7.2150758,55.0515589],[-7.2160844,55.0514327],[-7.2170403,55.051312],[-7.2180426,55.0511427],[-7.2199785,55.0507856],[-7.2239222,55.0499674],[-7.2298597,55.0487164],[-7.2339418,55.0478648],[-7.2356678,55.0475085],[-7.2417206,55.0462565],[-7.2443781,55.0457163],[-7.249834,55.0445272],[-7.251931,55.0439731],[-7.2535779,55.0434844],[-7.254919,55.0430972],[-7.2560965,55.0427422],[-7.2567644,55.0425255],[-7.2587201,55.0418732],[-7.2598188,55.0414754],[-7.2618157,55.0406506],[-7.2649773,55.0392289],[-7.2663586,55.038422],[-7.2668227,55.0381668],[-7.2682147,55.0372569],[-7.2699313,55.0359765],[-7.2705482,55.0354478],[-7.2716788,55.0343918],[-7.2738648,55.0323343],[-7.2745622,55.0317348],[-7.27707,55.0301545],[-7.277982,55.0296072],[-7.2793499,55.0287063],[-7.2803504,55.0280099],[-7.281839,55.0269275],[-7.2821532,55.0266617],[-7.2839982,55.0251011],[-7.2846017,55.0245291],[-7.285342,55.0238341],[-7.2857282,55.0233806],[-7.2862217,55.0227655],[-7.2867769,55.0219875],[-7.2873295,55.020762],[-7.2878203,55.0191428],[-7.2879008,55.0185539],[-7.2879062,55.0177327],[-7.2878967,55.0172794],[-7.2875791,55.0153168],[-7.2875199,55.0149447],[-7.2874073,55.0143064],[-7.2873107,55.0136344],[-7.2873053,55.0131837],[-7.2873644,55.0127777],[-7.2874797,55.0123225],[-7.2876406,55.0118472],[-7.287876,55.0114009],[-7.2881449,55.0109906],[-7.2885633,55.0104753],[-7.2889388,55.0100908],[-7.2892687,55.0098155],[-7.2896979,55.0094833],[-7.2903282,55.0090941],[-7.2912804,55.0085819],[-7.2927475,55.0079636],[-7.29363,55.0076821],[-7.2945205,55.0074499],[-7.2954083,55.0072714],[-7.2988469,55.0066239],[-7.3021968,55.0058259],[-7.3029543,55.0056304],[-7.3063543,55.0052074],[-7.3074433,55.0051873],[-7.3089561,55.0052133],[-7.3095278,55.0052088],[-7.31008,55.0051764],[-7.310602,55.0051152],[-7.3111143,55.0050402],[-7.3116794,55.0049224],[-7.3122445,55.0047657],[-7.3128856,55.0045365],[-7.3135749,55.0042211],[-7.3140792,55.0038781],[-7.3145123,55.0035378],[-7.3147716,55.0032629],[-7.314999,55.0029788],[-7.3151574,55.002719],[-7.3153639,55.0023174],[-7.3155019,55.0019636],[-7.315566,55.0016992],[-7.3155824,55.0014257],[-7.3155871,55.0012332],[-7.3155605,55.000961],[-7.3155369,55.0007392],[-7.3154879,55.0005908],[-7.3154263,55.0004043],[-7.315308,55.0001311],[-7.3151188,54.9997775],[-7.3147818,54.9991926],[-7.3143443,54.9984962],[-7.3141636,54.9981408],[-7.3139622,54.9977176]]}}]}
