{"type":"FeatureCollection","features":[{"type":"Feature","properties":{"routeName":"Belgrade–Bar Railway","source":"Prepared from the CC BY-SA 3.0 ShareMap attached KML based on OpenStreetMap railway data","sourceUrl":"https://en.wikipedia.org/wiki/Template:Attached_KML/Belgrade%E2%80%93Bar_railway","sourceLineStrings":[0,2],"licence":"CC BY-SA 3.0","orientation":"Belgrade to Bar","coordinateCount":3945,"calculatedDistanceKm":450.48},"geometry":{"type":"LineString","coordinates":[[20.4554916,44.8089091],[20.4540617,44.8071517],[20.4534879,44.806448],[20.453091,44.8059418],[20.4527679,44.8055984],[20.4526751,44.8054768],[20.4525347,44.8052391],[20.4523245,44.8049147],[20.4521092,44.8045613],[20.4519083,44.8042587],[20.451005,44.8032203],[20.4504208,44.802503],[20.4492859,44.8011116],[20.4486687,44.8003224],[20.4483916,44.7999601],[20.4482748,44.7997996],[20.4481111,44.7995745],[20.4479289,44.7993597],[20.4475522,44.7990044],[20.4474101,44.7988817],[20.4472415,44.7987657],[20.4467693,44.7984518],[20.4460907,44.7980044],[20.4456652,44.79777],[20.4450578,44.7975226],[20.4442702,44.7972826],[20.4437262,44.7971562],[20.4430909,44.79705],[20.4426997,44.7970083],[20.4420332,44.796951],[20.4416283,44.7968921],[20.4413363,44.7968331],[20.4410593,44.7967585],[20.4407354,44.796656],[20.440434,44.7965377],[20.4401096,44.7963914],[20.4397768,44.7962231],[20.4393718,44.7960204],[20.4389569,44.7958468],[20.4385128,44.7957152],[20.4379549,44.795572],[20.4368194,44.7953859],[20.4361709,44.7952874],[20.4355964,44.7952035],[20.4345269,44.7950417],[20.4334033,44.7948759],[20.4319453,44.7946666],[20.4310003,44.7945176],[20.4304411,44.7944002],[20.4298443,44.7942177],[20.4293762,44.7940148],[20.4291492,44.793885],[20.4288722,44.7937106],[20.4285441,44.7934764],[20.4282771,44.7932043],[20.4281242,44.7930016],[20.4279897,44.7927428],[20.4279121,44.7925282],[20.4278292,44.7921645],[20.4278318,44.7918706],[20.4279327,44.7914686],[20.4279815,44.7913653],[20.4280626,44.7911935],[20.4282305,44.7909359],[20.4284114,44.7907227],[20.4287493,44.7904081],[20.4289498,44.7901816],[20.429104,44.7899774],[20.4292866,44.789619],[20.4297747,44.7886158],[20.42994,44.788299],[20.4303358,44.7875887],[20.4305965,44.7871249],[20.4308704,44.7867321],[20.4310991,44.7864823],[20.431403,44.7861853],[20.4317091,44.7859286],[20.4320415,44.7856803],[20.4324389,44.7854343],[20.4328596,44.7852098],[20.4334781,44.784945],[20.4350569,44.7843813],[20.435486,44.7841986],[20.4358465,44.7840097],[20.4362019,44.7837606],[20.4365206,44.7834846],[20.4368078,44.7831629],[20.4370468,44.7827389],[20.4371489,44.7824493],[20.4371891,44.782304],[20.4372457,44.7820558],[20.4373255,44.7816319],[20.437322,44.7813297],[20.4372965,44.7811415],[20.4372414,44.7809664],[20.4371617,44.7807129],[20.4370203,44.7803738],[20.4370147,44.7803603],[20.4366598,44.7794922],[20.4365173,44.7789569],[20.4364185,44.7785039],[20.4363623,44.7781622],[20.4363088,44.7776388],[20.4362962,44.7771414],[20.4363178,44.7766936],[20.4363807,44.7761963],[20.4365092,44.7755879],[20.4367341,44.774768],[20.4368869,44.7741845],[20.437044,44.7735847],[20.4371559,44.7730997],[20.4372687,44.7726716],[20.4374215,44.7722641],[20.4376253,44.7719039],[20.4378266,44.7715919],[20.4383335,44.7710226],[20.4397685,44.7694554],[20.4408198,44.7682974],[20.4416648,44.7673741],[20.4420886,44.7669304],[20.442507,44.7664753],[20.4427562,44.7662123],[20.4429946,44.7659441],[20.443526,44.7653593],[20.4438124,44.7650146],[20.4439578,44.7648129],[20.4440946,44.7645242],[20.4442314,44.764116],[20.4442857,44.7638821],[20.4444188,44.7632288],[20.4445946,44.7622765],[20.4447024,44.7616455],[20.4448864,44.7607816],[20.4449952,44.7602148],[20.445094,44.7596736],[20.4451801,44.75925],[20.4452069,44.7591179],[20.4453125,44.758621],[20.4454065,44.7581744],[20.445437,44.7579912],[20.4454829,44.7577155],[20.445539,44.7570673],[20.4456166,44.7560279],[20.4456743,44.7553877],[20.445781,44.754215],[20.4458351,44.7534497],[20.4459066,44.7527699],[20.4459354,44.7524273],[20.4459634,44.7520478],[20.4459658,44.7518221],[20.4459518,44.7515788],[20.4458737,44.751199],[20.4458193,44.7509217],[20.445688,44.7505565],[20.4455343,44.7502139],[20.4454172,44.7500328],[20.4452156,44.7496949],[20.4450239,44.7494116],[20.4448057,44.7491195],[20.4445212,44.7487506],[20.4443529,44.748532],[20.4440558,44.7482341],[20.4438867,44.7480514],[20.4437738,44.7479346],[20.4435871,44.7477384],[20.4434322,44.747532],[20.443072,44.7470138],[20.4427404,44.7464956],[20.4424535,44.7460358],[20.4422633,44.7457576],[20.441981,44.7454113],[20.4417231,44.7451501],[20.441427,44.7448638],[20.4411243,44.7446261],[20.4409159,44.744476],[20.4406598,44.7442999],[20.4403844,44.7441326],[20.4391744,44.7434533],[20.4387311,44.7432234],[20.4382638,44.7429178],[20.437748,44.742648],[20.4372925,44.7424046],[20.4369358,44.7422059],[20.4364141,44.7419344],[20.4358094,44.741615],[20.4352979,44.7413197],[20.4349744,44.7411101],[20.4346759,44.7408848],[20.4344597,44.7407099],[20.4342721,44.7405393],[20.4340406,44.7403003],[20.4338368,44.7400609],[20.4336416,44.7398128],[20.4334132,44.7394946],[20.433292,44.7393188],[20.4331261,44.7390706],[20.4327073,44.7384754],[20.4323186,44.7378867],[20.4319552,44.737368],[20.431652,44.7369123],[20.4312578,44.7362591],[20.4307536,44.7353807],[20.4306461,44.7351442],[20.4305952,44.7350248],[20.430501,44.7347078],[20.4304257,44.7344004],[20.4303881,44.7341176],[20.4303864,44.7338234],[20.4304102,44.7334908],[20.4304726,44.7331422],[20.4305786,44.7327886],[20.4307294,44.7324089],[20.430975,44.7319117],[20.4312268,44.7315248],[20.4314964,44.7312048],[20.4317117,44.7309951],[20.4323789,44.7303977],[20.4324489,44.7303353],[20.4326673,44.7301491],[20.4327249,44.7300965],[20.4328478,44.7299843],[20.4330615,44.7298008],[20.4332303,44.7296488],[20.4335087,44.7293538],[20.4337625,44.7290121],[20.4339044,44.7287621],[20.4340406,44.7284713],[20.4341916,44.7280816],[20.4346017,44.7270103],[20.4349687,44.7261316],[20.435386,44.7252196],[20.4355545,44.7248342],[20.4356945,44.7245802],[20.435868,44.7243247],[20.4360834,44.7240605],[20.4363401,44.7238076],[20.4366279,44.7235728],[20.4369648,44.7233188],[20.437229,44.7231366],[20.4376206,44.722882],[20.4385588,44.7222754],[20.4390129,44.7219497],[20.4392838,44.7217335],[20.4394733,44.7215755],[20.4396843,44.7213741],[20.4398256,44.7212225],[20.4399436,44.7210705],[20.4400564,44.7209323],[20.4401552,44.7208066],[20.4403391,44.7204825],[20.4406596,44.719723],[20.4408092,44.7192533],[20.4408694,44.7189873],[20.4410068,44.7182789],[20.4411074,44.7177658],[20.4412293,44.7171248],[20.4413896,44.7164129],[20.4415391,44.7159306],[20.441674,44.7155985],[20.4418072,44.715355],[20.4419997,44.7150469],[20.4422338,44.7147327],[20.4424484,44.714488],[20.4428038,44.7141321],[20.4433652,44.7136054],[20.4438056,44.7131747],[20.4440474,44.7129002],[20.4442535,44.7126356],[20.4444261,44.7123929],[20.4445624,44.7121681],[20.4446914,44.7119361],[20.4449024,44.7114318],[20.4450475,44.7110371],[20.4452199,44.7105787],[20.4453489,44.7102257],[20.4454495,44.7099454],[20.445668,44.7093364],[20.4457719,44.7090461],[20.445798,44.7089737],[20.4458704,44.7086304],[20.4460538,44.7080864],[20.4462554,44.7075297],[20.4464071,44.707149],[20.4465979,44.7067578],[20.4467761,44.706425],[20.4470247,44.7060499],[20.4473247,44.7056532],[20.4475524,44.7053773],[20.44794,44.7049236],[20.4482059,44.7046059],[20.4487448,44.703975],[20.4494058,44.7031891],[20.4496422,44.7029307],[20.4498623,44.7027259],[20.4502692,44.7022541],[20.4505465,44.7019201],[20.4507196,44.7017116],[20.4508511,44.7015573],[20.4509844,44.7014008],[20.4511802,44.7011877],[20.45141,44.700914],[20.4515255,44.7007866],[20.4517443,44.7005106],[20.4520527,44.7002049],[20.45231,44.6999546],[20.4526243,44.699742],[20.4530217,44.6995439],[20.4534555,44.6993788],[20.4539984,44.6992271],[20.4546212,44.6991426],[20.4551427,44.6991186],[20.4556353,44.6991276],[20.4569496,44.6991424],[20.4578069,44.699042],[20.4585206,44.6988309],[20.4591244,44.698548],[20.459641,44.6981714],[20.4599888,44.6978242],[20.4602935,44.6973569],[20.4604628,44.6968429],[20.4605188,44.6964524],[20.4604786,44.6956185],[20.4605076,44.6949063],[20.4606846,44.6942861],[20.4610129,44.6934416],[20.4612691,44.6928517],[20.4614418,44.6924404],[20.4616588,44.6920659],[20.4619557,44.6916458],[20.4623395,44.6912755],[20.4627791,44.6909369],[20.46539,44.6893971],[20.4660107,44.6890262],[20.4665305,44.6885987],[20.4668448,44.6882047],[20.4671294,44.6876227],[20.4672126,44.68697],[20.4672174,44.6845882],[20.4672367,44.6840933],[20.4673762,44.683602],[20.4675613,44.6831861],[20.4679164,44.682775],[20.4683793,44.682392],[20.4689619,44.6820844],[20.469423,44.6818899],[20.4699819,44.6817426],[20.4714794,44.6814467],[20.4721709,44.6813067],[20.4738992,44.6809714],[20.4745675,44.6807713],[20.4752916,44.6804679],[20.4764879,44.6798342],[20.4771469,44.6795199],[20.4777888,44.6793097],[20.4784475,44.6791714],[20.4792584,44.6791047],[20.4807554,44.6790651],[20.4814079,44.6789944],[20.48195,44.6788848],[20.4839715,44.6782863],[20.4847322,44.6780627],[20.4852064,44.6778734],[20.485619,44.6776657],[20.4859279,44.6774643],[20.4862123,44.6772176],[20.4864574,44.6769335],[20.4866532,44.676663],[20.486874,44.6761986],[20.4869914,44.6755224],[20.4870864,44.674647],[20.4872538,44.6739983],[20.4875276,44.6735388],[20.48863,44.6723057],[20.488925,44.6719375],[20.4891174,44.6715291],[20.4892078,44.6712297],[20.489266,44.6708953],[20.4892485,44.670523],[20.4891785,44.6701384],[20.4890506,44.6698857],[20.4889031,44.6696734],[20.4885426,44.6692289],[20.487909,44.6683921],[20.4875885,44.6679127],[20.4873412,44.6674324],[20.4868458,44.6661585],[20.4866339,44.6657554],[20.4862396,44.6653245],[20.4856173,44.6648502],[20.4849825,44.6645253],[20.4839943,44.664032],[20.4833785,44.6636337],[20.4827694,44.663073],[20.4816839,44.6620413],[20.4809001,44.6613045],[20.4803736,44.6608953],[20.4794823,44.6602541],[20.4789834,44.6599019],[20.4775147,44.6588612],[20.4771807,44.6586215],[20.4753892,44.6573228],[20.4749695,44.6570597],[20.4743019,44.6567168],[20.4736724,44.6564482],[20.4701383,44.6549815],[20.4694491,44.6546933],[20.4683659,44.654225],[20.4674762,44.6536822],[20.4669317,44.6531491],[20.4398336,44.6247594],[20.4379483,44.6227443],[20.437477,44.6220532],[20.4370854,44.6209089],[20.4366868,44.6199363],[20.43602,44.6190119],[20.4346299,44.617629],[20.4339757,44.6169217],[20.4332997,44.6159511],[20.4321035,44.6141617],[20.431493,44.6131424],[20.431103,44.6122049],[20.4303161,44.6101149],[20.4300124,44.6085831],[20.4296739,44.6074996],[20.4292271,44.6067659],[20.4285608,44.605886],[20.4281027,44.605158],[20.427813,44.6043804],[20.4276172,44.6030505],[20.4273747,44.6021484],[20.4269912,44.6014059],[20.4261146,44.6000981],[20.4257869,44.5993399],[20.4255841,44.5984018],[20.4255495,44.5974098],[20.4255229,44.5917902],[20.4255002,44.591048],[20.4253676,44.5903876],[20.425115,44.5898186],[20.4244788,44.588692],[20.4240821,44.5879589],[20.423581,44.5872807],[20.423154,44.5868391],[20.422492,44.5862859],[20.4215621,44.5854975],[20.4212172,44.5851002],[20.4209458,44.5846559],[20.4203329,44.5835074],[20.4199756,44.5830204],[20.4194255,44.582386],[20.4182815,44.5813188],[20.4175305,44.5807608],[20.416508,44.5802282],[20.4149229,44.5795179],[20.4140039,44.579097],[20.4132712,44.5786111],[20.4127769,44.5780979],[20.4099688,44.574381],[20.407498,44.571227],[20.406621,44.5697479],[20.4059129,44.5679249],[20.4049908,44.566502],[20.4023229,44.5638039],[20.4011439,44.5624439],[20.4007409,44.5612438],[20.4003609,44.5594369],[20.399653,44.558474],[20.3983359,44.557466],[20.396575,44.556236],[20.395319,44.5556099],[20.3937499,44.555315],[20.3920759,44.5552099],[20.3909399,44.554999],[20.38717,44.553484],[20.3855389,44.552576],[20.3840969,44.55108],[20.3829189,44.5495839],[20.3819784,44.5478507],[20.3806995,44.5454468],[20.3797854,44.5436552],[20.3785537,44.5412121],[20.3747214,44.5358735],[20.3740819,44.5352173],[20.3715231,44.5338101],[20.370476,44.5330736],[20.362664,44.5248299],[20.3619702,44.5240605],[20.3613779,44.5232038],[20.360788,44.5215679],[20.3605507,44.5207208],[20.3599849,44.5197639],[20.3590159,44.5186279],[20.3531414,44.5140912],[20.3515696,44.5129827],[20.3482136,44.5113263],[20.342434,44.5084717],[20.3397669,44.5072269],[20.3269489,44.501579],[20.3192039,44.4980972],[20.317322,44.4973888],[20.316562,44.497185],[20.3156009,44.497063],[20.314204,44.4969535],[20.3133905,44.4969074],[20.3103219,44.496689],[20.3045038,44.49633],[20.3037145,44.4962697],[20.3022481,44.4961666],[20.3012401,44.4960943],[20.2981285,44.4959013],[20.2968855,44.4958092],[20.296127,44.495731],[20.2953052,44.4955542],[20.2946129,44.4953072],[20.2941038,44.4950795],[20.2934606,44.4947055],[20.2933982,44.4946591],[20.2931119,44.494446],[20.292789,44.4941453],[20.2924264,44.4937597],[20.2921136,44.4932873],[20.2918838,44.4927897],[20.2916936,44.4922702],[20.2915749,44.4917979],[20.2910847,44.4902072],[20.2905086,44.4883221],[20.2898493,44.4862226],[20.2893949,44.4849618],[20.2888003,44.4835099],[20.2886648,44.4831758],[20.2882799,44.4822033],[20.2864481,44.4777303],[20.2849717,44.4741275],[20.2843696,44.4726359],[20.284258,44.472374],[20.2836522,44.4709004],[20.2832876,44.4698891],[20.2830016,44.468984],[20.2827549,44.4679803],[20.2824303,44.4662615],[20.2819081,44.4635213],[20.2816258,44.4619816],[20.2815044,44.4612904],[20.281272,44.4606227],[20.281003,44.460041],[20.2804951,44.4589745],[20.2802884,44.4584136],[20.2801704,44.4580286],[20.2801026,44.4576353],[20.2798902,44.4546684],[20.2798431,44.4540097],[20.2797945,44.4533221],[20.2794575,44.4485551],[20.2793167,44.4462787],[20.2792302,44.4450695],[20.2791213,44.4436304],[20.2790354,44.4423088],[20.2789201,44.4407234],[20.2788878,44.4398991],[20.2789337,44.4387812],[20.2792381,44.4332141],[20.2793117,44.4316461],[20.2793031,44.4310091],[20.2791937,44.4303013],[20.2790324,44.4296118],[20.2785352,44.427536],[20.2783257,44.4266149],[20.2780999,44.4256314],[20.277755,44.4241782],[20.2774356,44.4228715],[20.2772432,44.4220049],[20.2770652,44.4213416],[20.2768457,44.4206671],[20.2765175,44.4198701],[20.2760072,44.418872],[20.2754957,44.4178761],[20.2750593,44.4170919],[20.2748339,44.4167172],[20.2746993,44.416512],[20.2741029,44.4157572],[20.2734653,44.4151214],[20.2728291,44.4145715],[20.2720201,44.4139752],[20.271451,44.4135653],[20.2594788,44.4053274],[20.253527,44.401289],[20.252483,44.400443],[20.2515469,44.3992668],[20.2514121,44.398934],[20.2513604,44.3988066],[20.251007,44.3979339],[20.2508099,44.3963829],[20.2509659,44.3948669],[20.251169,44.3931309],[20.251336,44.3916549],[20.2514787,44.3901602],[20.2514127,44.3896702],[20.2513277,44.3894013],[20.2511236,44.3889409],[20.2508068,44.3884261],[20.2503562,44.3879398],[20.2496918,44.3873958],[20.2488276,44.3868626],[20.2483209,44.3865898],[20.2477293,44.3862534],[20.2469833,44.3858292],[20.2407678,44.3821043],[20.2403052,44.3818271],[20.2386809,44.3808179],[20.2368918,44.3793446],[20.2362674,44.3788881],[20.2358836,44.3786353],[20.2353236,44.3783032],[20.2347168,44.3780166],[20.2340557,44.3777877],[20.2332325,44.3775439],[20.2324219,44.3773934],[20.2313606,44.3772632],[20.2275296,44.3768357],[20.2263778,44.3766906],[20.2254906,44.3765604],[20.224625,44.3763325],[20.2237847,44.3760152],[20.2230516,44.375635],[20.2224286,44.375191],[20.2217899,44.3745896],[20.2209914,44.3737437],[20.2203775,44.373047],[20.2199529,44.3726186],[20.219517,44.3722494],[20.2187177,44.3717035],[20.2178109,44.3713026],[20.2167721,44.3709955],[20.2156394,44.3707679],[20.214269,44.3705205],[20.2132959,44.3704308],[20.212433,44.3704113],[20.211321,44.3704502],[20.2031805,44.3709054],[20.2001979,44.3710687],[20.1988927,44.3711402],[20.1964473,44.3712741],[20.1960493,44.3712971],[20.1901965,44.3715948],[20.1841175,44.3719231],[20.1800387,44.372151],[20.1784041,44.3722346],[20.1766725,44.3723838],[20.1755218,44.3724294],[20.1743591,44.3723493],[20.173342,44.3721225],[20.1727425,44.3719302],[20.1720889,44.3716721],[20.1709296,44.3711042],[20.1703055,44.3707961],[20.1620465,44.3667191],[20.1617245,44.3665602],[20.1610343,44.3662206],[20.1605036,44.3659594],[20.1597496,44.3656538],[20.1591241,44.3654406],[20.1585496,44.3653082],[20.1579456,44.3652162],[20.1572501,44.3651608],[20.1503117,44.3648904],[20.1476383,44.3647898],[20.1450616,44.3646737],[20.141623,44.3645054],[20.1404168,44.3644739],[20.1387147,44.3645619],[20.1356127,44.3647359],[20.1326167,44.3649002],[20.1311492,44.3648791],[20.1298473,44.3647671],[20.1285561,44.3645052],[20.1275342,44.3642294],[20.1235827,44.3630893],[20.1226659,44.3627407],[20.1219428,44.3624009],[20.1203866,44.3614685],[20.1191989,44.3607076],[20.1178423,44.3598669],[20.1168933,44.3592801],[20.1156616,44.3586561],[20.1139375,44.3579419],[20.1122128,44.3571997],[20.1103272,44.356354],[20.1068656,44.3546302],[20.1059386,44.354206],[20.1036233,44.3533978],[20.1007496,44.3523652],[20.0995759,44.3518109],[20.0985974,44.3512129],[20.0974264,44.3503026],[20.0942375,44.347866],[20.0936954,44.3474212],[20.0929959,44.3467993],[20.0924297,44.3462492],[20.0918962,44.3456494],[20.0908236,44.3443387],[20.090241,44.3436163],[20.0897654,44.34307],[20.089193,44.3425162],[20.0883559,44.3419603],[20.0875102,44.3415665],[20.0869145,44.3413749],[20.0863172,44.3412116],[20.0853854,44.3410555],[20.0842511,44.3409872],[20.0827734,44.3409653],[20.0818328,44.3409103],[20.0807961,44.340747],[20.0798702,44.3405066],[20.0791189,44.3401943],[20.0783668,44.3397698],[20.0774916,44.3392118],[20.0754282,44.3378996],[20.0748955,44.3375378],[20.074281,44.3370252],[20.0738272,44.3365707],[20.0725969,44.33503],[20.0707217,44.3328191],[20.0701394,44.3321422],[20.069835,44.3316756],[20.0695405,44.3311591],[20.069353,44.3305507],[20.0692618,44.3299899],[20.0692932,44.3293786],[20.0694621,44.3287012],[20.0696939,44.3281282],[20.0700794,44.3272966],[20.0703355,44.3266615],[20.0704954,44.3257948],[20.0704661,44.3252132],[20.0703637,44.3245953],[20.0696102,44.3210199],[20.0690792,44.31842],[20.0688925,44.3177361],[20.0685872,44.3170617],[20.0681144,44.3163634],[20.0675999,44.3158285],[20.067119,44.3153817],[20.0652865,44.3138259],[20.0645926,44.3133069],[20.063807,44.3128089],[20.0621706,44.3118034],[20.0605425,44.3108397],[20.0596201,44.3102939],[20.0584885,44.3097309],[20.0570808,44.3090907],[20.0546089,44.3079594],[20.0516292,44.3065784],[20.050636,44.3061486],[20.0499985,44.3058929],[20.0464357,44.3047131],[20.0431975,44.3036696],[20.0415683,44.3032462],[20.0403106,44.303001],[20.0395775,44.3028628],[20.0388437,44.3026893],[20.0382057,44.3024859],[20.0364504,44.301905],[20.0353549,44.3015894],[20.0342636,44.3013514],[20.0334069,44.3011995],[20.0330434,44.3011447],[20.0258071,44.2999449],[20.0225589,44.2994628],[20.0191308,44.2989182],[20.0127745,44.2979035],[20.0044798,44.2967334],[20.0021465,44.2963579],[19.9964288,44.2955704],[19.9915539,44.2948897],[19.9888175,44.2945629],[19.9869148,44.2943834],[19.9828424,44.2939783],[19.9822644,44.2939115],[19.9815954,44.2938635],[19.9789604,44.2937897],[19.975613,44.2936792],[19.9729694,44.2935747],[19.9703945,44.2934519],[19.9647469,44.293286],[19.9627589,44.2931383],[19.9613102,44.2927938],[19.960077,44.2923169],[19.956996,44.2909779],[19.954454,44.2898939],[19.9517979,44.2889229],[19.9490498,44.288005],[19.9466619,44.287288],[19.9304801,44.2819908],[19.928608,44.2813138],[19.9276193,44.2808448],[19.9267856,44.2803045],[19.9255938,44.2789589],[19.9236889,44.275342],[19.9225919,44.2741619],[19.9211888,44.2732406],[19.920447,44.2729359],[19.9196277,44.2726631],[19.9178469,44.2721621],[19.9172995,44.272022],[19.9153194,44.2715417],[19.9144307,44.2714007],[19.913511,44.2712999],[19.9125917,44.2711981],[19.9117817,44.2711045],[19.9114352,44.2710646],[19.9110804,44.2710373],[19.9103109,44.2710029],[19.9094771,44.2709102],[19.9086754,44.2708146],[19.9054767,44.2704505],[19.9046407,44.2703448],[19.9038626,44.2702169],[19.9035423,44.2701504],[19.9030873,44.2700889],[19.9022506,44.270008],[19.901782,44.2699492],[19.9013245,44.2698685],[19.900444,44.2696602],[19.8996713,44.2693991],[19.8989857,44.2691049],[19.8983852,44.2687771],[19.89809,44.2685864],[19.8977919,44.2683817],[19.8966354,44.2673953],[19.8962143,44.267053],[19.8954651,44.266409],[19.894037,44.2651659],[19.893243,44.2646052],[19.8928476,44.2643009],[19.8925263,44.263989],[19.8922237,44.263659],[19.8919394,44.2632318],[19.891801,44.2627854],[19.8917757,44.2623549],[19.892126,44.2612479],[19.892123,44.260929],[19.8920979,44.2604789],[19.8919269,44.2598929],[19.891332,44.2590979],[19.8905908,44.2584639],[19.8895329,44.2579659],[19.888607,44.2576223],[19.8878399,44.2572381],[19.8870685,44.2567048],[19.8848359,44.255018],[19.8832309,44.253836],[19.8826859,44.2530409],[19.882491,44.2520769],[19.8825502,44.2516547],[19.882676,44.251409],[19.8828703,44.2506509],[19.8829036,44.2498831],[19.8827995,44.2491661],[19.8827019,44.2482969],[19.8826214,44.2476652],[19.8827963,44.2470342],[19.8830592,44.2463886],[19.8832469,44.2459152],[19.8834733,44.2455501],[19.8837211,44.244923],[19.883881,44.2441359],[19.8838509,44.2431744],[19.8837394,44.2426964],[19.8836632,44.2420968],[19.8835409,44.2413282],[19.8832651,44.2403874],[19.8829347,44.2394405],[19.8820185,44.2387648],[19.8802439,44.237804],[19.8794296,44.237209],[19.878921,44.236375],[19.8784543,44.2349975],[19.8782355,44.2344394],[19.8777473,44.2338552],[19.8770231,44.2334732],[19.875932,44.2332356],[19.8747518,44.2331211],[19.8740673,44.2330865],[19.8732176,44.2330427],[19.8716565,44.2329965],[19.8704946,44.2329335],[19.8693767,44.2329497],[19.8685023,44.2329481],[19.8672642,44.2330027],[19.8659016,44.2328889],[19.8653716,44.2327782],[19.8644586,44.232513],[19.863596,44.232001],[19.862833,44.231339],[19.862409,44.230812],[19.8621451,44.2302386],[19.8618128,44.2293457],[19.8616777,44.2283432],[19.8616251,44.2273745],[19.8613676,44.2262183],[19.8608945,44.2252788],[19.8605297,44.224709],[19.8598806,44.2240963],[19.859342,44.2233536],[19.8589354,44.2226939],[19.8587605,44.2208709],[19.8590437,44.2192939],[19.8588152,44.2180082],[19.8582777,44.2168748],[19.8578389,44.2161674],[19.8572767,44.2151716],[19.8568488,44.2132371],[19.8568644,44.2121901],[19.8568629,44.211589],[19.8570857,44.2106153],[19.8573904,44.2097225],[19.8576619,44.2090311],[19.8584257,44.2079098],[19.8591993,44.2068716],[19.8601118,44.2056999],[19.8612507,44.2044359],[19.8617109,44.2034222],[19.8616305,44.2024139],[19.8612346,44.2015471],[19.8605597,44.2007087],[19.8597647,44.1999649],[19.8586543,44.1992873],[19.8579129,44.1988627],[19.8573861,44.1984812],[19.8562624,44.1976053],[19.8559957,44.197252],[19.8558819,44.1967567],[19.8559452,44.1961405],[19.8564377,44.1954498],[19.85709,44.1948267],[19.8596681,44.1938667],[19.8616959,44.193099],[19.8628417,44.1924805],[19.8634951,44.1917412],[19.8641131,44.1909773],[19.8649017,44.1900557],[19.8658898,44.1892364],[19.8666515,44.1886371],[19.866923,44.1880155],[19.8669326,44.1874316],[19.866761,44.1867161],[19.8661881,44.1859545],[19.8654853,44.184892],[19.8652482,44.1838457],[19.8653995,44.1820823],[19.8656055,44.1809012],[19.8659595,44.1798964],[19.8664459,44.1788289],[19.8668317,44.1777519],[19.8679025,44.1760106],[19.8680152,44.1751719],[19.8678725,44.173646],[19.8678918,44.1728234],[19.8681085,44.1720839],[19.8683993,44.1717245],[19.8688928,44.1712828],[19.8692747,44.1711243],[19.8703031,44.1706957],[19.8721108,44.1699842],[19.8728299,44.1694199],[19.8734193,44.1688641],[19.8739761,44.1678952],[19.8748943,44.1662779],[19.8778218,44.1637418],[19.8804454,44.1622385],[19.8810053,44.1619516],[19.8813252,44.1616302],[19.8818051,44.1612056],[19.882381,44.1605285],[19.8831716,44.1597568],[19.8836997,44.1589061],[19.8840803,44.158252],[19.8842558,44.1579769],[19.8845014,44.1576604],[19.884727,44.1574172],[19.8850602,44.1571156],[19.885438,44.156851],[19.8864161,44.1563101],[19.8874516,44.1558125],[19.8883007,44.1554327],[19.8887643,44.1552906],[19.8892439,44.155176],[19.8896891,44.1550929],[19.8905262,44.155003],[19.8912574,44.1549128],[19.8917729,44.1548492],[19.8923785,44.1547559],[19.892942,44.154644],[19.8940342,44.1540909],[19.8969294,44.1533514],[19.8982104,44.1528095],[19.8991642,44.1524477],[19.9007789,44.1521521],[19.9024987,44.1522414],[19.9037798,44.1521806],[19.9045855,44.1517587],[19.9048451,44.1513808],[19.9049513,44.150604],[19.9049599,44.1501314],[19.90449,44.14935],[19.9036982,44.1488419],[19.9031038,44.1487249],[19.902047,44.1486857],[19.9003476,44.1488566],[19.8985484,44.1494863],[19.8963297,44.1502861],[19.8938191,44.1510451],[19.8920435,44.151427],[19.8898805,44.1517541],[19.8876361,44.1519273],[19.8857671,44.1517541],[19.8844957,44.1513531],[19.8830978,44.1505478],[19.8820249,44.149581],[19.8803727,44.1477717],[19.8799767,44.1473407],[19.8789489,44.146222],[19.8774276,44.1444137],[19.8770928,44.1433258],[19.8772496,44.1418823],[19.8772345,44.1407166],[19.877434,44.1398466],[19.8776548,44.1390802],[19.8774991,44.1378012],[19.8769963,44.1370674],[19.8763903,44.136514],[19.8756793,44.1361572],[19.8747068,44.1360856],[19.8735574,44.1360872],[19.872777,44.1358859],[19.8717282,44.1358509],[19.8706307,44.1354045],[19.8697297,44.1347794],[19.8688259,44.1346781],[19.8681605,44.134632],[19.8672406,44.1347044],[19.8665693,44.1348142],[19.8658173,44.1349372],[19.8647978,44.135092],[19.8634175,44.1354247],[19.8630403,44.1354462],[19.8623872,44.1354833],[19.8613995,44.135387],[19.8605483,44.1347312],[19.860119,44.1338729],[19.8598674,44.1333575],[19.8597812,44.1324168],[19.8595844,44.1319735],[19.8594099,44.1304695],[19.85935,44.1299536],[19.86036,44.129077],[19.8602682,44.1287297],[19.8599834,44.1281498],[19.859459,44.1275383],[19.8592065,44.1272475],[19.858616,44.1266348],[19.8580829,44.1260208],[19.8578302,44.1256583],[19.857676,44.1252793],[19.8576056,44.1248311],[19.8575834,44.1244035],[19.8576654,44.1240973],[19.8578338,44.1236434],[19.8581735,44.1227791],[19.8582884,44.1221947],[19.8584988,44.1208985],[19.8587065,44.1196405],[19.8590038,44.1191064],[19.8845296,44.0897405],[19.8879488,44.0857957],[19.8918666,44.0817688],[19.8932462,44.0800468],[19.8945052,44.0783743],[19.8953157,44.0767885],[19.8957296,44.0757477],[19.8962125,44.0745335],[19.8969368,44.0721299],[19.8972127,44.0700854],[19.8981503,44.0675853],[19.8995494,44.0660142],[19.9015288,44.0646959],[19.9028679,44.06391],[19.9046735,44.0628549],[19.9053216,44.0624424],[19.9056591,44.0622496],[19.9063054,44.0618805],[19.906935,44.0615209],[19.907445,44.061242],[19.9076138,44.0611519],[19.9086884,44.0606429],[19.9092596,44.0604024],[19.9098465,44.0601676],[19.9108781,44.0597327],[19.9119078,44.0593128],[19.9133534,44.0587106],[19.9138843,44.058495],[19.9145456,44.0581754],[19.9157419,44.0576716],[19.9167541,44.0570898],[19.9192304,44.0555246],[19.9199374,44.0550269],[19.9205951,44.0544062],[19.9209588,44.0536633],[19.9211036,44.0529061],[19.9210129,44.0523494],[19.9206916,44.0517853],[19.92005,44.0511627],[19.9189814,44.050279],[19.9185115,44.0497041],[19.9181296,44.0489072],[19.9178823,44.0477624],[19.9172986,44.0466581],[19.9166544,44.0458268],[19.9158379,44.0448555],[19.9153948,44.0440334],[19.9150853,44.0430077],[19.9150021,44.0421929],[19.9150424,44.0413064],[19.9151249,44.0401554],[19.9151808,44.038995],[19.9149855,44.0382229],[19.9147135,44.0374436],[19.9145858,44.0366152],[19.9146111,44.0358343],[19.9148042,44.0349885],[19.9153186,44.0341027],[19.9162381,44.0328439],[19.9169698,44.0321265],[19.9177535,44.0312719],[19.9183468,44.0306038],[19.9188135,44.0299898],[19.9191021,44.0293828],[19.9193001,44.0284147],[19.9193999,44.0271087],[19.9195302,44.0263403],[19.9197276,44.025804],[19.920068,44.0252634],[19.9203378,44.0248442],[19.9213723,44.0233725],[19.9216622,44.022867],[19.9218788,44.0223672],[19.9220178,44.0218743],[19.9221177,44.0213739],[19.9222026,44.0205294],[19.9222361,44.0200842],[19.9222816,44.0196565],[19.9223759,44.0192468],[19.922541,44.0186511],[19.9227813,44.017789],[19.9228121,44.0176684],[19.9229507,44.0168054],[19.9229796,44.0159422],[19.9228541,44.0138215],[19.9227849,44.0126085],[19.9226407,44.0113374],[19.922357,44.0103541],[19.9222179,44.0098578],[19.9220683,44.0093289],[19.9218381,44.0086421],[19.9216925,44.0079396],[19.92156,44.0071224],[19.9214691,44.0067492],[19.9213655,44.0063653],[19.9212353,44.0059221],[19.921116,44.0055757],[19.920809,44.0048157],[19.9206613,44.00446],[19.9204496,44.0040487],[19.9203568,44.0037946],[19.9201799,44.0033942],[19.9187266,43.9997518],[19.9184873,43.9991545],[19.9181336,43.9983241],[19.9179879,43.9978022],[19.9179173,43.9975493],[19.9178814,43.9974627],[19.9176415,43.9968837],[19.9174411,43.9962406],[19.9173863,43.9959347],[19.9173662,43.9956288],[19.9173599,43.995402],[19.9173664,43.9951618],[19.917408,43.9948872],[19.9175062,43.9945578],[19.9176181,43.9942022],[19.9177964,43.9938368],[19.9179074,43.9936253],[19.9180402,43.9934392],[19.9183237,43.9930428],[19.9190018,43.9924325],[19.9196128,43.9920099],[19.9201852,43.9917113],[19.920681,43.991453],[19.9218181,43.9908826],[19.9224538,43.9905689],[19.9230058,43.9902315],[19.9242696,43.9892276],[19.9254015,43.9881919],[19.9258455,43.9877977],[19.9264758,43.9872818],[19.927115,43.9868706],[19.9277168,43.986544],[19.9285691,43.9861969],[19.9310253,43.9853472],[19.9320238,43.9850034],[19.93304,43.9847169],[19.9347671,43.9842846],[19.9370677,43.9837141],[19.9378526,43.98351],[19.9386101,43.9832798],[19.9392656,43.9830192],[19.9398069,43.9827471],[19.9403154,43.982415],[19.94082,43.9820488],[19.9413068,43.9816537],[19.942004,43.9810962],[19.9427765,43.980518],[19.9436917,43.9799702],[19.944519,43.9795732],[19.9453989,43.9792121],[19.9469818,43.978591],[19.948207,43.9781061],[19.9494368,43.9776232],[19.9504553,43.9772148],[19.9506236,43.9771449],[19.9514886,43.9767481],[19.9518436,43.9765234],[19.9519422,43.9764496],[19.9521968,43.9762591],[19.9527251,43.9757772],[19.9531783,43.9752671],[19.9535147,43.9747219],[19.9536914,43.9742009],[19.953824,43.973609],[19.953868,43.9729891],[19.9537851,43.9718941],[19.9537378,43.9713936],[19.9537118,43.9709721],[19.9537751,43.9704489],[19.953856,43.9700747],[19.9539534,43.9696826],[19.9541425,43.9692635],[19.9544059,43.9688394],[19.9547457,43.9684209],[19.9551974,43.9680232],[19.9554847,43.9677857],[19.9557883,43.967572],[19.9562399,43.9672785],[19.9569477,43.9668262],[19.95753,43.9664262],[19.9581838,43.9660811],[19.9587356,43.9658575],[19.9593931,43.9656451],[19.9601078,43.9654662],[19.9608809,43.9652874],[19.9616717,43.9650815],[19.9623187,43.9648853],[19.9629946,43.9646162],[19.963431,43.9644137],[19.9638955,43.9641602],[19.9659587,43.9628841],[19.9673472,43.9620353],[19.9684124,43.9613965],[19.9693812,43.9607725],[19.9704916,43.9600925],[19.9708846,43.9599219],[19.9713529,43.9597763],[19.9718292,43.9596492],[19.972311,43.9595456],[19.9743929,43.9591372],[19.976179,43.9588039],[19.9769633,43.9586126],[19.9777888,43.9583355],[19.9784538,43.9580338],[19.9790691,43.9576725],[19.9796197,43.9572367],[19.9798359,43.9570131],[19.9801473,43.9566754],[19.9804775,43.9562505],[19.9808264,43.9556507],[19.9814906,43.9544214],[19.9818768,43.9538359],[19.9830546,43.9522473],[19.9833638,43.9517132],[19.9836825,43.9510437],[19.983959,43.9505334],[19.9841999,43.9501149],[19.9844343,43.9497555],[19.9846526,43.9494858],[19.9850582,43.9490009],[19.985361,43.9485911],[19.9856702,43.9481448],[19.9858819,43.9477586],[19.9861241,43.9470831],[19.9862534,43.9463956],[19.9862257,43.9453031],[19.9862067,43.9446991],[19.9861058,43.942712],[19.986108,43.9417139],[19.9862601,43.9407446],[19.9863789,43.9401414],[19.9865218,43.939611],[19.9870411,43.9377691],[19.9872533,43.9370181],[19.9880405,43.9343032],[19.9888339,43.9308751],[19.9902072,43.9240728],[19.9902938,43.923693],[19.9904666,43.9227977],[19.9911704,43.9192755],[19.9913919,43.9186886],[19.9916121,43.9181706],[19.9925123,43.916558],[19.9928084,43.9160539],[19.9931662,43.9155844],[19.9936123,43.9151232],[19.9942037,43.9146624],[19.996672,43.9130907],[19.9984144,43.9120373],[19.9991942,43.9115337],[19.9997513,43.9111428],[20.0002902,43.9106924],[20.0009071,43.9100447],[20.0013062,43.9094831],[20.0016138,43.9089448],[20.0017756,43.9085851],[20.0019526,43.9079886],[20.0020856,43.9074342],[20.0021082,43.9068695],[20.0020888,43.9063004],[20.001969,43.9056764],[20.0018035,43.9051377],[20.0015709,43.9046172],[20.000214,43.9021687],[19.9995796,43.9010008],[19.9992598,43.9004912],[19.9985335,43.8991704],[19.998056,43.8983397],[19.9964581,43.8954587],[19.9961885,43.8949007],[19.9960327,43.8945255],[19.9958836,43.8939347],[19.995861,43.8934255],[19.9958999,43.8929819],[19.9959937,43.8925709],[19.9961451,43.8921179],[19.9963862,43.8916467],[19.9968264,43.8910351],[19.9976643,43.890039],[19.9977739,43.8899084],[19.9980741,43.8895504],[19.9986983,43.8887758],[19.999052,43.888223],[19.9993639,43.8876479],[19.9996295,43.8869941],[19.9997964,43.8864886],[19.9999404,43.8858803],[20.0000286,43.8851613],[20.0000431,43.8844296],[19.9999707,43.8837455],[19.9997148,43.8824945],[19.9995118,43.8814079],[19.9993187,43.880522],[19.999257,43.8796177],[19.9992967,43.8787152],[19.999382,43.8782255],[19.9996077,43.8774549],[19.9996496,43.8773117],[19.9998439,43.8766484],[20.0002558,43.8751702],[20.0004363,43.874733],[20.0006469,43.8743078],[20.0009315,43.8738852],[20.0012576,43.8735004],[20.0017772,43.8730037],[20.0026921,43.8724102],[20.0036041,43.8720344],[20.00515,43.8714299],[20.0072428,43.8705793],[20.0089578,43.8692437],[20.0101068,43.8678469],[20.0111923,43.8660337],[20.0118835,43.8649996],[20.0130744,43.8636954],[20.0146687,43.8620779],[20.0151944,43.860998],[20.0154648,43.8597108],[20.0156901,43.856884],[20.0160077,43.8538652],[20.0166825,43.8519767],[20.017626,43.8503759],[20.020304,43.8477309],[20.0233288,43.8451049],[20.0263589,43.842476],[20.0277039,43.8412658],[20.0290048,43.8401319],[20.0324005,43.8374273],[20.0340655,43.8362895],[20.0357679,43.835428],[20.039602,43.8341699],[20.040765,43.8333839],[20.041788,43.8321901],[20.0426538,43.8309271],[20.0431763,43.829794],[20.0434231,43.8290076],[20.0433608,43.827876],[20.0429596,43.8268295],[20.0413588,43.82442],[20.0396851,43.8219329],[20.0379471,43.8196424],[20.0368806,43.8176157],[20.0366145,43.8166836],[20.0359161,43.8147428],[20.0351973,43.8133733],[20.0338905,43.8117328],[20.0317083,43.810151],[20.0295625,43.8091553],[20.026597,43.8083873],[20.025227,43.8081248],[20.0230576,43.8080822],[20.0214261,43.8083006],[20.0195344,43.8087676],[20.0163359,43.808932],[20.0126378,43.8088308],[20.0106923,43.8085273],[20.0099021,43.8085793],[20.0091532,43.8087477],[20.0084135,43.8090245],[20.0054271,43.8102068],[20.0041815,43.8106709],[20.0029952,43.8110079],[20.0022554,43.8111339],[20.0015111,43.8111719],[20.0008269,43.8111682],[20.000218,43.8111148],[19.9996083,43.8110067],[19.9989949,43.8108789],[19.9971699,43.8104359],[19.9965502,43.8103042],[19.9959705,43.8102424],[19.9947839,43.8101897],[19.9940853,43.8102678],[19.9934099,43.8103915],[19.9923131,43.8105621],[19.9916871,43.810638],[19.9909365,43.810698],[19.9904712,43.8107407],[19.989951,43.8107454],[19.9890675,43.8107737],[19.9882865,43.8108145],[19.9873861,43.8109181],[19.9864322,43.8110876],[19.9859323,43.8112146],[19.9854052,43.8113424],[19.9843758,43.8115882],[19.9837747,43.8117347],[19.9829403,43.8119167],[19.9821651,43.8120508],[19.9814517,43.8121176],[19.9806875,43.8121319],[19.9797659,43.8120742],[19.9788478,43.8119302],[19.9779026,43.8117171],[19.9771035,43.8115255],[19.9759939,43.8112433],[19.9742251,43.8107826],[19.9740197,43.8107142],[19.9724013,43.8100584],[19.9707005,43.8093053],[19.9688426,43.8085124],[19.967895,43.8080832],[19.9669294,43.8077145],[19.965536,43.8073265],[19.9642254,43.8071083],[19.9619868,43.8068674],[19.9582883,43.8064643],[19.9566243,43.8062732],[19.9559843,43.8062098],[19.9548734,43.8061423],[19.9540226,43.8062023],[19.9531459,43.8063419],[19.9522861,43.8065406],[19.9513228,43.8067654],[19.9498317,43.8071707],[19.9490237,43.8074009],[19.9482223,43.8076628],[19.9474884,43.8079651],[19.9460994,43.808652],[19.9437077,43.809875],[19.9416394,43.8108875],[19.940662,43.811323],[19.9398583,43.8116556],[19.9391425,43.8119539],[19.9379591,43.8126325],[19.9360153,43.8139273],[19.9352541,43.8144486],[19.9350169,43.8146111],[19.934346,43.8150706],[19.9333834,43.8156632],[19.9329353,43.8159839],[19.932185,43.8165272],[19.9313483,43.8171592],[19.9306103,43.8177628],[19.9295585,43.8186659],[19.9285554,43.8195217],[19.926427,43.8213174],[19.9252882,43.8222928],[19.9243467,43.8230999],[19.9222281,43.8249161],[19.9181354,43.828408],[19.9168863,43.8296102],[19.9156701,43.8307847],[19.9152015,43.8313077],[19.9147958,43.8318957],[19.914114,43.8329374],[19.9133521,43.8340129],[19.9129016,43.8344914],[19.9124453,43.8348639],[19.9120669,43.8351195],[19.911678,43.8353484],[19.9112598,43.8355481],[19.9107932,43.8357393],[19.9096811,43.8361043],[19.9094536,43.836179],[19.9088738,43.8363693],[19.9083164,43.8365506],[19.9060165,43.8372986],[19.9044591,43.8377952],[19.9004747,43.8390821],[19.899953,43.8392549],[19.8980924,43.8398398],[19.8978005,43.8399239],[19.8972225,43.8400522],[19.8964227,43.8401708],[19.8955229,43.8402342],[19.8946973,43.8402144],[19.8939292,43.8401339],[19.8932711,43.8400191],[19.8926275,43.8398691],[19.8912385,43.8393691],[19.8902465,43.8389815],[19.8890573,43.8385202],[19.8880621,43.8381557],[19.8871513,43.8377395],[19.8860706,43.8370597],[19.8849681,43.8360915],[19.884266,43.8355253],[19.8835039,43.8350902],[19.8828122,43.8347836],[19.8821446,43.8345499],[19.88029,43.8339483],[19.8787532,43.8332153],[19.8773753,43.8325607],[19.8765912,43.8323449],[19.8758158,43.8322176],[19.8751215,43.8321983],[19.874483,43.8322323],[19.8738237,43.8323167],[19.8732161,43.8325008],[19.8718686,43.8330903],[19.8706767,43.8336289],[19.869525,43.8342017],[19.8682086,43.8348626],[19.8669837,43.8353137],[19.8657677,43.8357922],[19.8648819,43.8361874],[19.8646657,43.8362909],[19.8643783,43.8364487],[19.8641112,43.8366193],[19.8637711,43.836836],[19.8634557,43.8370496],[19.8630061,43.8374466],[19.8626354,43.8379662],[19.8623779,43.8384987],[19.8603607,43.843325],[19.860167,43.8437427],[19.8599548,43.8442585],[19.8596788,43.8449264],[19.8594659,43.845416],[19.8591952,43.8458834],[19.8589227,43.8462409],[19.8584954,43.8466397],[19.8582004,43.8468754],[19.8576717,43.8471839],[19.8572006,43.8473976],[19.8566404,43.8475928],[19.8560013,43.8477476],[19.8554318,43.8478323],[19.8548326,43.8478692],[19.853661,43.8478847],[19.8531795,43.8478878],[19.8522907,43.8478936],[19.849727,43.8478512],[19.8490618,43.8478706],[19.8483731,43.8479468],[19.8477229,43.8480621],[19.847182,43.8482214],[19.8471652,43.8482282],[19.8468469,43.8483364],[19.8465724,43.8484492],[19.846282,43.8485836],[19.8459891,43.8487461],[19.8457386,43.8489117],[19.8454686,43.8491181],[19.8451909,43.8493527],[19.8450093,43.8495452],[19.843641,43.8512529],[19.8433467,43.8515743],[19.843003,43.8518705],[19.8425365,43.8521554],[19.8420487,43.852422],[19.8416256,43.8526308],[19.841283,43.8527709],[19.8407237,43.8530465],[19.8404619,43.8531835],[19.8401403,43.85332],[19.8397256,43.8534517],[19.8393099,43.8535616],[19.839018,43.853603],[19.8387176,43.8536407],[19.8382402,43.8536647],[19.8376246,43.8536533],[19.8370681,43.8535852],[19.8365826,43.8535067],[19.8360684,43.8534053],[19.8358847,43.853385],[19.8358227,43.853376],[19.8354053,43.8532978],[19.8345866,43.8531444],[19.8339669,43.8529709],[19.8334608,43.8527651],[19.8327741,43.8524533],[19.8322323,43.8522059],[19.831779,43.8519792],[19.83137,43.8517781],[19.8295482,43.851002],[19.8292041,43.8508665],[19.8288831,43.8507744],[19.8285177,43.8507106],[19.8281318,43.8506608],[19.8276852,43.8506488],[19.8272268,43.8506694],[19.8268143,43.8506951],[19.8263942,43.8507427],[19.8260195,43.8508084],[19.8255308,43.8509411],[19.825085,43.8511125],[19.8241412,43.8515291],[19.8240725,43.851567],[19.8231736,43.8519936],[19.8225675,43.8522864],[19.8218674,43.8526057],[19.8210523,43.8530303],[19.8203155,43.8533575],[19.8199741,43.8534941],[19.8195869,43.8536186],[19.8191375,43.8537266],[19.8186464,43.8538036],[19.818206,43.8538366],[19.817746,43.8538272],[19.8171083,43.8537496],[19.8164781,43.8536071],[19.815947,43.8534136],[19.8156171,43.8532769],[19.8153022,43.8531202],[19.8151054,43.8529943],[19.8148752,43.8528218],[19.8145288,43.8525519],[19.8142025,43.852285],[19.8138519,43.8520235],[19.8102374,43.8493264],[19.8098855,43.8491295],[19.8094917,43.8489815],[19.8090991,43.8488765],[19.8086229,43.8487659],[19.8082594,43.8487063],[19.8079641,43.8486812],[19.8076491,43.8486851],[19.8064783,43.8487441],[19.8057043,43.8487956],[19.805424,43.848824],[19.8047378,43.8489153],[19.8043503,43.8489828],[19.8032832,43.8491045],[19.8004643,43.8492747],[19.7971086,43.849326],[19.7961633,43.8492413],[19.7951762,43.8490816],[19.7944153,43.8489661],[19.793828,43.8489276],[19.7929469,43.8487062],[19.7918924,43.8479938],[19.7908912,43.8475221],[19.7899835,43.847368],[19.7887154,43.8473295],[19.7878077,43.8475317],[19.78694,43.847705],[19.7848576,43.8478398],[19.7837363,43.8478109],[19.7825082,43.8477242],[19.7812534,43.8473199],[19.7804391,43.8469156],[19.7797447,43.8463434],[19.7790531,43.8454547],[19.7779787,43.844311],[19.7768083,43.8437664],[19.7756189,43.843426],[19.7738255,43.8432626],[19.7733515,43.8433739],[19.7726851,43.8435304],[19.7723494,43.8436092],[19.7719337,43.843753],[19.7703738,43.8442928],[19.7686919,43.8450052],[19.76705,43.8454866],[19.7639931,43.8455636],[19.7632481,43.8455949],[19.7625125,43.8456258],[19.7601281,43.8457428],[19.7584792,43.8456915],[19.7576923,43.8456344],[19.7570952,43.8455403],[19.7559643,43.8453036],[19.7556558,43.8452095],[19.7545091,43.8449101],[19.7536985,43.8445992],[19.7529313,43.8441629],[19.7524464,43.8438307],[19.7520993,43.8435611],[19.7513918,43.8430605],[19.7502171,43.8422228],[19.7488956,43.8410386],[19.7483883,43.8394885],[19.7481489,43.8385042],[19.7475343,43.8372974],[19.7458534,43.8361149],[19.744385,43.8351232],[19.743851,43.8347284],[19.7433428,43.8342354],[19.743043,43.8336805],[19.7428499,43.8326677],[19.7428766,43.8318203],[19.7434239,43.830684],[19.7441688,43.8297524],[19.7446088,43.8292265],[19.7449863,43.8283004],[19.7450335,43.8273062],[19.7447076,43.8263113],[19.7437817,43.825245],[19.742035,43.8234699],[19.7416626,43.8228494],[19.7412741,43.8218845],[19.7408856,43.8209838],[19.7407609,43.8206947],[19.7403221,43.8195911],[19.7401509,43.8191603],[19.7394235,43.8174693],[19.7392022,43.8167758],[19.7390937,43.8164361],[19.7385179,43.8151965],[19.7384426,43.8133713],[19.7389182,43.8124799],[19.7393695,43.8116662],[19.7395942,43.8112611],[19.7399149,43.8107419],[19.7405298,43.8097343],[19.7408666,43.8092327],[19.741071,43.8089282],[19.7418943,43.8074833],[19.7420874,43.8067545],[19.7424633,43.8040808],[19.7426822,43.8035857],[19.7431035,43.8029823],[19.7432262,43.8027696],[19.7436113,43.8022888],[19.7452152,43.8002615],[19.7461876,43.7989649],[19.7484081,43.7964015],[19.7488499,43.7959164],[19.7518539,43.7926182],[19.7525007,43.7918249],[19.7529708,43.7907476],[19.7529955,43.789233],[19.7529405,43.7890787],[19.752552,43.7879878],[19.7515003,43.7861974],[19.7495879,43.7844084],[19.7488137,43.7841603],[19.7479229,43.7838749],[19.7470287,43.7838159],[19.7463338,43.7837701],[19.7424699,43.784549],[19.7374578,43.7852107],[19.7365782,43.7855068],[19.736084,43.7856639],[19.7351734,43.7859855],[19.7343872,43.7862435],[19.7338913,43.7863501],[19.7329624,43.7865618],[19.7320252,43.7867127],[19.7300405,43.7869884],[19.7287341,43.7869351],[19.7281091,43.7868334],[19.727553,43.7866888],[19.7269808,43.7865532],[19.7264674,43.7863636],[19.7255776,43.7859011],[19.7242412,43.7848231],[19.7237387,43.7843712],[19.7220467,43.7825022],[19.7209948,43.7806691],[19.7208092,43.7802679],[19.719967,43.778811],[19.7194362,43.7782422],[19.7188099,43.7776805],[19.718139,43.7772794],[19.7172946,43.7768687],[19.7163649,43.7765595],[19.7141955,43.7757765],[19.7134306,43.7755859],[19.7127577,43.7754526],[19.7124615,43.7753939],[19.7104152,43.7754856],[19.7084828,43.7759008],[19.7073225,43.7761768],[19.7059369,43.7765155],[19.7047132,43.7767207],[19.7034896,43.7768393],[19.7011026,43.7767344],[19.6987823,43.7762611],[19.6973944,43.7759488],[19.6956323,43.775486],[19.693854,43.7752092],[19.6920694,43.7752811],[19.69027,43.7759507],[19.6874004,43.7776659],[19.6858146,43.7782667],[19.6818802,43.77915],[19.6807888,43.7795038],[19.6796078,43.7797729],[19.6785569,43.7803199],[19.6772989,43.7812809],[19.675474,43.7826639],[19.6737379,43.7833289],[19.6729479,43.7834678],[19.6716864,43.7833885],[19.6706606,43.7833239],[19.669013,43.7826189],[19.6668408,43.781101],[19.6649874,43.7794882],[19.6173085,43.7376212],[19.6168129,43.7371182],[19.6165293,43.7368304],[19.6160473,43.7363411],[19.615708,43.7359967],[19.614517,43.7349834],[19.6136692,43.734262],[19.6114658,43.7327541],[19.6101855,43.7319226],[19.6098399,43.7316982],[19.6088158,43.7305589],[19.608754,43.7300693],[19.6087091,43.7297135],[19.6086503,43.7284767],[19.6086177,43.7280472],[19.6085247,43.7268234],[19.6084624,43.7260034],[19.6084391,43.7256969],[19.6084591,43.7246574],[19.6084661,43.7242948],[19.6086288,43.7239847],[19.6091154,43.7230573],[19.609795,43.7226288],[19.610056,43.7224642],[19.6112602,43.721989],[19.6116159,43.7219319],[19.6140356,43.7215434],[19.6168812,43.7209669],[19.6176942,43.7206544],[19.6188811,43.7201981],[19.6193702,43.7195961],[19.6195628,43.719359],[19.6197314,43.7190339],[19.6198718,43.7187631],[19.6198032,43.7184263],[19.6197324,43.7180788],[19.6196906,43.7173769],[19.6194901,43.7171056],[19.6192634,43.7167989],[19.6191485,43.7166434],[19.6186956,43.7163749],[19.6177502,43.7158145],[19.6170352,43.7155504],[19.6161784,43.7154956],[19.6151489,43.7156089],[19.6140745,43.7159919],[19.6137135,43.7161914],[19.6131818,43.7164853],[19.6121842,43.7166925],[19.6109452,43.7169917],[19.6098749,43.7170641],[19.6088164,43.7170891],[19.60786,43.7167928],[19.6069076,43.7160539],[19.606213,43.715381],[19.6045918,43.7146279],[19.6033987,43.714149],[19.6008317,43.713158],[19.5986597,43.712319],[19.5966634,43.711616],[19.5948496,43.7107259],[19.5942112,43.7103305],[19.5930954,43.7097421],[19.5920824,43.709415],[19.5915476,43.7093206],[19.5907267,43.7091757],[19.5898331,43.7093044],[19.5887541,43.7094598],[19.587789,43.7099582],[19.5868382,43.7104849],[19.5863958,43.71073],[19.5848193,43.7108112],[19.5825439,43.7106143],[19.5815671,43.7100503],[19.5794224,43.7089119],[19.5786734,43.7085624],[19.576069,43.7083623],[19.5748799,43.7082709],[19.5733813,43.7080709],[19.5721827,43.707634],[19.5708837,43.7071354],[19.5701971,43.7064522],[19.5696882,43.7054105],[19.5687818,43.7034881],[19.568216,43.7025575],[19.5672632,43.7018265],[19.5666261,43.7014666],[19.5656041,43.7012121],[19.5644811,43.7011258],[19.5633348,43.7010024],[19.5626466,43.7009656],[19.5608687,43.7010135],[19.5592953,43.7013606],[19.5568563,43.7029034],[19.5555606,43.703537],[19.5531598,43.704336],[19.5516735,43.7054655],[19.5499968,43.7068153],[19.5461097,43.7077795],[19.5450808,43.7079173],[19.5427942,43.7076969],[19.540965,43.7072286],[19.539212,43.7064297],[19.5375353,43.7052175],[19.5358585,43.7035921],[19.5329622,43.7019667],[19.5305233,43.70103],[19.5279138,43.70096],[19.526801,43.7009537],[19.5262043,43.7009503],[19.5223995,43.7009289],[19.5196533,43.7009184],[19.5182671,43.7009205],[19.5179103,43.7009181],[19.5173107,43.7009141],[19.5168044,43.7009067],[19.5165736,43.7009082],[19.515386,43.7008154],[19.5149351,43.7008096],[19.5135315,43.7009067],[19.5125789,43.7008691],[19.5120223,43.70078],[19.5114451,43.700644],[19.5108551,43.700443],[19.5103552,43.7002369],[19.5091825,43.6994595],[19.5085346,43.6989085],[19.5071627,43.6982748],[19.5032756,43.6972278],[19.5004175,43.6961533],[19.4994146,43.6955853],[19.4976361,43.6941825],[19.4942408,43.6912209],[19.4896598,43.6853363],[19.4840549,43.6761769],[19.4807135,43.6685756],[19.4793169,43.6604042],[19.4791941,43.6597535],[19.4790219,43.658179],[19.4789484,43.6566743],[19.4792815,43.6557496],[19.4797305,43.6551706],[19.4805333,43.6546288],[19.481596,43.6542787],[19.4827794,43.6541226],[19.4842017,43.6539563],[19.4853189,43.6535661],[19.48624,43.6528701],[19.4866914,43.6522425],[19.4868571,43.6515117],[19.486962,43.650984],[19.4870114,43.6500718],[19.487264,43.649089],[19.4878144,43.6482987],[19.48885,43.647206],[19.4894956,43.6463858],[19.4899358,43.6454123],[19.4903947,43.644513],[19.4907499,43.6440129],[19.4913104,43.6435173],[19.4924616,43.6425641],[19.4933226,43.6420029],[19.494156,43.6417584],[19.495341,43.6415233],[19.4974028,43.6412982],[19.4979502,43.6412516],[19.4985371,43.6411623],[19.4994042,43.6409041],[19.5005088,43.6402789],[19.5006321,43.6402091],[19.5011396,43.6399219],[19.504204,43.6382464],[19.5053781,43.6376202],[19.5065569,43.6367581],[19.5071618,43.6360546],[19.5075576,43.635614],[19.5076669,43.6354924],[19.508755,43.6343863],[19.5092762,43.6340198],[19.5101013,43.6336257],[19.5113806,43.6335469],[19.5125403,43.6334878],[19.5132381,43.6337128],[19.5151519,43.63433],[19.5164209,43.6345568],[19.5170752,43.6346738],[19.5188324,43.634211],[19.5194724,43.6339968],[19.5202009,43.633407],[19.5205354,43.6329597],[19.5207191,43.6324647],[19.5207953,43.6318972],[19.5207601,43.6316766],[19.5206939,43.6312614],[19.5202755,43.6304369],[19.5191712,43.6297365],[19.51836,43.6293058],[19.5178298,43.6290243],[19.5173422,43.6287498],[19.515151,43.627583],[19.5147515,43.6273723],[19.5145471,43.6272922],[19.5136099,43.6268213],[19.512857,43.6264756],[19.5118684,43.6262535],[19.5100005,43.6260723],[19.508956,43.6261705],[19.5083611,43.626348],[19.5077965,43.62658],[19.5065211,43.6271933],[19.5054919,43.6274788],[19.5040421,43.6279988],[19.5023631,43.6279633],[19.5012601,43.6277505],[19.5003266,43.6271086],[19.4989578,43.6259431],[19.4988899,43.6258211],[19.4984696,43.625272],[19.4982312,43.6247313],[19.4982213,43.6240581],[19.4982497,43.6232395],[19.4983814,43.6226671],[19.4986333,43.6221551],[19.4993913,43.6213804],[19.500517,43.6206229],[19.5010253,43.6201598],[19.5011202,43.6200429],[19.5013479,43.6197134],[19.5015579,43.6191348],[19.5016148,43.6183223],[19.5017248,43.6174379],[19.5020735,43.6167563],[19.50334,43.6154137],[19.5038306,43.6146173],[19.5039127,43.6143056],[19.5039086,43.6134521],[19.5038628,43.6129401],[19.5036857,43.6125973],[19.5031163,43.6118863],[19.5025477,43.6114173],[19.5023181,43.6112806],[19.5018369,43.6110427],[19.5011926,43.6107726],[19.500077,43.610161],[19.4989909,43.609248],[19.498426,43.607968],[19.4977868,43.6061975],[19.496712,43.6048286],[19.495744,43.6036658],[19.4956458,43.6022149],[19.4970797,43.6007783],[19.4982975,43.6001951],[19.4992076,43.5995158],[19.49981,43.5991283],[19.5000847,43.5984834],[19.5013772,43.5966486],[19.5018306,43.5959951],[19.5023635,43.5951595],[19.5025867,43.5942819],[19.5027174,43.5931276],[19.5028599,43.5921976],[19.5030371,43.5916247],[19.5032867,43.5910908],[19.503963,43.590575],[19.5050538,43.5900515],[19.5058004,43.589755],[19.5074578,43.5891942],[19.5093798,43.5882074],[19.5102796,43.5877254],[19.5108735,43.5873762],[19.5114688,43.5870203],[19.5137597,43.5864111],[19.5161327,43.5858614],[19.5169873,43.5857786],[19.517871,43.585737],[19.5186834,43.5855513],[19.519534,43.5853173],[19.5203321,43.5850827],[19.5209965,43.5846161],[19.5215123,43.5842268],[19.5219875,43.5838087],[19.5222098,43.5835984],[19.522457,43.5833645],[19.5229367,43.5829972],[19.5234847,43.5826177],[19.5247973,43.5817642],[19.5251511,43.5815309],[19.5256969,43.5811691],[19.5262776,43.5807973],[19.5272806,43.5801301],[19.5277802,43.579786],[19.5282741,43.5794969],[19.528618,43.5793169],[19.52885,43.5791954],[19.5293139,43.57891],[19.5296988,43.5786489],[19.5299478,43.5784799],[19.5302058,43.5783142],[19.5306136,43.57802],[19.5308412,43.5777987],[19.5310538,43.5775328],[19.5313701,43.5770855],[19.5314721,43.5766382],[19.5314798,43.5759049],[19.5313141,43.574464],[19.5311717,43.5736016],[19.5309928,43.5727429],[19.5307685,43.5718123],[19.5300805,43.5702658],[19.5299507,43.569558],[19.5300792,43.5688386],[19.5305172,43.5680886],[19.5310759,43.5675866],[19.5318722,43.5671641],[19.5328649,43.5668981],[19.5336138,43.5668401],[19.5346414,43.5668456],[19.535876,43.5667764],[19.5367032,43.566702],[19.5375084,43.5664592],[19.539392,43.5654092],[19.541376,43.5642311],[19.5422083,43.5637108],[19.542978,43.5630714],[19.5433728,43.5625966],[19.5436083,43.5620728],[19.543872,43.5614492],[19.5440327,43.5608116],[19.5442399,43.5600883],[19.5444111,43.5596216],[19.5450341,43.5586218],[19.545358,43.5580734],[19.5455081,43.5578074],[19.5458661,43.5570261],[19.5461643,43.5562403],[19.5465949,43.5551332],[19.546655,43.5549915],[19.5470336,43.5544178],[19.5473768,43.5538236],[19.5477887,43.5529676],[19.5481796,43.5520562],[19.5486123,43.5512845],[19.5489879,43.5507806],[19.5493947,43.550317],[19.5503815,43.5491397],[19.5509386,43.5482841],[19.5511251,43.5478303],[19.5515274,43.54613],[19.5517411,43.5455265],[19.5527694,43.5442981],[19.5537618,43.5430617],[19.5543121,43.5417287],[19.5546043,43.5410486],[19.5550312,43.5400353],[19.5553217,43.5394073],[19.5555702,43.5390545],[19.5558858,43.5386868],[19.556294,43.5383663],[19.5567394,43.5380836],[19.5571617,43.537879],[19.5576425,43.5377077],[19.5582198,43.5375627],[19.5588018,43.537446],[19.5600586,43.5372245],[19.5604561,43.5371443],[19.5608638,43.53703],[19.5616683,43.5367376],[19.5621743,43.5362101],[19.5628132,43.5357972],[19.5638068,43.5349277],[19.5647438,43.5344278],[19.5657116,43.5340861],[19.5667439,43.5336726],[19.5674237,43.5333391],[19.5679662,43.532998],[19.5684714,43.5323444],[19.5705488,43.5296824],[19.5711607,43.5288996],[19.5720557,43.5281643],[19.573698,43.527377],[19.5754919,43.5265784],[19.5765233,43.5261159],[19.5772661,43.5255331],[19.5782812,43.524337],[19.5785555,43.5239624],[19.5795373,43.5226213],[19.5806634,43.5212038],[19.5820512,43.5196805],[19.5827874,43.5189855],[19.5837408,43.5182342],[19.584056,43.5181156],[19.5857597,43.5174748],[19.586644,43.5172801],[19.5880931,43.5169611],[19.5885066,43.5168634],[19.5899431,43.516524],[19.5912459,43.5162157],[19.592485,43.5158033],[19.59311,43.5154509],[19.594063,43.5146647],[19.5945312,43.5137423],[19.5947255,43.5131516],[19.5951441,43.5118068],[19.5958137,43.5106318],[19.5963529,43.5100513],[19.6021509,43.507653],[19.6028268,43.5070853],[19.6038386,43.5062355],[19.6059237,43.5040301],[19.6071307,43.5028217],[19.611033,43.4989759],[19.6125031,43.4980055],[19.6138805,43.4974251],[19.6151162,43.4972415],[19.6164126,43.4972855],[19.6182762,43.4975059],[19.6199068,43.4975059],[19.6215577,43.4973296],[19.623644,43.4966757],[19.6252579,43.4957819],[19.6265409,43.495098],[19.628505,43.494617],[19.631967,43.493531],[19.6391052,43.4894304],[19.6437144,43.4862729],[19.645831,43.4843784],[19.6469783,43.481924],[19.6470109,43.4818568],[19.648462,43.4788666],[19.6516072,43.4751632],[19.6526754,43.4733688],[19.6526359,43.4721773],[19.6519148,43.4709706],[19.6504797,43.4696075],[19.646464,43.4661476],[19.6457849,43.4650008],[19.6453048,43.4613576],[19.644136,43.4586509],[19.643432,43.457541],[19.6417969,43.4562349],[19.641608,43.4559209],[19.641201,43.4551699],[19.6405035,43.4544506],[19.6340872,43.4475112],[19.633127,43.444469],[19.6333234,43.4430588],[19.6348074,43.4401114],[19.6353312,43.4385426],[19.6347856,43.4367202],[19.6338472,43.435294],[19.6328651,43.4342005],[19.6314247,43.4332971],[19.6299625,43.4328534],[19.6290677,43.4326632],[19.6280638,43.4316965],[19.6266889,43.4300007],[19.6274469,43.4244989],[19.6280201,43.4235339],[19.6303553,43.4212673],[19.63077,43.4197772],[19.6301371,43.4182713],[19.6289804,43.4173836],[19.6280069,43.416231],[19.627492,43.415332],[19.6275011,43.4152129],[19.6276029,43.413876],[19.6278476,43.4127793],[19.6279763,43.4119064],[19.6280536,43.4098671],[19.6281051,43.4085082],[19.6282338,43.407604],[19.6285799,43.406956],[19.6299039,43.405751],[19.6319246,43.403925],[19.6332979,43.4024908],[19.6340274,43.4015242],[19.6348857,43.4000898],[19.6365711,43.3977693],[19.6368768,43.39736],[19.6378478,43.3960854],[19.6385046,43.3952047],[19.638601,43.3950754],[19.6388187,43.3947835],[19.6391586,43.394382],[19.6393561,43.3941407],[19.6395334,43.3938969],[19.6397244,43.3936332],[19.6398911,43.3933466],[19.6400292,43.3930539],[19.6401448,43.3927843],[19.6402246,43.3924765],[19.6402898,43.3921494],[19.6403184,43.3918385],[19.6403537,43.3914299],[19.6403542,43.3910964],[19.6403543,43.3909887],[19.6403543,43.3900687],[19.6403811,43.3884745],[19.6394007,43.386554],[19.6386136,43.3851917],[19.6383943,43.3847668],[19.6381633,43.384316],[19.6376859,43.3836961],[19.6358628,43.3816904],[19.6337742,43.3796457],[19.6328632,43.3790214],[19.6318893,43.3783103],[19.6309022,43.3775305],[19.6299581,43.3762438],[19.629686,43.374918],[19.6296764,43.373643],[19.6299178,43.3727032],[19.6335281,43.3664989],[19.6372537,43.3600431],[19.637632,43.3591639],[19.637822,43.358064],[19.6376323,43.3573878],[19.6374399,43.356305],[19.6370659,43.355144],[19.636904,43.353744],[19.636862,43.352424],[19.636774,43.3488375],[19.636989,43.347247],[19.6369119,43.346165],[19.636799,43.3447809],[19.6370757,43.3438305],[19.637678,43.3422489],[19.63824,43.3412019],[19.6392209,43.339483],[19.640683,43.3370039],[19.643298,43.334823],[19.6462839,43.332469],[19.647788,43.331533],[19.649515,43.330912],[19.651585,43.330535],[19.6533393,43.3304223],[19.655822,43.330409],[19.6571159,43.3304223],[19.658141,43.330439],[19.65909,43.3307969],[19.6602,43.3308729],[19.661037,43.3308329],[19.6631799,43.331037],[19.664875,43.3309029],[19.666643,43.330209],[19.6668929,43.330062],[19.667276,43.329834],[19.6744569,43.3228199],[19.675299,43.322514],[19.6758519,43.3224599],[19.6770269,43.3217967],[19.6786729,43.320684],[19.678852,43.320473],[19.679312,43.319465],[19.6799079,43.318646],[19.680387,43.3182329],[19.6808289,43.317897],[19.6819061,43.3173495],[19.6827458,43.317131],[19.6836437,43.316983],[19.6844302,43.3169606],[19.6857936,43.3168204],[19.6866497,43.3166042],[19.687445,43.3162982],[19.6880139,43.3160043],[19.6926998,43.3133926],[19.6961812,43.3109058],[19.6971031,43.3101823],[19.6981786,43.3096132],[19.7000083,43.3090034],[19.7014609,43.3085663],[19.703165,43.3076821],[19.7059584,43.3058932],[19.7067406,43.3054358],[19.7073971,43.3049276],[19.7078999,43.3043991],[19.7083748,43.3037486],[19.7090033,43.303159],[19.709981,43.3024068],[19.7109448,43.3019291],[19.7118527,43.3013802],[19.7125091,43.3008516],[19.7136964,43.2994387],[19.7148836,43.2979952],[19.7155401,43.2975174],[19.7207553,43.289687],[19.7230864,43.2839905],[19.7230864,43.2742324],[19.7208327,43.2554614],[19.7211055,43.2518452],[19.7214601,43.2505338],[19.7222513,43.2492423],[19.7230424,43.2479706],[19.7233425,43.2467585],[19.7233152,43.2456258],[19.7235334,43.2443341],[19.724079,43.2433008],[19.7246519,43.2427841],[19.7259341,43.2419582],[19.7270165,43.2416784],[19.728099,43.2415894],[19.7302465,43.2416148],[19.733005,43.2416657],[19.7348906,43.2414622],[19.7367588,43.2409153],[19.738365,43.2401395],[19.7387317,43.2397325],[19.7431735,43.2339416],[19.7463789,43.2294944],[19.7489364,43.226314],[19.7531648,43.222885],[19.7560633,43.2213195],[19.7591664,43.2197789],[19.7605645,43.2190582],[19.762099,43.2177412],[19.7632584,43.2162998],[19.763804,43.2148833],[19.7645201,43.2127708],[19.7663904,43.2080565],[19.7653803,43.2050524],[19.7639137,43.2025624],[19.7638633,43.2020321],[19.7640585,43.2010882],[19.7642983,43.2000796],[19.764856,43.1990096],[19.7657859,43.1978186],[19.766649,43.1963438],[19.767496,43.1956063],[19.7684917,43.1952919],[19.7693516,43.1952148],[19.770314,43.1948057],[19.7708933,43.1938049],[19.7789031,43.1589938],[19.7797106,43.1577202],[19.7798949,43.1574554],[19.7801071,43.1572114],[19.7805408,43.1566771],[19.7807265,43.1564085],[19.7809029,43.1561323],[19.7810501,43.1558372],[19.7811421,43.1555875],[19.7811893,43.1554477],[19.7812637,43.1551408],[19.7812944,43.1549142],[19.7813096,43.1546908],[19.781311,43.1543844],[19.7813138,43.153859],[19.7813155,43.1531697],[19.7812993,43.1524638],[19.7812799,43.1522148],[19.7812383,43.1519569],[19.7810802,43.1513246],[19.7810776,43.1513142],[19.7809077,43.1509071],[19.7804745,43.1495845],[19.7806077,43.1477722],[19.7809695,43.1470275],[19.7812699,43.146276],[19.7820115,43.1446902],[19.7823218,43.1437329],[19.7824066,43.142853],[19.782236,43.1417281],[19.7812908,43.1405389],[19.7800838,43.1397192],[19.779012,43.1389505],[19.7784133,43.1383163],[19.7776827,43.1372187],[19.7776591,43.1365939],[19.7776172,43.1360749],[19.7773244,43.1352919],[19.7768926,43.134627],[19.7764634,43.133938],[19.7762246,43.1333918],[19.7758197,43.1325287],[19.7754764,43.1317144],[19.7754764,43.1312446],[19.7753427,43.1302771],[19.7751067,43.1296483],[19.7747897,43.1285824],[19.7747094,43.1278001],[19.7750472,43.127079],[19.7753476,43.1265153],[19.7757768,43.125513],[19.7760425,43.1247073],[19.7765922,43.1237902],[19.7772788,43.1230698],[19.7776825,43.1224863],[19.778306,43.1216761],[19.7784348,43.1207622],[19.7781279,43.1197606],[19.776981,43.1179328],[19.7761753,43.1164001],[19.7761635,43.114992],[19.7768255,43.11337],[19.7771237,43.1110955],[19.7772138,43.1096543],[19.7768426,43.1083087],[19.7753878,43.1064742],[19.774478,43.1056079],[19.7738525,43.1046421],[19.7736165,43.1035305],[19.7736658,43.1018087],[19.7732581,43.100629],[19.7727732,43.0998362],[19.7718398,43.0986407],[19.7713527,43.0973661],[19.7711848,43.0961885],[19.7713677,43.0953504],[19.7721434,43.0928935],[19.7730575,43.0898739],[19.7736492,43.0876565],[19.7741116,43.0858011],[19.7746405,43.0838398],[19.7754291,43.0810122],[19.7759108,43.0793058],[19.7760793,43.0783314],[19.7761195,43.0771488],[19.7757408,43.0744],[19.7755804,43.0738067],[19.7751287,43.0728247],[19.7735317,43.0704257],[19.7732061,43.0697113],[19.7730398,43.0686795],[19.7730425,43.0675348],[19.7727619,43.0661866],[19.7721879,43.0647487],[19.7719149,43.0638155],[19.7719095,43.062704],[19.7719428,43.0616819],[19.7719083,43.0611705],[19.7717963,43.0606527],[19.7703769,43.0568237],[19.7693131,43.0541202],[19.7687579,43.0524582],[19.7676308,43.0498886],[19.7663836,43.0469147],[19.766083,43.0463044],[19.7650446,43.0447866],[19.7643894,43.0438759],[19.7634195,43.0430497],[19.7621134,43.0421749],[19.7613426,43.0418229],[19.7607881,43.0416539],[19.7586256,43.0412517],[19.7573225,43.0410082],[19.7557419,43.0404726],[19.7530894,43.0397069],[19.7516515,43.0395753],[19.7513511,43.039562],[19.7507159,43.0395328],[19.7500892,43.0394649],[19.7495797,43.0393418],[19.7470931,43.0381438],[19.7466261,43.0378164],[19.7460343,43.0373607],[19.7448706,43.0362801],[19.7420941,43.0331164],[19.7414892,43.0327257],[19.7413881,43.0326604],[19.7392412,43.031702],[19.7379029,43.03081],[19.7355986,43.0289485],[19.7343662,43.0279392],[19.7338454,43.0274611],[19.7334064,43.0267882],[19.7332338,43.0263831],[19.7329158,43.0251545],[19.7327584,43.0243399],[19.7325934,43.0225742],[19.7325973,43.0224924],[19.7326736,43.0220264],[19.7328406,43.0215318],[19.7333673,43.0205738],[19.7336328,43.0199351],[19.7336585,43.0191148],[19.7331746,43.0177936],[19.7327079,43.0166133],[19.7325152,43.0158681],[19.732528,43.0150415],[19.7325366,43.0136169],[19.7326008,43.0124803],[19.7328663,43.0106298],[19.7328343,43.0098506],[19.7326778,43.0090588],[19.7330218,43.0068648],[19.7333385,43.0053267],[19.7335535,43.0039867],[19.7342915,43.0030517],[19.7349658,43.0023582],[19.7362124,43.0010476],[19.7371008,43.0000866],[19.7377339,42.9995923],[19.7385171,42.9990901],[19.7397992,42.9984192],[19.7414085,42.9975129],[19.7425045,42.9967857],[19.7432149,42.9958358],[19.7434131,42.9949318],[19.743244,42.9940108],[19.7428593,42.9933712],[19.7423288,42.9927913],[19.7415826,42.9922839],[19.7406848,42.9919428],[19.7380731,42.9914439],[19.7361659,42.9911819],[19.7341674,42.9907587],[19.7323936,42.9904895],[19.7310784,42.9904377],[19.7298187,42.9905994],[19.7286841,42.9908113],[19.727579,42.9909682],[19.7267583,42.9909879],[19.7257712,42.9909015],[19.724752,42.990776],[19.7226116,42.9906151],[19.7219142,42.9904738],[19.7196397,42.9897479],[19.7180572,42.9891318],[19.7169682,42.9885668],[19.7157022,42.9881155],[19.7133365,42.9877977],[19.7126887,42.9876957],[19.7118505,42.9875348],[19.7095988,42.9868971],[19.7083891,42.9867087],[19.7071553,42.9866185],[19.7054977,42.9864929],[19.7047574,42.9864909],[19.7034592,42.9866852],[19.7024481,42.9869913],[19.7013671,42.9874622],[19.6998114,42.9881273],[19.6987332,42.9884785],[19.6973063,42.988865],[19.6962763,42.989018],[19.6955655,42.9890279],[19.6906812,42.988439],[19.6898336,42.9884547],[19.6893615,42.9885214],[19.6887916,42.988712],[19.6871662,42.989277],[19.6860195,42.9895927],[19.6849788,42.9900007],[19.6841473,42.99066],[19.683466,42.9914918],[19.6829135,42.9922256],[19.6819962,42.9928965],[19.6810145,42.9934341],[19.680065,42.9936028],[19.6791209,42.9936617],[19.6782411,42.9935243],[19.6776506,42.9933567],[19.6770395,42.9931555],[19.6749795,42.9920333],[19.6735907,42.9911462],[19.6732951,42.990966],[19.6694559,42.9888041],[19.6683127,42.9882199],[19.6668939,42.9877484],[19.6654289,42.987314],[19.6645489,42.987054],[19.6640927,42.986924],[19.6621185,42.9863576],[19.6612064,42.9861827],[19.6602618,42.9860581],[19.659147,42.9859336],[19.6579957,42.9856963],[19.6569823,42.9854561],[19.6557824,42.9851685],[19.6531333,42.9846239],[19.6517031,42.9845505],[19.6502408,42.9847322],[19.6489522,42.984892],[19.6478536,42.9853205],[19.6462554,42.9862248],[19.6449279,42.9867243],[19.6431484,42.9867348],[19.6413384,42.9864217],[19.6396785,42.9861337],[19.6377181,42.9862848],[19.6358298,42.986536],[19.6340575,42.9864398],[19.6324825,42.9869754],[19.6307658,42.987352],[19.6293067,42.9877288],[19.6274184,42.9879171],[19.6263026,42.9877288],[19.6255095,42.9875037],[19.6237189,42.9871487],[19.6218558,42.9866846],[19.620814,42.9858171],[19.6200783,42.9854013],[19.6193329,42.985257],[19.617734,42.9850397],[19.6174178,42.9849889],[19.6165745,42.9848874],[19.6149494,42.9846897],[19.6143786,42.9845233],[19.6138876,42.9842493],[19.6133489,42.9837906],[19.6128424,42.9833083],[19.5951504,42.9617473],[19.5946236,42.9612786],[19.5938994,42.9609284],[19.5929295,42.96067],[19.5917323,42.9604119],[19.5911885,42.9603152],[19.5898728,42.9600632],[19.5887765,42.9597549],[19.5882073,42.9594443],[19.5878275,42.9591907],[19.5875276,42.9589765],[19.5872492,42.958563],[19.5870202,42.9581154],[19.5869412,42.957732],[19.5868527,42.9572438],[19.5867737,42.9566536],[19.5867114,42.9562809],[19.5861584,42.9529728],[19.5859985,42.9519702],[19.5858978,42.9514682],[19.5857912,42.9511394],[19.5855912,42.9506543],[19.5851057,42.9498711],[19.5849482,42.9496171],[19.5847903,42.9493601],[19.5845079,42.9488742],[19.5841603,42.9484462],[19.5840331,42.9483092],[19.5838582,42.9481373],[19.5826665,42.94751],[19.5807542,42.9469491],[19.5800358,42.9466455],[19.5794949,42.9462728],[19.579037,42.9457575],[19.5787236,42.945185],[19.5781797,42.9440442],[19.5775731,42.9431202],[19.5769311,42.9422055],[19.5764569,42.9412521],[19.5760703,42.9402325],[19.5756815,42.9396652],[19.5750082,42.9387981],[19.5742967,42.9380634],[19.5724827,42.9368152],[19.5717933,42.9361819],[19.5715725,42.9358549],[19.5714144,42.935228],[19.5713903,42.9348276],[19.5714288,42.9344915],[19.5717128,42.933519],[19.5720179,42.9323521],[19.5721222,42.9314476],[19.5723288,42.9291026],[19.5723205,42.9288134],[19.5723085,42.9287032],[19.5723317,42.9281351],[19.5724502,42.9274919],[19.5725251,42.9260438],[19.5726222,42.9255092],[19.5727424,42.9251549],[19.5729752,42.9246647],[19.5736146,42.9239553],[19.5743045,42.9233865],[19.5749675,42.9227965],[19.5753006,42.922441],[19.5757325,42.9215163],[19.5771701,42.9180573],[19.5773391,42.9175315],[19.5774134,42.9170547],[19.5774035,42.9166951],[19.5772785,42.9162885],[19.5767217,42.9149993],[19.5763867,42.9143416],[19.5761708,42.9140323],[19.5759452,42.9137315],[19.5755077,42.9132878],[19.5751188,42.9129593],[19.5745998,42.9127108],[19.5732485,42.9122786],[19.5716027,42.9119953],[19.5702122,42.9119564],[19.569215,42.9117293],[19.5682574,42.911327],[19.5675558,42.9107982],[19.5671786,42.9102615],[19.5657774,42.9082242],[19.5649014,42.9064722],[19.5642988,42.9056591],[19.5637336,42.9049103],[19.5630939,42.9042323],[19.5627571,42.9039973],[19.5620377,42.9036264],[19.5614771,42.9034445],[19.5600609,42.9029796],[19.5591923,42.9026601],[19.5581479,42.9023155],[19.5568787,42.9019709],[19.5561341,42.9018573],[19.555308,42.9017897],[19.5540251,42.9018111],[19.5508381,42.9020105],[19.5461209,42.9023937],[19.5453983,42.902404],[19.5445619,42.9023131],[19.5436372,42.9020495],[19.5430144,42.9017304],[19.5426228,42.9014074],[19.5422848,42.9010624],[19.5419698,42.9006795],[19.5417886,42.9003779],[19.5416379,42.9000124],[19.5416024,42.8996473],[19.5416996,42.898933],[19.5423602,42.8977361],[19.5427547,42.8970502],[19.543011,42.8963391],[19.543098,42.8956888],[19.5430766,42.8948307],[19.5429157,42.8927679],[19.5429005,42.8923078],[19.5428775,42.8919166],[19.5427322,42.8911337],[19.542658,42.8904566],[19.5425174,42.889833],[19.5422943,42.8892492],[19.5421507,42.8888372],[19.5420485,42.88835],[19.5419763,42.8877851],[19.5420353,42.8871221],[19.5423125,42.885912],[19.5424793,42.8854711],[19.5425935,42.8850572],[19.5427467,42.8846094],[19.543282,42.8833665],[19.5434765,42.8829736],[19.5437321,42.8826125],[19.5441269,42.8822625],[19.5445869,42.8820074],[19.5454925,42.8816131],[19.5461306,42.8813445],[19.5468609,42.8809997],[19.5475028,42.8806165],[19.547812,42.880384],[19.548036,42.8801402],[19.5482902,42.8798064],[19.5484837,42.879516],[19.5486832,42.8791243],[19.548849,42.8787253],[19.5488999,42.8785705],[19.5489654,42.8781289],[19.5489506,42.8777079],[19.5488114,42.8771713],[19.5486025,42.8767381],[19.5482959,42.8762983],[19.5479665,42.8759137],[19.5475108,42.8754573],[19.5471278,42.8751495],[19.5467437,42.8749353],[19.5462545,42.8747338],[19.5456263,42.8745659],[19.5450228,42.8744645],[19.5444003,42.874413],[19.5436026,42.8743758],[19.5428593,42.8743796],[19.5417606,42.8743988],[19.5406808,42.8743269],[19.5399827,42.874196],[19.5393129,42.8740146],[19.538469,42.8736636],[19.5378168,42.8732731],[19.5374461,42.8730343],[19.5371446,42.8728086],[19.5368517,42.8725458],[19.5365528,42.8722206],[19.5348616,42.8703158],[19.5344173,42.8697641],[19.5342269,42.8694818],[19.5340636,42.8691729],[19.5338981,42.868732],[19.5338055,42.8682852],[19.533794,42.8678621],[19.5338804,42.8674049],[19.5342854,42.8655941],[19.534376,42.86533],[19.5345686,42.8649203],[19.5348529,42.8645372],[19.5350858,42.8642956],[19.5353835,42.8640931],[19.5360429,42.8637244],[19.5369419,42.8634377],[19.5378235,42.8632732],[19.538791,42.8631187],[19.5395152,42.8629553],[19.5399081,42.862813],[19.5403735,42.8625964],[19.5408842,42.8622651],[19.5413026,42.861896],[19.5415434,42.8616059],[19.5462346,42.8548861],[19.546545,42.8544099],[19.5467751,42.8539649],[19.5471895,42.8530199],[19.5489836,42.8488],[19.5494258,42.8476567],[19.5496708,42.8466921],[19.5505305,42.8422334],[19.5509046,42.839836],[19.5511731,42.8370868],[19.5512591,42.8346127],[19.5511753,42.8335968],[19.550833,42.832666],[19.5504457,42.8318418],[19.5501081,42.831206],[19.5493535,42.8297489],[19.5485113,42.8280234],[19.5464382,42.8240119],[19.5462306,42.8237011],[19.5460009,42.8234175],[19.545788,42.8231756],[19.545479,42.8228866],[19.5451896,42.8226578],[19.5447597,42.822383],[19.5443343,42.8221601],[19.5437863,42.8219626],[19.5428725,42.8217204],[19.5423355,42.8215675],[19.5411827,42.8212423],[19.5399899,42.8208906],[19.5393894,42.8207025],[19.5386603,42.8204003],[19.5381148,42.820103],[19.5377411,42.8198288],[19.5373959,42.8195148],[19.5370923,42.8191585],[19.5368155,42.818743],[19.5364582,42.8179747],[19.5361726,42.8172335],[19.536024,42.8168149],[19.5357587,42.8161083],[19.535557,42.8153497],[19.5355063,42.8148651],[19.5355171,42.8144037],[19.5356211,42.8138762],[19.5357754,42.8134372],[19.5359661,42.8130311],[19.5378718,42.8101961],[19.5478199,42.7953158],[19.5480408,42.794894],[19.5481961,42.7945799],[19.5483533,42.7942323],[19.5484509,42.7939296],[19.5485118,42.7937129],[19.5485385,42.7935451],[19.5485791,42.793259],[19.5485593,42.7928355],[19.5484346,42.792245],[19.548264,42.7917364],[19.5480271,42.7912433],[19.5475476,42.7902151],[19.5474295,42.789973],[19.5473158,42.7896842],[19.5472134,42.7893317],[19.5471774,42.7889656],[19.5471152,42.7821389],[19.5471039,42.781381],[19.5471294,42.778048],[19.5471063,42.7777163],[19.5470709,42.7773489],[19.5470235,42.7769796],[19.5469709,42.7766772],[19.5468864,42.7763396],[19.5467172,42.7759041],[19.5465023,42.7754721],[19.546266,42.775129],[19.5460364,42.7748346],[19.5456394,42.7745078],[19.5452548,42.7742554],[19.5447133,42.7739683],[19.5442039,42.7737797],[19.5428258,42.7732889],[19.5418071,42.7729099],[19.5400846,42.7721999],[19.5394205,42.771925],[19.5388969,42.7717022],[19.5384538,42.7714826],[19.5379938,42.7712361],[19.5375613,42.7710042],[19.5362965,42.7703501],[19.5357083,42.770025],[19.5351515,42.7696946],[19.5347033,42.7694164],[19.5343964,42.769213],[19.5340011,42.7689438],[19.533559,42.7686412],[19.4990749,42.7465744],[19.4988432,42.7464261],[19.4982813,42.7460665],[19.4979176,42.7458281],[19.4976086,42.7455337],[19.4973838,42.7452547],[19.4970027,42.7446465],[19.4965255,42.7437774],[19.4963332,42.7434081],[19.4962243,42.7430561],[19.4962031,42.7426327],[19.4962773,42.7421992],[19.4964263,42.7418038],[19.4966406,42.741455],[19.4970587,42.7409329],[19.497372,42.7405417],[19.498152,42.7396336],[19.4983848,42.7392956],[19.4985973,42.7388771],[19.4986683,42.7385574],[19.4987061,42.7381289],[19.4986702,42.7377432],[19.4986112,42.7374585],[19.4985063,42.7371766],[19.4982939,42.7365667],[19.497825,42.7359789],[19.4972607,42.735469],[19.4964818,42.7350269],[19.4957318,42.7346865],[19.4947791,42.7343949],[19.4889534,42.7332223],[19.4877196,42.732954],[19.4869278,42.7326348],[19.4863935,42.7323342],[19.4860067,42.7320552],[19.485769,42.7318546],[19.4855293,42.7315733],[19.4850398,42.7307442],[19.4845838,42.7299167],[19.4842622,42.7293335],[19.4840825,42.7289292],[19.4839757,42.7286148],[19.4839215,42.7282475],[19.4839875,42.7277963],[19.4843228,42.7268679],[19.4846125,42.7260439],[19.4847267,42.7254098],[19.4846063,42.7246666],[19.4841772,42.7239036],[19.4833671,42.7231021],[19.4823377,42.7222354],[19.4817632,42.721824],[19.4812232,42.7213999],[19.4808837,42.721072],[19.4805055,42.7207067],[19.4802029,42.7203599],[19.4799487,42.7200316],[19.4798392,42.7196414],[19.4798537,42.719282],[19.4817511,42.7068361],[19.4818203,42.7058849],[19.4818477,42.7054032],[19.481794,42.7048986],[19.4816529,42.704342],[19.4814518,42.7038477],[19.4811251,42.7030647],[19.4809373,42.7024588],[19.4808273,42.7019211],[19.480885,42.7013885],[19.4810143,42.7006123],[19.4811994,42.6997784],[19.4813372,42.6990696],[19.4815309,42.6983134],[19.4819276,42.696969],[19.4821513,42.6961624],[19.4822484,42.695722],[19.4822001,42.6952252],[19.4819997,42.6947324],[19.4814209,42.6939884],[19.4806973,42.693404],[19.4794208,42.6926896],[19.4784364,42.692259],[19.4776476,42.6917729],[19.477161,42.6912035],[19.4768016,42.6903948],[19.4765473,42.689357],[19.476472,42.689121],[19.4763051,42.6886193],[19.4756807,42.6864341],[19.4754501,42.6857046],[19.4753213,42.6853892],[19.4751765,42.6851447],[19.47486,42.6847504],[19.474537,42.6844706],[19.4740178,42.6841628],[19.4734641,42.6839106],[19.4727571,42.683658],[19.4725093,42.6835833],[19.4721831,42.6834609],[19.4718267,42.6833256],[19.4716574,42.6832726],[19.4156352,42.6641169],[19.4147479,42.6638108],[19.4139829,42.6636092],[19.4134629,42.6634906],[19.4130053,42.6633696],[19.4126589,42.6632781],[19.4120456,42.6631159],[19.410719,42.6627652],[19.4102917,42.662608],[19.4098298,42.6624058],[19.4091652,42.6620389],[19.408555,42.6615705],[19.4079909,42.6611322],[19.4074982,42.6607332],[19.4070264,42.6602831],[19.4045824,42.6578837],[19.4043873,42.657581],[19.4043179,42.6574108],[19.4042924,42.6572496],[19.4042755,42.6565482],[19.4042862,42.6559017],[19.4042672,42.6555575],[19.4042173,42.6552599],[19.4041073,42.6549695],[19.4039708,42.6546912],[19.4037897,42.6544256],[19.4031889,42.653695],[19.4027502,42.6533146],[19.4021563,42.652987],[19.4013233,42.6527461],[19.4004614,42.6525713],[19.3997275,42.6524831],[19.3990849,42.6523739],[19.3984492,42.6522332],[19.3977631,42.6520535],[19.3970349,42.6517791],[19.3964483,42.6514917],[19.3932677,42.6497821],[19.3929442,42.6496144],[19.3925499,42.6493346],[19.392124,42.6488829],[19.3917179,42.6481754],[19.3913553,42.6474784],[19.3910018,42.6466989],[19.3909023,42.6463588],[19.3907679,42.645862],[19.3906874,42.6453329],[19.390656,42.6451162],[19.3905758,42.6448657],[19.3904358,42.6445987],[19.3901877,42.644329],[19.3893348,42.6436186],[19.3889448,42.6432715],[19.3885628,42.6428499],[19.3883995,42.6426402],[19.3882622,42.6424194],[19.3880621,42.6418884],[19.3879725,42.64142],[19.3879886,42.6410232],[19.3880257,42.6401074],[19.3880304,42.63999],[19.3879907,42.6393396],[19.3877794,42.6386455],[19.3875779,42.638358],[19.3873199,42.6380985],[19.386787,42.6376569],[19.3865515,42.6374659],[19.3863514,42.6372426],[19.3859944,42.636859],[19.3858227,42.6366713],[19.3854821,42.6362802],[19.385148,42.6358817],[19.3849054,42.6355708],[19.3839092,42.6343198],[19.3837491,42.6341296],[19.3836149,42.6338929],[19.3834425,42.6335299],[19.3833448,42.6331298],[19.3833025,42.6327506],[19.3833245,42.6324158],[19.3833903,42.6321105],[19.3834543,42.6318674],[19.3835841,42.631671],[19.3841351,42.6310289],[19.3842582,42.6308886],[19.3844385,42.6306601],[19.3852251,42.6295711],[19.3853163,42.6294079],[19.3854684,42.629102],[19.3856631,42.6286276],[19.3857237,42.6283401],[19.3857765,42.62809],[19.3857825,42.6275493],[19.3856524,42.6269936],[19.3855598,42.6267443],[19.3854499,42.626498],[19.3853439,42.6262728],[19.3850272,42.6258588],[19.384619,42.6254434],[19.3844214,42.6252707],[19.384152,42.6250352],[19.3840409,42.6249381],[19.3835541,42.6243946],[19.3831453,42.6238809],[19.3829801,42.6235367],[19.3828806,42.6232037],[19.382862,42.6229309],[19.3828724,42.6225957],[19.3829552,42.6221622],[19.383162,42.6216676],[19.3835069,42.6212476],[19.3839336,42.620796],[19.3843207,42.620425],[19.3845926,42.6201729],[19.3848987,42.6198599],[19.3856572,42.6189938],[19.3862114,42.6182998],[19.3867274,42.6175668],[19.3872381,42.6165668],[19.3875787,42.6155282],[19.3877378,42.6149386],[19.3881595,42.6135518],[19.3884656,42.6124812],[19.3885293,42.6121512],[19.3887414,42.6118049],[19.3910307,42.6089876],[19.3912041,42.6087061],[19.3913257,42.6083947],[19.3913987,42.6079623],[19.3913607,42.6075809],[19.3912094,42.607113],[19.3910313,42.6066443],[19.3904534,42.6049388],[19.3901344,42.6040013],[19.3898468,42.6033383],[19.3891446,42.6020787],[19.3884196,42.6008196],[19.3874779,42.5994335],[19.3866722,42.5984755],[19.3858605,42.5976486],[19.3853927,42.5972328],[19.3849293,42.5969276],[19.3835812,42.5960972],[19.3825422,42.5953533],[19.3818946,42.5949377],[19.3814397,42.5945819],[19.3810433,42.594166],[19.3799914,42.5930222],[19.3794538,42.5925437],[19.3788206,42.5922246],[19.3781438,42.5919904],[19.3774507,42.5917973],[19.3708117,42.5904159],[19.370029,42.5901647],[19.3693864,42.5898953],[19.3688746,42.5894716],[19.3684181,42.5889554],[19.3680635,42.5883594],[19.3678323,42.5878843],[19.36768,42.5874293],[19.3674075,42.5863056],[19.367145,42.5852971],[19.3667272,42.5837573],[19.366194,42.5823022],[19.3652907,42.580693],[19.3638895,42.5789321],[19.363586,42.578449],[19.363309,42.5779288],[19.3631724,42.5773734],[19.3630746,42.5768128],[19.3628879,42.5752375],[19.3628128,42.5746173],[19.3626439,42.5740915],[19.3622936,42.573572],[19.361534,42.5726847],[19.3611424,42.5720823],[19.3608564,42.5714526],[19.3606821,42.5707739],[19.3604182,42.5700418],[19.3600351,42.5694516],[19.359584,42.5689732],[19.3590282,42.5685113],[19.3586066,42.5680748],[19.3582831,42.567543],[19.3579436,42.566741],[19.3575798,42.5659646],[19.3569704,42.5652709],[19.3552887,42.5642025],[19.3548858,42.5639418],[19.3545248,42.5636486],[19.3539905,42.5631097],[19.3536161,42.5625952],[19.3529182,42.5618591],[19.3521511,42.5611242],[19.3514172,42.5603814],[19.3509784,42.5597686],[19.3507348,42.5593157],[19.3505589,42.5590315],[19.3504482,42.5588439],[19.3489206,42.556334],[19.3469706,42.5535999],[19.3468005,42.5533625],[19.3459509,42.5521718],[19.3455587,42.5516003],[19.3453688,42.5511251],[19.3452787,42.550595],[19.3453452,42.5500717],[19.345552,42.5495422],[19.3459251,42.5489992],[19.3464823,42.5482418],[19.34677,42.5477444],[19.3468954,42.5471633],[19.3468993,42.5467785],[19.3468059,42.5463292],[19.346605,42.5459037],[19.3462966,42.5454425],[19.3456684,42.5444088],[19.345188,42.5433245],[19.3448705,42.5424167],[19.3446857,42.5417736],[19.34468,42.5412533],[19.3447373,42.5408898],[19.3449314,42.5403412],[19.3451387,42.5399513],[19.3454919,42.5394501],[19.3459407,42.539026],[19.3464181,42.5387181],[19.3474041,42.5382596],[19.3484516,42.5379139],[19.3496067,42.5376786],[19.3506372,42.5376035],[19.3518903,42.5377904],[19.3529348,42.5381572],[19.3537067,42.5385734],[19.3544722,42.5391557],[19.3550076,42.5397691],[19.3554288,42.5404707],[19.3558868,42.5413659],[19.3566135,42.5422676],[19.3574988,42.543248],[19.3581324,42.5442875],[19.358642,42.5451605],[19.3592755,42.5458743],[19.3602753,42.5465622],[19.361505,42.5471267],[19.3621353,42.5473127],[19.3628144,42.547448],[19.363919,42.5475101],[19.3649734,42.5474606],[19.3655785,42.5473684],[19.366145,42.5472411],[19.3670655,42.5469301],[19.3677903,42.5466669],[19.3685168,42.5464404],[19.3690562,42.5463163],[19.3695052,42.5462586],[19.3699966,42.5462401],[19.3704856,42.5462826],[19.3710504,42.5463766],[19.3715684,42.5465288],[19.3720498,42.5467454],[19.3725345,42.5470295],[19.3757853,42.5490565],[19.3762191,42.5492988],[19.3816731,42.5524156],[19.3821827,42.5526671],[19.3825751,42.5528175],[19.383015,42.552939],[19.3835012,42.553022],[19.3840026,42.5530575],[19.3844811,42.5530633],[19.3891985,42.5531059],[19.3903977,42.5530585],[19.3906802,42.5530239],[19.390902,42.5529722],[19.3913869,42.5528106],[19.3917756,42.5526369],[19.3922104,42.5524144],[19.3925628,42.5521575],[19.3929263,42.5517353],[19.3931924,42.5512784],[19.3933122,42.5509313],[19.3933675,42.550528],[19.393239,42.5496357],[19.3931344,42.548789],[19.3930419,42.5484663],[19.3929617,42.548224],[19.3928447,42.5480074],[19.3926827,42.5477838],[19.3924838,42.5475936],[19.392153,42.5472947],[19.3917525,42.5469671],[19.391278,42.546723],[19.3907479,42.546478],[19.3900956,42.5461966],[19.3897157,42.5459996],[19.389353,42.5457642],[19.3889534,42.5454064],[19.3886632,42.5451011],[19.3884535,42.5447892],[19.3882252,42.5444151],[19.3880259,42.5440409],[19.3879113,42.5438314],[19.3877343,42.5435686],[19.3858916,42.5413819],[19.3856741,42.5412017],[19.3854333,42.5410357],[19.3826617,42.5395428],[19.3806584,42.5384936],[19.3799036,42.5381226],[19.37945,42.5378685],[19.379144,42.5376629],[19.3788409,42.5374031],[19.3785845,42.5371098],[19.3783828,42.5368528],[19.3755759,42.5334008],[19.3752768,42.5331125],[19.3750387,42.5329372],[19.3748018,42.5328091],[19.3744751,42.5326917],[19.3734949,42.5324005],[19.3724532,42.5321434],[19.3719867,42.5320095],[19.3715287,42.5318406],[19.3710939,42.5315963],[19.3706808,42.5312983],[19.3703029,42.5309417],[19.3699345,42.5305645],[19.3697805,42.5304122],[19.369552,42.5301862],[19.3687181,42.529306],[19.3673778,42.5278896],[19.3663146,42.5267336],[19.3660512,42.526399],[19.3658265,42.5260522],[19.3655329,42.5254964],[19.3653509,42.5251424],[19.3652027,42.5248902],[19.3649697,42.524505],[19.3648455,42.5243222],[19.3645835,42.5239396],[19.3644243,42.5237501],[19.3642619,42.5235868],[19.3640182,42.5233651],[19.3636677,42.5231014],[19.3629605,42.5226091],[19.3627211,42.5224356],[19.362486,42.5222494],[19.362258,42.5220043],[19.3620569,42.5217276],[19.361904,42.5214567],[19.3617967,42.5212333],[19.3617216,42.5209823],[19.3616894,42.5207411],[19.3617108,42.5204742],[19.3617457,42.5202647],[19.3617972,42.5200511],[19.3627187,42.5157393],[19.3627514,42.5153536],[19.3627568,42.5149835],[19.3627426,42.514564],[19.3626476,42.5141252],[19.3624164,42.5136525],[19.3620941,42.5131922],[19.3618109,42.5128125],[19.3615334,42.5124678],[19.3593217,42.5097652],[19.3591499,42.5095438],[19.3589797,42.509338],[19.3588346,42.5091853],[19.3586413,42.5090079],[19.3583121,42.508709],[19.3578654,42.5083044],[19.3574276,42.5078856],[19.3565149,42.5070277],[19.3552277,42.5058463],[19.3549101,42.5055679],[19.3545582,42.5052959],[19.3543224,42.5051459],[19.3540211,42.5049586],[19.3536552,42.5047694],[19.3532658,42.5046187],[19.3527519,42.5044492],[19.3522986,42.5043407],[19.3517919,42.5042453],[19.3512965,42.5041957],[19.3508352,42.5041825],[19.350328,42.5042102],[19.3498275,42.5042863],[19.3492156,42.5043929],[19.3477343,42.5046434],[19.3471957,42.5047441],[19.3467952,42.5048568],[19.3463918,42.5049968],[19.3459989,42.5051474],[19.3455249,42.5053389],[19.3440063,42.50599],[19.3431193,42.5064153],[19.3423232,42.5068286],[19.3418197,42.5070354],[19.3413063,42.5071796],[19.3407546,42.5072757],[19.3402026,42.5073328],[19.3396642,42.5073182],[19.3392031,42.50727],[19.3387832,42.507191],[19.3383691,42.5070635],[19.3380786,42.5069336],[19.3378165,42.5067898],[19.3375188,42.5065842],[19.3372337,42.5063497],[19.3368914,42.5059852],[19.3366382,42.5055973],[19.3365004,42.5052465],[19.3360133,42.5035509],[19.3358545,42.5031501],[19.335656,42.5027789],[19.3354125,42.5024493],[19.3351201,42.5021592],[19.3347481,42.5018659],[19.3344348,42.5016773],[19.334033,42.5014969],[19.333565,42.5013328],[19.3330476,42.5011981],[19.3325291,42.5010884],[19.3317783,42.5009286],[19.3309941,42.5008004],[19.3306228,42.500771],[19.3302433,42.5007745],[19.3298724,42.5007921],[19.3294875,42.5008281],[19.3288579,42.5009282],[19.3282445,42.5010595],[19.327806,42.5011297],[19.3272961,42.501154],[19.3266969,42.5011275],[19.3261409,42.5010636],[19.3255867,42.500928],[19.3251385,42.5007453],[19.3246882,42.5004995],[19.3242058,42.5001567],[19.3235938,42.4997272],[19.3232832,42.4995473],[19.3228755,42.4993657],[19.3223906,42.4992056],[19.3218936,42.4991243],[19.3213571,42.4990887],[19.3208797,42.4990966],[19.3204023,42.4991599],[19.3199248,42.4992667],[19.3195225,42.4993853],[19.318573,42.4996464],[19.3180473,42.4997413],[19.3174358,42.4997848],[19.3168242,42.4997373],[19.3162502,42.4996147],[19.3156977,42.499413],[19.3152524,42.4991915],[19.3148126,42.4988949],[19.31448,42.4985824],[19.3141903,42.4982186],[19.3139489,42.4977518],[19.3126078,42.4947695],[19.3124039,42.4943819],[19.3122323,42.4940694],[19.3119909,42.4936897],[19.3117656,42.4933337],[19.311551,42.4930727],[19.3112989,42.492772],[19.3110038,42.4923844],[19.3107946,42.4920442],[19.3106176,42.4917278],[19.3104835,42.4914271],[19.3104143,42.4911467],[19.3103762,42.4907982],[19.310403,42.4904106],[19.3105264,42.4899873],[19.310682,42.4895561],[19.3112559,42.488227],[19.3113471,42.487871],[19.3113793,42.487598],[19.3113686,42.4872815],[19.3113364,42.4870165],[19.3112986,42.486831],[19.3111806,42.4865016],[19.3110264,42.4861792],[19.3108453,42.485875],[19.3105905,42.4856005],[19.310274,42.485305],[19.3099199,42.4850516],[19.3094371,42.484795],[19.3089973,42.4845577],[19.3086539,42.484362],[19.3082757,42.4841003],[19.3078774,42.4838218],[19.3074376,42.4834771],[19.3068569,42.483034],[19.3064124,42.4826431],[19.3061533,42.4823577],[19.3059133,42.4819986],[19.3057896,42.4816499],[19.3056976,42.4813071],[19.3056866,42.4808488],[19.3057344,42.4804365],[19.3058851,42.4799962],[19.3062024,42.4791143],[19.3063955,42.4785669],[19.3064974,42.4781084],[19.306535,42.4775788],[19.3064867,42.4771242],[19.3063625,42.4766518],[19.306164,42.4762128],[19.3059387,42.475797],[19.3055995,42.4753965],[19.3054423,42.4752114],[19.3052167,42.4749999],[19.3049686,42.4748343],[19.3046965,42.474681],[19.3043442,42.4745204],[19.3039064,42.474337],[19.3033754,42.4741253],[19.302937,42.4739276],[19.3022823,42.4736341],[19.3017116,42.4733239],[19.3013194,42.4730495],[19.3008586,42.4727375],[19.2990801,42.4715121],[19.297522,42.4704318],[19.2967119,42.4698517],[19.2955479,42.4690475],[19.2947056,42.4684581],[19.2935724,42.4676486],[19.292274,42.4667569],[19.291264,42.4660453],[19.2898564,42.4650703],[19.287115,42.4631346],[19.2869702,42.4630276],[19.2858222,42.4622214],[19.2850754,42.4616917],[19.2845186,42.4612327],[19.2841123,42.4607581],[19.2838373,42.4603569],[19.2835908,42.4599015],[19.2834127,42.4593961],[19.2833116,42.4588805],[19.2832818,42.4583832],[19.283328,42.4578269],[19.2834428,42.4573469],[19.2836279,42.4565899],[19.2837563,42.4559816],[19.2837815,42.4553705],[19.2837798,42.455281],[19.2837571,42.4548592],[19.2837126,42.4545813],[19.2836242,42.4542633],[19.2833847,42.4537128],[19.282931,42.452922],[19.2822303,42.4518168],[19.2819467,42.4513644],[19.2811577,42.450148],[19.2797528,42.447922],[19.2779834,42.4450582],[19.2762111,42.4422357],[19.2758926,42.4416916],[19.2749909,42.4403123],[19.2745401,42.4395962],[19.2732392,42.4374747],[19.2727113,42.4367369],[19.2726597,42.4366531],[19.2723526,42.4362853],[19.2721127,42.435998],[19.2717694,42.4354853],[19.2713268,42.4347746],[19.2706294,42.4336759],[19.2701895,42.4329791],[19.2697094,42.4322189],[19.2690067,42.4311004],[19.2687841,42.430744],[19.2686017,42.4304392],[19.2685132,42.430259],[19.2682879,42.4297977],[19.2681698,42.4295364],[19.2680599,42.4293147],[19.2679487,42.4290904],[19.267341,42.4281387],[19.2660214,42.4260084],[19.2658873,42.4257787],[19.2630388,42.4212961],[19.2614596,42.4187791],[19.2611117,42.418243],[19.2602706,42.4169123],[19.2585282,42.4140989],[19.2578072,42.4129519],[19.2567772,42.4113043],[19.2562022,42.4104234],[19.2555413,42.4093461],[19.2550177,42.4084589],[19.2546401,42.4077427],[19.2542624,42.4069949],[19.2538504,42.4061077],[19.2531466,42.404612],[19.2525887,42.4034522],[19.2520394,42.402286],[19.2513356,42.4007712],[19.250091,42.3981978],[19.2490525,42.3959857],[19.2483315,42.3944708],[19.2476534,42.3930318],[19.2464003,42.3903758],[19.2455592,42.3886008],[19.2445292,42.386401],[19.2430615,42.3833008],[19.2418255,42.3806571],[19.2407612,42.3783555],[19.2402014,42.3771647],[19.2396626,42.3760286],[19.2388641,42.3744805],[19.2383654,42.3734144],[19.237225,42.370848],[19.236298,42.3688759],[19.235208,42.3666754],[19.234075,42.3642275],[19.2336459,42.363308],[19.2332339,42.3625406],[19.2328562,42.3618556],[19.2321267,42.3607014],[19.2314229,42.3597247],[19.2304358,42.3584625],[19.2290196,42.3567501],[19.2278952,42.3554118],[19.2269768,42.3542637],[19.2261872,42.353306],[19.225346,42.3522657],[19.2244877,42.3512128],[19.2234749,42.3499949],[19.2219472,42.3480855],[19.2209644,42.3469023],[19.2205485,42.3463907],[19.2203126,42.3461006],[19.2191147,42.34466],[19.2186644,42.3441033],[19.2158746,42.3406676],[19.2156348,42.3403723],[19.214286,42.338711],[19.2113529,42.3352927],[19.2100041,42.3331998],[19.2098229,42.3326405],[19.2089827,42.3277668],[19.2080061,42.3229262],[19.2069719,42.317382],[19.2065597,42.3157354],[19.2060275,42.3136996],[19.205431,42.3121478],[19.2045405,42.3106927],[19.2033839,42.3094851],[19.2016488,42.3082483],[19.1972668,42.3047125],[19.1955073,42.3039825],[19.1942198,42.3037445],[19.1924388,42.3037921],[19.1906793,42.3042682],[19.188791,42.3050617],[19.1851432,42.3065534],[19.1816456,42.3072675],[19.1797144,42.3073151],[19.177572,42.3070091],[19.1753692,42.3066532],[19.1733415,42.305744],[19.1719467,42.3050458],[19.1703917,42.3040348],[19.167438,42.301707],[19.1618975,42.2978847],[19.1551306,42.2932161],[19.1542481,42.2926126],[19.1531265,42.2918331],[19.1392531,42.2822575],[19.1379836,42.2814957],[19.137485,42.2812311],[19.1364054,42.28069],[19.1350612,42.2801241],[19.1343701,42.2798331],[19.1342478,42.2797816],[19.133838,42.2796091],[19.1322764,42.2791157],[19.1291728,42.2784821],[19.1280868,42.2782577],[19.1274708,42.2780214],[19.1265228,42.2775463],[19.1260061,42.2771992],[19.1254381,42.2766667],[19.1249403,42.2759897],[19.1244789,42.2749058],[19.1243228,42.2743975],[19.1240537,42.2737824],[19.1236517,42.2731865],[19.1232711,42.2727389],[19.1227004,42.2723089],[19.1222006,42.2720538],[19.1195252,42.2707942],[19.1169068,42.2695819],[19.1154427,42.2688901],[19.1130948,42.2678074],[19.1109618,42.2668455],[19.109595,42.2662522],[19.1091098,42.2660928],[19.1085326,42.2660128],[19.1080471,42.266009],[19.1075432,42.2660666],[19.1070113,42.2661847],[19.1065099,42.26632],[19.1053199,42.2666434],[19.1048213,42.266699],[19.1043535,42.266728],[19.1032861,42.2665986],[19.1028281,42.266454],[19.1023374,42.2662583],[19.1007264,42.2652506],[19.1001741,42.2650011],[19.0995516,42.2648301],[19.0977046,42.2644828],[19.0971826,42.2643101],[19.0966588,42.264058],[19.0962704,42.2638123],[19.0959417,42.2635085],[19.0956972,42.263246],[19.0954761,42.2629236],[19.0948877,42.2615273],[19.0946661,42.2609213],[19.0945376,42.2604104],[19.0945323,42.2598898],[19.0945834,42.2594162],[19.0947005,42.2588067],[19.0951082,42.257836],[19.0958885,42.2563523],[19.0967512,42.2546197],[19.0971797,42.2537033],[19.0972029,42.2535072],[19.0972607,42.2529794],[19.0971743,42.2524609],[19.0969883,42.2520569],[19.0968039,42.2517579],[19.0964659,42.2513975],[19.0961918,42.2511687],[19.0958356,42.2509226],[19.0946502,42.2503433],[19.0921784,42.2492071],[19.09155,42.2488425],[19.0909207,42.2483928],[19.0904567,42.2479173],[19.090082,42.2474952],[19.0899917,42.2473824],[19.0897942,42.2471354],[19.0897466,42.2470759],[19.0871336,42.2435945],[19.0869198,42.2433096],[19.0831293,42.2382168],[19.0820163,42.2367337],[19.0817147,42.2363381],[19.0810215,42.2353888],[19.0804127,42.234206],[19.0803183,42.2338417],[19.0802163,42.2334477],[19.0801367,42.2331406],[19.0801246,42.2322947],[19.0801125,42.2316986],[19.0805539,42.2297606],[19.08058,42.229646],[19.0807849,42.2287976],[19.080854,42.2281937],[19.0808671,42.227568],[19.0808395,42.2271358],[19.0807559,42.2266368],[19.080602,42.2260597],[19.0802944,42.2252847],[19.0798715,42.2245795],[19.0792911,42.2238063],[19.0787282,42.2232374],[19.0781175,42.222721],[19.0779356,42.2225842],[19.0777975,42.2224803],[19.0762391,42.2213502],[19.0756296,42.2208446],[19.0751095,42.2203394],[19.0747832,42.219966],[19.0744608,42.2195146],[19.0741961,42.2190664],[19.0740101,42.2186941],[19.0737995,42.2180934],[19.0736891,42.2176966],[19.0736193,42.2171367],[19.0735889,42.2166772],[19.0736269,42.2162345],[19.0737489,42.2155472],[19.0738007,42.2153581]]}}]}