{"type":"FeatureCollection","metadata":{"name":"Bernina Express ? St. Moritz to Tirano","source":"OpenStreetMap relation 89842 (Berninabahn)","sourceUrl":"https://www.openstreetmap.org/relation/89842","attribution":"? OpenStreetMap contributors","license":"ODbL 1.0","geometryVersion":"2026-08-11"},"features":[{"type":"Feature","properties":{"name":"Bernina Express","from":"St. Moritz","to":"Tirano","distanceKm":60.7},"geometry":{"type":"LineString","coordinates":[[9.8457044,46.4973958],[9.8472979,46.4983075],[9.8477995,46.4985318],[9.8482879,46.4986426],[9.8492796,46.4986341],[9.8495575,46.4987001],[9.8504946,46.4993294],[9.8508889,46.4995095],[9.8513429,46.4997874],[9.8528618,46.5003633],[9.853198,46.5005439],[9.8536318,46.5008777],[9.8567328,46.5038317],[9.8569486,46.5040652],[9.8571123,46.5042987],[9.8572246,46.5047113],[9.8572921,46.5048526],[9.8575459,46.5051],[9.858842,46.5060112],[9.8596122,46.5063507],[9.8608163,46.5070495],[9.8617134,46.507721],[9.8628804,46.5084132],[9.8638239,46.5087969],[9.8647838,46.5095145],[9.8650489,46.5096629],[9.8654728,46.5097961],[9.8662779,46.5099287],[9.8676574,46.5098106],[9.8682456,46.5098383],[9.8687753,46.5099451],[9.8692929,46.5101271],[9.8715103,46.5114313],[9.8717623,46.5115438],[9.8722399,46.5116613],[9.8734344,46.5117433],[9.8742047,46.5117428],[9.8765122,46.5112278],[9.8771551,46.5109875],[9.8773818,46.5108461],[9.8775607,46.5106847],[9.878455,46.5096331],[9.8787103,46.5092142],[9.8789375,46.5084645],[9.8791748,46.5081369],[9.8795299,46.5078655],[9.8802917,46.5074599],[9.8805763,46.5072685],[9.8808443,46.5070058],[9.8813657,46.5064052],[9.8822346,46.5057943],[9.8828918,46.5050352],[9.8835238,46.5045714],[9.8838278,46.5042875],[9.8840825,46.5039049],[9.884423,46.5029662],[9.8847571,46.5023814],[9.885196,46.5018444],[9.8860875,46.5008994],[9.886477,46.5004084],[9.8869543,46.4995972],[9.887389,46.498772],[9.887752,46.4982555],[9.8879772,46.498003],[9.8887249,46.4973609],[9.8894021,46.4969252],[9.890147,46.4963913],[9.8903426,46.4961714],[9.8904565,46.4959824],[9.8909466,46.4950144],[9.8913232,46.4945925],[9.8920952,46.4940218],[9.8935752,46.4931171],[9.8939062,46.4928593],[9.8949904,46.4917586],[9.8954997,46.491084],[9.8964945,46.4900646],[9.8970973,46.4896124],[9.8973991,46.4893198],[9.8975961,46.4889692],[9.8976906,46.4885048],[9.8976822,46.4883244],[9.8975745,46.4880714],[9.8970503,46.4873283],[9.8969934,46.4871792],[9.8969849,46.4870542],[9.8970244,46.486894],[9.8971227,46.4867383],[9.8976564,46.4862573],[9.8978806,46.4861268],[9.8982084,46.4860595],[9.8984897,46.4860824],[9.8988238,46.4862297],[9.8989966,46.4864328],[9.8995307,46.4877658],[9.8996535,46.487921],[9.8999105,46.4880705],[9.9001828,46.4881392],[9.9005152,46.4881425],[9.9014862,46.4880272],[9.9018894,46.4879254],[9.9021744,46.4877133],[9.9026178,46.4871464],[9.9030079,46.4868187],[9.9033065,46.4866493],[9.903623,46.4865193],[9.9040024,46.4864093],[9.9047054,46.4862753],[9.9052288,46.4860634],[9.9055778,46.4858136],[9.9065224,46.4849457],[9.9068625,46.4846909],[9.9074484,46.4843579],[9.9083204,46.4839984],[9.9086761,46.483886],[9.9100576,46.4836472],[9.9104797,46.4835333],[9.9108447,46.4833777],[9.9111329,46.4832044],[9.9119784,46.4825745],[9.9128519,46.4817468],[9.9131263,46.4815225],[9.9150317,46.4803817],[9.9153858,46.4801266],[9.9169617,46.4787556],[9.9187048,46.4769386],[9.9189855,46.4766849],[9.9211508,46.4750703],[9.922151,46.4741135],[9.9226509,46.4735494],[9.9243733,46.4711814],[9.9246024,46.4708055],[9.9247572,46.4703736],[9.9249286,46.4693256],[9.9248878,46.4684474],[9.9249495,46.4678822],[9.9250898,46.4673888],[9.9253406,46.4667294],[9.9255933,46.4662493],[9.9257813,46.4659834],[9.9264966,46.4651968],[9.9270992,46.4643907],[9.9275763,46.4638714],[9.9282101,46.4630069],[9.9291534,46.4621018],[9.929909,46.4609966],[9.9306379,46.4602001],[9.9309872,46.4596668],[9.931314,46.4592515],[9.9367172,46.4532731],[9.9375049,46.4522107],[9.9377398,46.4518352],[9.9380663,46.4511215],[9.9383149,46.4508686],[9.9386475,46.4507155],[9.9390147,46.4506533],[9.9409235,46.45068],[9.9416843,46.4506995],[9.9418865,46.4507309],[9.9420493,46.4507792],[9.9422882,46.4509414],[9.9423906,46.4511317],[9.9424823,46.451599],[9.9424956,46.4520188],[9.9424278,46.4529418],[9.9424607,46.4531674],[9.9426354,46.4534248],[9.9430231,46.4537129],[9.9432637,46.4539539],[9.9434124,46.4542054],[9.9434824,46.4544437],[9.9434445,46.455019],[9.9433112,46.4555932],[9.9430228,46.4562315],[9.9425518,46.4569155],[9.942507,46.4570411],[9.9425363,46.4572063],[9.9426864,46.4573713],[9.9430035,46.4574733],[9.9432391,46.4574621],[9.9434563,46.4573896],[9.9435982,46.4572705],[9.9437748,46.4568306],[9.9438961,46.4566705],[9.944404,46.4563419],[9.9445667,46.456194],[9.9446736,46.4560135],[9.944825,46.4556272],[9.9449897,46.4553987],[9.9451727,46.4552369],[9.9458338,46.4548136],[9.9463927,46.4541191],[9.9467128,46.4538532],[9.9470296,46.4537073],[9.9490755,46.4530825],[9.9493248,46.4529403],[9.9496953,46.4526514],[9.9499531,46.4525535],[9.9503183,46.4525267],[9.9511089,46.4526585],[9.9513658,46.4526631],[9.951865,46.4525745],[9.9522993,46.4523865],[9.9526597,46.4521239],[9.9537738,46.4508944],[9.9542339,46.4505136],[9.9561791,46.4492993],[9.956928,46.4489123],[9.957643,46.4487029],[9.9644935,46.4471675],[9.9649744,46.4470919],[9.9659408,46.4470161],[9.9665609,46.4468716],[9.9669244,46.4467085],[9.9671585,46.4465552],[9.9673764,46.4463545],[9.9677572,46.4458277],[9.9679727,46.4455843],[9.9686177,46.4452041],[9.9692022,46.4450308],[9.9709279,46.4448088],[9.9718274,46.4445695],[9.9722385,46.4443945],[9.9726595,46.4441502],[9.972925,46.443952],[9.9734542,46.4434685],[9.973684,46.4433177],[9.9757567,46.4425768],[9.9760293,46.4425342],[9.9763556,46.4425409],[9.9773618,46.4427943],[9.9778347,46.4428398],[9.9781919,46.4428303],[9.9792985,46.4426516],[9.9805075,46.4421527],[9.9809029,46.4420324],[9.9833726,46.4416884],[9.983886,46.4417047],[9.9849047,46.441914],[9.9852252,46.4419112],[9.9854658,46.4418479],[9.9856035,46.4417747],[9.9857722,46.4416194],[9.9861304,46.4407821],[9.986191,46.4406953],[9.9864083,46.4405191],[9.9866315,46.4404151],[9.9875361,46.4401152],[9.9881885,46.4398076],[9.9893778,46.4390887],[9.9908222,46.4381343],[9.9911145,46.4377953],[9.9912504,46.4375623],[9.9913037,46.4373437],[9.9913153,46.4366527],[9.9914103,46.4363471],[9.99183,46.4356778],[9.9922609,46.4351457],[9.9926285,46.4348457],[9.9937235,46.4343493],[9.9947391,46.433741],[9.9949288,46.4335659],[9.9952568,46.4331795],[9.9957579,46.4327741],[9.9959872,46.4324759],[9.9964484,46.4311404],[9.9964881,46.4309377],[9.9964778,46.4307042],[9.9956806,46.427855],[9.9955773,46.427674],[9.9947339,46.4265684],[9.9946073,46.4263569],[9.9944997,46.4260573],[9.9944673,46.4257214],[9.9945081,46.4251964],[9.9946133,46.4249711],[9.9948232,46.4247384],[9.9950771,46.4245677],[9.9957985,46.424191],[9.9969275,46.4237812],[9.9972984,46.4237153],[9.9975485,46.4237259],[9.9978756,46.4238069],[9.998909,46.4244211],[9.9992111,46.4245211],[9.9995282,46.4245575],[9.9997516,46.4245439],[10.000078,46.42447],[10.0002887,46.4243746],[10.0005943,46.4241246],[10.0015053,46.4231046],[10.0017249,46.4227728],[10.0024848,46.421437],[10.0025611,46.4212376],[10.0025703,46.4210653],[10.0025257,46.4209135],[10.0023263,46.4205486],[10.002302,46.4203345],[10.0023473,46.4201484],[10.002528,46.4198892],[10.0029086,46.4196622],[10.0032677,46.4195797],[10.0056025,46.4194847],[10.0060126,46.4194326],[10.0064463,46.4193336],[10.0070334,46.4191233],[10.0074558,46.418906],[10.0087582,46.4178344],[10.0091015,46.4176332],[10.0095076,46.4175204],[10.0105269,46.4174465],[10.0109454,46.4173036],[10.011197,46.4171315],[10.011414,46.4168238],[10.0114654,46.4165665],[10.0114771,46.4157841],[10.0115617,46.4155164],[10.0117901,46.4152236],[10.0121777,46.4149737],[10.0125458,46.4148504],[10.0133579,46.4147062],[10.0135505,46.4146224],[10.01406,46.4143049],[10.0142451,46.4142392],[10.0144677,46.4142101],[10.0158608,46.4142697],[10.0161803,46.4143727],[10.0166292,46.4146144],[10.0168812,46.4147087],[10.0179303,46.4149239],[10.0181463,46.414938],[10.0183828,46.4149075],[10.0186091,46.414816],[10.0187384,46.4147203],[10.0188208,46.4146199],[10.0188854,46.4144237],[10.0188873,46.4133833],[10.0188606,46.4130609],[10.0187237,46.4126939],[10.0183312,46.4121554],[10.0182055,46.4119294],[10.018109,46.41166],[10.0180622,46.4113393],[10.0180798,46.4110373],[10.0181407,46.4107958],[10.018257,46.4105257],[10.0184323,46.4102566],[10.0209403,46.4073354],[10.0214932,46.4068396],[10.0217204,46.4066837],[10.0224505,46.4062851],[10.0235642,46.4053437],[10.0237651,46.4052236],[10.0240901,46.4051051],[10.0252195,46.4048665],[10.0255114,46.4047663],[10.0257398,46.4046455],[10.0264844,46.4039619],[10.0278036,46.4026621],[10.0285869,46.4021668],[10.0298488,46.401563],[10.0302315,46.4013149],[10.0304382,46.4010477],[10.0305175,46.4007647],[10.03048,46.4004884],[10.0302637,46.4000753],[10.0302176,46.3999148],[10.0302032,46.3997537],[10.0302478,46.3996015],[10.030336,46.3994597],[10.0307081,46.3991951],[10.0321683,46.398443],[10.0329013,46.3979884],[10.0331046,46.397751],[10.0333523,46.3970572],[10.0339083,46.3964773],[10.0340339,46.3961126],[10.0340619,46.3955795],[10.0339441,46.3952151],[10.033846,46.3950595],[10.0333954,46.3945585],[10.0332965,46.3943225],[10.0332879,46.3941655],[10.0334348,46.3935804],[10.0333921,46.3932991],[10.0329842,46.3925152],[10.0328764,46.3920536],[10.0327018,46.3915199],[10.0326022,46.3913476],[10.0321468,46.3907712],[10.0318333,46.3900506],[10.0317746,46.3898085],[10.0318175,46.3888888],[10.0314799,46.3857377],[10.031531,46.3855583],[10.0316605,46.385375],[10.0320774,46.3850758],[10.0322381,46.384902],[10.0323188,46.3847353],[10.0323451,46.3845635],[10.0323095,46.3843622],[10.0317301,46.3833843],[10.0314929,46.3828799],[10.0313811,46.3827533],[10.0303983,46.3819324],[10.0302012,46.3817178],[10.0300808,46.3813636],[10.0299193,46.3802748],[10.0297907,46.3800128],[10.0296502,46.3798614],[10.0293659,46.3796784],[10.0284331,46.3792901],[10.0281697,46.3790577],[10.0280823,46.378868],[10.0280699,46.3787547],[10.0281823,46.3780748],[10.0285545,46.3773445],[10.0286596,46.3768165],[10.0287897,46.3765867],[10.0290698,46.376368],[10.0302243,46.3756554],[10.0318882,46.3740569],[10.0321171,46.373954],[10.0326212,46.3738485],[10.0328061,46.3737416],[10.0329245,46.3735459],[10.0329031,46.3733711],[10.0327486,46.3731977],[10.0324645,46.3730936],[10.0321519,46.3731087],[10.0318675,46.3732478],[10.0311108,46.3738386],[10.0307022,46.3742389],[10.0303101,46.3747633],[10.0297507,46.375295],[10.0295117,46.3754746],[10.0289271,46.3757869],[10.0279308,46.376097],[10.0276259,46.3762314],[10.0275473,46.376303],[10.0274636,46.3764904],[10.0275191,46.3768848],[10.0275036,46.3769792],[10.0274582,46.3770776],[10.0273158,46.3772257],[10.0270735,46.3773147],[10.0269124,46.3773291],[10.0265758,46.377265],[10.0264291,46.377193],[10.0262841,46.3770175],[10.0262675,46.3769189],[10.026333,46.3767239],[10.026609,46.3765069],[10.0272254,46.3762001],[10.0276086,46.3758561],[10.0282175,46.3755567],[10.0289023,46.3750176],[10.0291457,46.3747863],[10.0294124,46.3743677],[10.0298578,46.3730874],[10.0299667,46.3728688],[10.030347,46.3722043],[10.0306413,46.3719655],[10.0311022,46.3718384],[10.0313633,46.3718377],[10.0318273,46.3719104],[10.0334156,46.3722502],[10.0336853,46.3722735],[10.0339333,46.3722557],[10.0343211,46.3721304],[10.0345204,46.3719962],[10.0346338,46.3718429],[10.0347404,46.3714887],[10.0348493,46.3713123],[10.0349667,46.3712356],[10.0352472,46.3711605],[10.0355094,46.3711804],[10.0356359,46.3712236],[10.0358317,46.3713491],[10.0358872,46.3714281],[10.035924,46.3715788],[10.0359095,46.3716742],[10.035756,46.3719795],[10.0357308,46.3721316],[10.0357631,46.3722847],[10.0359317,46.3725331],[10.0363149,46.3729261],[10.0371772,46.3735794],[10.0373439,46.3738002],[10.0375406,46.3741989],[10.0377028,46.3743959],[10.0381884,46.3747549],[10.0388142,46.375143],[10.0389663,46.3753014],[10.0390585,46.3754677],[10.0391768,46.3759977],[10.0398579,46.3778376],[10.0398741,46.3779965],[10.0398227,46.3781536],[10.0396835,46.3782977],[10.039155,46.3785323],[10.0389741,46.3786863],[10.0389248,46.378793],[10.0389154,46.3789858],[10.0389603,46.3790857],[10.0391263,46.379225],[10.0393923,46.3793122],[10.0397069,46.3793205],[10.0399695,46.3792478],[10.0401902,46.3790613],[10.0402556,46.3789122],[10.0402555,46.3784096],[10.0404129,46.3779312],[10.0405701,46.3768928],[10.0405753,46.3766603],[10.0405107,46.376357],[10.0402972,46.3757661],[10.0403343,46.3749494],[10.0403086,46.3747373],[10.0401709,46.3744825],[10.039453,46.373619],[10.0392559,46.3732794],[10.039034,46.3726191],[10.0388186,46.3721772],[10.0388124,46.3720252],[10.0389209,46.371833],[10.0390699,46.3717304],[10.039291,46.3716588],[10.0401549,46.371571],[10.0405431,46.3715749],[10.0407443,46.371631],[10.0408713,46.3717023],[10.0409999,46.3718246],[10.041374,46.3723154],[10.0417936,46.3734082],[10.0418938,46.3740245],[10.0418877,46.3743179],[10.0417716,46.3747189],[10.0418289,46.3749057],[10.0419283,46.3750084],[10.0420954,46.375099],[10.0424348,46.3751515],[10.0427925,46.3750681],[10.042941,46.3749704],[10.0430265,46.374844],[10.043062,46.3746391],[10.0430385,46.3739113],[10.0433281,46.3729206],[10.0433818,46.3722587],[10.0435737,46.3718068],[10.0436017,46.3715289],[10.043537,46.3708811],[10.0434551,46.3705809],[10.0433537,46.3703221],[10.0430016,46.3696897],[10.0425736,46.3683201],[10.0425681,46.3681592],[10.0426244,46.367965],[10.0430402,46.3673172],[10.0431116,46.3670023],[10.0430385,46.3666854],[10.0427231,46.3660153],[10.042692,46.3658325],[10.0427361,46.3656361],[10.0429514,46.3653651],[10.0452851,46.3633103],[10.0456958,46.3630042],[10.0475541,46.3613571],[10.0479287,46.3610817],[10.0488623,46.3605359],[10.0489606,46.3604126],[10.048995,46.3602649],[10.048974,46.360141],[10.0489122,46.3600421],[10.0483245,46.3594234],[10.0479774,46.3592586],[10.0472685,46.3591096],[10.0470675,46.359022],[10.0469565,46.3589437],[10.0465865,46.3585076],[10.0464515,46.3582665],[10.0464545,46.3580438],[10.0466618,46.3573611],[10.0466245,46.3568084],[10.0467529,46.3564112],[10.0467638,46.3562804],[10.0466895,46.3560992],[10.0462731,46.3557063],[10.0461686,46.3554938],[10.0461426,46.3552548],[10.046214,46.3550219],[10.0464395,46.3546707],[10.0465826,46.3541587],[10.0467934,46.3537696],[10.0468459,46.3535694],[10.0469029,46.3528867],[10.0467748,46.3523963],[10.0467725,46.3522419],[10.0471551,46.3502384],[10.0471625,46.3500603],[10.0470729,46.3496437],[10.0470738,46.3494548],[10.0472841,46.3489232],[10.0473095,46.348717],[10.0472287,46.3484685],[10.0465856,46.3473052],[10.0465882,46.3471085],[10.0467359,46.3467201],[10.0467658,46.3465022],[10.0467257,46.3462329],[10.0466096,46.3459598],[10.0464025,46.3457211],[10.0460268,46.3453804],[10.0453422,46.3449613],[10.0452424,46.3448539],[10.0450241,46.3445013],[10.0446967,46.3441698],[10.0446026,46.3440232],[10.0445891,46.3438359],[10.0446488,46.343712],[10.0452129,46.3431656],[10.0452565,46.3429955],[10.0452206,46.3428567],[10.0451364,46.342746],[10.0450025,46.3426637],[10.0442847,46.3424457],[10.0440785,46.342305],[10.044015,46.3422129],[10.0439887,46.3420469],[10.0440107,46.3419596],[10.0441101,46.3418154],[10.0443327,46.3416812],[10.0445933,46.3416262],[10.0448843,46.3416546],[10.0451419,46.3417779],[10.0452768,46.3419345],[10.0460643,46.3434515],[10.0460991,46.3436254],[10.0460395,46.3440097],[10.0460553,46.3441051],[10.0461303,46.3442287],[10.0463224,46.3443713],[10.0469237,46.3446745],[10.0478703,46.3450586],[10.0483531,46.3454658],[10.0494822,46.346175],[10.0497285,46.3464225],[10.0500724,46.3469609],[10.051545,46.3498697],[10.0515873,46.350187],[10.0515353,46.3504708],[10.0513988,46.3507395],[10.0510939,46.3511343],[10.0510266,46.3512992],[10.051031,46.3514274],[10.0510738,46.351525],[10.0511341,46.3516057],[10.0512792,46.3517056],[10.0514873,46.3517778],[10.0517136,46.3517958],[10.0519512,46.3517501],[10.0521691,46.3516315],[10.0529559,46.350503],[10.0530701,46.3502977],[10.0530921,46.350103],[10.0530004,46.3498975],[10.0525582,46.3495062],[10.052464,46.3492955],[10.0521503,46.3481706],[10.0521293,46.3475968],[10.0520122,46.3463514],[10.0519704,46.3461317],[10.0518826,46.3459252],[10.0517025,46.3456658],[10.0508982,46.3447339],[10.0506828,46.3445736],[10.0500485,46.3442993],[10.0499222,46.3441823],[10.0498785,46.3440946],[10.0498609,46.3439608],[10.0498964,46.3438318],[10.0502902,46.3434558],[10.0503834,46.3432841],[10.0503988,46.3431431],[10.0503437,46.3427608],[10.0503494,46.3423325],[10.0503048,46.3422007],[10.0501223,46.3418972],[10.0500054,46.3413785],[10.0498406,46.340871],[10.0497431,46.3406997],[10.0496597,46.3406088],[10.0495019,46.3405259],[10.0489192,46.340362],[10.0486849,46.3401642],[10.0486513,46.3399949],[10.0487637,46.3397478],[10.0489251,46.3396266],[10.0491509,46.3395572],[10.0494101,46.339551],[10.0496938,46.3396318],[10.0502063,46.3400271],[10.050422,46.3402317],[10.0505249,46.3404067],[10.0506294,46.3409093],[10.0511143,46.3417873],[10.0514716,46.3423833],[10.052013,46.3430197],[10.052052,46.3431655],[10.052044,46.3432668],[10.0519075,46.3436573],[10.0519549,46.343846],[10.0520857,46.3439764],[10.0526052,46.3442673],[10.0538143,46.3451869],[10.0539424,46.3453868],[10.0540213,46.3459145],[10.0540998,46.346137],[10.0542347,46.3463766],[10.0545172,46.3466943],[10.0557745,46.3476606],[10.0560652,46.3479455],[10.0562318,46.3482351],[10.0562765,46.348393],[10.0563207,46.3488153],[10.0564331,46.3490389],[10.0567048,46.3492378],[10.0577346,46.349732],[10.0578838,46.3498567],[10.0580946,46.3501778],[10.0583238,46.3503159],[10.0584875,46.3503612],[10.0587396,46.3503579],[10.0589712,46.3502707],[10.0591098,46.3501276],[10.0591656,46.3500107],[10.059134,46.349825],[10.0589528,46.3496437],[10.0587391,46.3495667],[10.0583386,46.3495162],[10.0581641,46.3494585],[10.0577532,46.3491744],[10.057116,46.348928],[10.0569284,46.3487601],[10.056884,46.3486253],[10.0568948,46.3484933],[10.0571408,46.3480547],[10.0571426,46.3477989],[10.0570627,46.3476574],[10.0565434,46.3470889],[10.0563551,46.3468222],[10.0562624,46.3465711],[10.0561705,46.345978],[10.05606,46.3456614],[10.0552141,46.3439718],[10.0547929,46.3434869],[10.054695,46.3432418],[10.0546998,46.3429675],[10.0548307,46.3426459],[10.0548688,46.3424568],[10.0548233,46.342267],[10.0546706,46.3419288],[10.0546421,46.3417693],[10.0546646,46.3415977],[10.0548387,46.3412367],[10.0548905,46.3410432],[10.0548828,46.340862],[10.0547584,46.3401932],[10.0548595,46.3395861],[10.0547933,46.3393116],[10.05451,46.3387673],[10.0544846,46.3385207],[10.0545405,46.3383886],[10.0546594,46.3382517],[10.0557119,46.3374772],[10.0558387,46.3373527],[10.0559692,46.3371538],[10.0560305,46.3368609],[10.0559983,46.3350926],[10.0558977,46.3347932],[10.055402,46.3339892],[10.0552386,46.3337837],[10.0549372,46.3335911],[10.0541849,46.3333273],[10.054032,46.3332303],[10.053906,46.3330941],[10.0532843,46.3317831],[10.0532106,46.3314473],[10.053287,46.331057],[10.0538477,46.3300032],[10.0540965,46.3294404],[10.0544044,46.328912],[10.0544963,46.328651],[10.0544705,46.3283266],[10.0541394,46.3277356],[10.0540889,46.3274553],[10.0541351,46.326419],[10.0544843,46.3232582],[10.054563,46.3228843],[10.0546798,46.3226468],[10.0548811,46.3223717],[10.0555087,46.3217902],[10.0557865,46.321409],[10.0562952,46.3199413],[10.0567508,46.318771],[10.0568851,46.318541],[10.0592498,46.3157916],[10.059891,46.3146841],[10.0600252,46.3144996],[10.060221,46.3143479],[10.0610296,46.3139068],[10.0616704,46.3133487],[10.0618958,46.3130809],[10.0623864,46.3122757],[10.0626181,46.311836],[10.0647734,46.3084858],[10.0655351,46.3073656],[10.0671214,46.3053167],[10.0673735,46.3051019],[10.0675053,46.3050287],[10.0700426,46.3041916],[10.0705709,46.3039691],[10.0708037,46.3038426],[10.0709499,46.3037168],[10.0711085,46.3035506],[10.0712701,46.3031707],[10.0717312,46.3013377],[10.0718715,46.3010852],[10.0775815,46.295078],[10.0776854,46.2948641],[10.0777513,46.2946315],[10.0782377,46.2901953],[10.0783896,46.289443],[10.0783641,46.2888783],[10.0783944,46.2886929],[10.078558,46.288486],[10.0791775,46.2880933],[10.0794344,46.2878831],[10.0799668,46.2872094],[10.0804933,46.2867334],[10.0807671,46.2863749],[10.0812798,46.2856452],[10.0813884,46.2854257],[10.0814369,46.2851427],[10.0813897,46.2845675],[10.0815,46.2843103],[10.0818835,46.2839225],[10.0822256,46.2834203],[10.0824219,46.2832225],[10.0829841,46.2827435],[10.0836343,46.2824072],[10.0841256,46.2819404],[10.0843276,46.2817016],[10.084858,46.2808595],[10.0857472,46.2799816],[10.0867235,46.2792653],[10.0876232,46.2789265],[10.0879538,46.2787068],[10.0881141,46.278514],[10.0884516,46.2779237],[10.0890501,46.2774086],[10.0894631,46.276773],[10.0896486,46.2765751],[10.0900067,46.2763603],[10.0903235,46.2762605],[10.0913908,46.2761677],[10.0916242,46.2761197],[10.0919379,46.2759972],[10.0923156,46.2757677],[10.0924883,46.2756185],[10.0926206,46.2754423],[10.0928735,46.2749682],[10.0930216,46.2748133],[10.0932227,46.2746779],[10.0936711,46.2745031],[10.0961945,46.2736776],[10.0968228,46.2734151],[10.0977494,46.272949],[10.0979859,46.2728773],[10.0982538,46.2728432],[10.0985747,46.2728656],[10.1007625,46.2733577],[10.1010981,46.2733651],[10.1026799,46.2728146],[10.1031982,46.2725983],[10.103933,46.2724194],[10.1041497,46.272287],[10.1045057,46.2718765],[10.1047513,46.2717398],[10.1060596,46.2714591],[10.1076187,46.2713542],[10.1087137,46.2711402],[10.1090442,46.2710426],[10.1092384,46.2709396],[10.1099214,46.2704569],[10.1105149,46.2701626],[10.1110267,46.2698627],[10.1126762,46.2692672],[10.1129457,46.2690951],[10.1134471,46.2686647],[10.1141107,46.268239],[10.1146889,46.2679336],[10.1151989,46.2675244],[10.1153541,46.2673452],[10.1155912,46.2669183],[10.1157203,46.266752],[10.1163247,46.2662014],[10.1167726,46.2657434],[10.1171454,46.2652842],[10.1173138,46.2648081],[10.1174487,46.2646207],[10.1176673,46.2644492],[10.1182086,46.2641505],[10.1186765,46.2636243],[10.1188496,46.2635349],[10.1196169,46.2632958],[10.1199275,46.2630995],[10.1200709,46.262941],[10.1204929,46.2621897],[10.1207137,46.2619878],[10.1209394,46.2618863],[10.1211284,46.2618436],[10.1218557,46.2618013],[10.1225327,46.2615616],[10.1230744,46.261442],[10.1235439,46.2614044],[10.1257735,46.2613473],[10.1259902,46.2612998],[10.1262096,46.2611724],[10.1263134,46.2610273],[10.1263374,46.260853],[10.1262851,46.260715],[10.1261313,46.2605688],[10.125939,46.2604855],[10.1253355,46.2603557],[10.1247162,46.2600894],[10.1238097,46.2599492],[10.123651,46.2598598],[10.1235607,46.2597612],[10.123514,46.2596531],[10.1235253,46.2595029],[10.1236009,46.2593773],[10.1237088,46.2592904],[10.1240116,46.2591933],[10.1257832,46.2592818],[10.1265207,46.2592423],[10.1268049,46.2591851],[10.1269779,46.2590895],[10.1271076,46.2589577],[10.1272431,46.2587628],[10.1273864,46.2584741],[10.1274922,46.2583535],[10.1281069,46.2580337],[10.128299,46.257816],[10.1286953,46.2569229],[10.1286891,46.2566385],[10.1284646,46.2561554],[10.1284329,46.255913],[10.1286187,46.2549926],[10.1287462,46.2546696],[10.1289579,46.2542929],[10.1289584,46.2540885],[10.1288409,46.2539089],[10.128601,46.2537628],[10.1282992,46.2536827],[10.1280371,46.2536749],[10.1277896,46.253717],[10.1275213,46.2538322],[10.1273334,46.253993],[10.1272374,46.2541658],[10.1272389,46.2543532],[10.1273378,46.2545112],[10.1274922,46.254621],[10.1277025,46.2546905],[10.1279508,46.2547034],[10.1281839,46.2546521],[10.1283717,46.2545456],[10.1285016,46.2543713],[10.1285212,46.2542219],[10.1284856,46.2541084],[10.1284085,46.2540007],[10.1280397,46.2536514],[10.1279992,46.2535281],[10.1280157,46.2533742],[10.1281756,46.2531724],[10.1289264,46.2527258],[10.1291185,46.2525385],[10.1291637,46.2523742],[10.1292295,46.2513611],[10.1296361,46.2500842],[10.1300424,46.2495356],[10.1300809,46.2493936],[10.1301139,46.2489423],[10.1301732,46.2487564],[10.1305804,46.2478452],[10.1311323,46.2469395],[10.1312807,46.2467193],[10.1316477,46.2463551],[10.1317729,46.246143],[10.1318356,46.2452232],[10.1315976,46.2443579],[10.1315784,46.2441488],[10.1316317,46.2439602],[10.1320244,46.2430941],[10.1321978,46.2428947],[10.1328003,46.2425814],[10.1329984,46.2424345],[10.1350573,46.2406525],[10.1365865,46.2391902],[10.1376506,46.2384715],[10.1377598,46.2382909],[10.1377449,46.2378474],[10.1378521,46.237639],[10.1382158,46.2373058],[10.1398202,46.2359974],[10.1400636,46.2357554],[10.1401077,46.2356546],[10.1401091,46.2355311],[10.1400061,46.2351197],[10.1401109,46.2349058],[10.1406257,46.23441],[10.1420059,46.2332835],[10.1430164,46.2323109],[10.1431036,46.2321701],[10.1432517,46.231641],[10.1433345,46.2314937],[10.1434668,46.2313726],[10.1437915,46.2311813],[10.1439356,46.2310574],[10.1457566,46.2290209],[10.1458323,46.2288508],[10.1458587,46.2286992],[10.1458162,46.2282846],[10.1458375,46.2281053],[10.1460621,46.227611],[10.1460503,46.2270842],[10.1460767,46.2269256],[10.1466562,46.2259642],[10.1471735,46.2256417],[10.1475329,46.2252719],[10.1486833,46.2245475],[10.1488415,46.2244702],[10.1493006,46.2243341],[10.1495336,46.2242169],[10.1498755,46.2237165],[10.1501022,46.2235653],[10.1512385,46.2230386],[10.1516675,46.2229383],[10.1522991,46.2228468],[10.1525613,46.2227168],[10.1553779,46.2185761],[10.1556079,46.2182646],[10.1558653,46.218099],[10.1587302,46.2167898],[10.1593845,46.2165538],[10.1598056,46.2164733],[10.1619783,46.2163028],[10.166418,46.2157233]]}}]}