{"type":"FeatureCollection","metadata":{"route":"Cinque Terre: La Spezia Centrale to Levanto","source":"OpenStreetMap contributors","sourceUrl":"https://www.openstreetmap.org/","license":"ODbL 1.0","geometryVersion":"2026-08-11","osmWayIds":[27870914,27870916,27870917,27870929,27870933,137117971,137117978,144773626,205514198,205514202,205514210,205514237,205514238,205514247,205514278,205514280,205514284,205514287,205514290,205514292,205514295,205514299,205514301,205514303,205514304,205514314,205514320,205514322,205514328,205514335,205514337,205514344,283531010,283531011,352655248,379868251,379868252,498960321,653501346,798942608,985124672,1000356613,1036674402,1037834881,1037834883,1037834885,1037834887,1037834889,1037834890,1051529211,1051529212,1209823315,1292892162,1292892165,1429536246,1429536247],"coordinateCount":307,"approximateLengthKm":21.41,"direction":"La Spezia Centrale to Levanto"},"features":[{"type":"Feature","properties":{"name":"Cinque Terre","source":"OpenStreetMap contributors"},"geometry":{"type":"LineString","coordinates":[[9.8135573,44.1115265],[9.8124445,44.1118634],[9.8121992,44.1119309],[9.8119003,44.1120154],[9.8113991,44.1121569],[9.8111705,44.112214],[9.810905,44.1122612],[9.8106448,44.1122958],[9.8103669,44.1123209],[9.810028,44.1123385],[9.8095609,44.1123547],[9.809251,44.112348],[9.808994,44.1123237],[9.8087324,44.1122814],[9.8084749,44.1122284],[9.8081703,44.1121537],[9.8078394,44.1120639],[9.8074611,44.1119405],[9.8070032,44.1117609],[9.8063875,44.1114766],[9.8060542,44.1113021],[9.8057214,44.1110957],[9.8054934,44.1109088],[9.8050349,44.110493],[9.8047041,44.1101346],[9.8046686,44.1100935],[9.8044429,44.1097871],[9.8042667,44.1094935],[9.8041629,44.1092928],[9.8040405,44.1089992],[9.8038253,44.1083132],[9.803762,44.1080952],[9.8036226,44.1076152],[9.8035946,44.1075263],[9.8031171,44.1058951],[9.8030229,44.1056206],[9.8028234,44.1049731],[9.8026645,44.1044739],[9.8024585,44.1040376],[9.8021976,44.1036435],[9.8019702,44.1033403],[9.801599,44.1030021],[9.8013424,44.1028196],[9.8012198,44.102744],[9.8010183,44.1026422],[9.8006545,44.1024684],[9.8002441,44.1022979],[9.799803,44.1021471],[9.7993475,44.1020116],[9.7985703,44.1018144],[9.7607552,44.0923921],[9.7574281,44.091563],[9.7570223,44.0914695],[9.7566399,44.0913964],[9.7562666,44.0913406],[9.7556516,44.0912555],[9.7552155,44.0911864],[9.7547972,44.0910989],[9.7544243,44.0910077],[9.7537047,44.090829],[9.7534315,44.090771],[9.7531766,44.0907283],[9.7528729,44.0906878],[9.7525773,44.0906692],[9.752253,44.0906662],[9.7519241,44.0906804],[9.7516043,44.0907052],[9.7512762,44.0907485],[9.750988,44.090795],[9.7507055,44.0908621],[9.7503878,44.0909447],[9.7500956,44.091033],[9.7497253,44.0911689],[9.7492789,44.0913614],[9.7449467,44.093342],[9.742463,44.0944775],[9.7419465,44.0947555],[9.7415078,44.0950569],[9.7411527,44.0953664],[9.740862,44.0956759],[9.7398394,44.0969366],[9.7393688,44.0975167],[9.7382133,44.0988466],[9.7379371,44.0991393],[9.7377388,44.0993322],[9.7374897,44.0995528],[9.737211,44.0997827],[9.7369733,44.0999708],[9.7365938,44.1002584],[9.736264,44.1004748],[9.7358609,44.100728],[9.7349112,44.1012693],[9.7340115,44.1017552],[9.7309621,44.1034103],[9.730669,44.10358],[9.730422,44.103733],[9.7301965,44.1038888],[9.7299218,44.104089],[9.7296227,44.1043373],[9.7293639,44.1046234],[9.7291474,44.1048933],[9.7289609,44.1051743],[9.7288882,44.1052971],[9.7287425,44.105597],[9.728591,44.1059707],[9.7283408,44.1066953],[9.7282512,44.1069593],[9.7279103,44.1079813],[9.7278511,44.1082238],[9.7278085,44.1084448],[9.7277786,44.1086772],[9.7277735,44.1088924],[9.7277896,44.1091286],[9.7278347,44.109438],[9.7279604,44.1102402],[9.7279924,44.1105742],[9.7280067,44.1108499],[9.7280048,44.1110575],[9.727997,44.1113469],[9.7279741,44.1115874],[9.7279443,44.1117746],[9.7278947,44.11202],[9.7278274,44.1123155],[9.7277563,44.112548],[9.7276617,44.1128008],[9.7275644,44.1130105],[9.7274626,44.1132198],[9.7273274,44.1134594],[9.7271812,44.1136936],[9.7270304,44.1138918],[9.7268512,44.1140917],[9.7266496,44.114311],[9.7264317,44.1145217],[9.7262053,44.1147168],[9.7259565,44.1149128],[9.7256964,44.115096],[9.7254623,44.1152511],[9.7251926,44.1154168],[9.7248971,44.1155859],[9.7245603,44.1157578],[9.7242483,44.1158931],[9.7238496,44.1160525],[9.7233881,44.116216],[9.7222258,44.1166028],[9.7180551,44.11796],[9.7176565,44.1180845],[9.7172098,44.1182241],[9.7170139,44.1182756],[9.7164656,44.1184138],[9.7159239,44.1185359],[9.7155147,44.1186234],[9.7143757,44.1188919],[9.71411,44.1189545],[9.7135572,44.1191],[9.7130777,44.1192317],[9.7123581,44.1194387],[9.7116509,44.1196421],[9.7113134,44.1197472],[9.7110038,44.1198523],[9.7106963,44.1199636],[9.7103734,44.1200888],[9.7100396,44.12023],[9.7097429,44.1203629],[9.7094009,44.1205293],[9.7090859,44.1206957],[9.7087734,44.1208749],[9.7084183,44.1210851],[9.7081005,44.1212988],[9.7078096,44.1215125],[9.7075181,44.1217654],[9.7072482,44.1220182],[9.7069407,44.1223321],[9.7066103,44.1227093],[9.7062461,44.123169],[9.7045591,44.1255575],[9.7043082,44.1258488],[9.7040198,44.1261334],[9.7037015,44.126423],[9.7033729,44.1266988],[9.7029723,44.1269963],[9.7025575,44.127259],[9.70211,44.1274982],[9.7016262,44.1277264],[9.7011266,44.1279336],[9.7007921,44.1280609],[9.7003755,44.1282071],[9.6999241,44.1283526],[9.6992802,44.1285312],[9.6986542,44.1286797],[9.6979998,44.1288166],[9.69383,44.1296323],[9.6931599,44.1297844],[9.6925043,44.1300009],[9.6911535,44.1305176],[9.6907002,44.1307099],[9.6903756,44.130863],[9.6898583,44.131146],[9.6895953,44.1313052],[9.6890961,44.1316369],[9.6885617,44.1320119],[9.6859796,44.1339535],[9.6857163,44.1341483],[9.6854391,44.1343457],[9.6851416,44.1345481],[9.6848487,44.1347364],[9.6846122,44.1348783],[9.6845418,44.1349205],[9.6844858,44.1349535],[9.6844096,44.1349984],[9.6827022,44.1359493],[9.6820685,44.1362972],[9.6819576,44.1363576],[9.6732142,44.1409385],[9.6726527,44.1412218],[9.672087,44.1414876],[9.671515,44.1417367],[9.6709593,44.1419619],[9.6703951,44.142166],[9.6698146,44.1423643],[9.6692059,44.1425491],[9.6686053,44.1427281],[9.6571818,44.1458258],[9.6567428,44.1459391],[9.6566841,44.1459567],[9.656407,44.146023],[9.6561342,44.146082],[9.6558763,44.1461293],[9.6556111,44.1461715],[9.6553414,44.1462061],[9.6552095,44.146219],[9.65509,44.1462284],[9.6547681,44.146247],[9.6545834,44.1462533],[9.6543741,44.1462542],[9.6540834,44.1462551],[9.653809,44.1462528],[9.6535292,44.1462441],[9.6532494,44.1462303],[9.6529219,44.146208],[9.6513914,44.1460721],[9.6512718,44.1460619],[9.6510149,44.1460386],[9.6495851,44.1458973],[9.6492736,44.1458651],[9.6491805,44.1458572],[9.6488614,44.1458326],[9.6485553,44.1458142],[9.6482951,44.1458066],[9.6481652,44.1458064],[9.6478532,44.1458067],[9.6475166,44.1458142],[9.6472805,44.1458238],[9.6470488,44.1458388],[9.6468197,44.1458598],[9.6465843,44.1458872],[9.6463004,44.1459263],[9.6461504,44.145948],[9.6458758,44.1459922],[9.6456986,44.1460223],[9.6454552,44.1460696],[9.6450887,44.1461506],[9.6447547,44.1462374],[9.6445782,44.1462906],[9.644165,44.1464222],[9.6438073,44.1465517],[9.6434978,44.1466757],[9.6431823,44.1468202],[9.6428871,44.14697],[9.6425683,44.1471462],[9.6422648,44.1473186],[9.6419347,44.1475261],[9.6416003,44.1477494],[9.6414937,44.14782],[9.6411564,44.148045],[9.6407604,44.1483318],[9.6340802,44.1536806],[9.6334281,44.1542135],[9.6328229,44.1547431],[9.6323324,44.1552101],[9.6318515,44.1557016],[9.6314329,44.1561782],[9.631094,44.1566338],[9.6306623,44.1573424],[9.6259706,44.166379],[9.6254951,44.1671913],[9.6249861,44.1679197],[9.6244048,44.1686624],[9.623789,44.169345],[9.6230065,44.1700981],[9.6221787,44.1707633],[9.6212751,44.1714242],[9.6208518,44.1717018],[9.6204403,44.1719716],[9.6195299,44.1725286],[9.6193583,44.1726258],[9.6191211,44.1727592],[9.6188309,44.172916],[9.6185107,44.1730801],[9.6182136,44.1732209],[9.6179776,44.1733275],[9.6177529,44.1734245],[9.6173424,44.1735927],[9.6168346,44.1737983],[9.6161027,44.1740934],[9.6142629,44.1748217],[9.6134509,44.1751476],[9.612572,44.1755025]]}}]}