{"type":"FeatureCollection","metadata":{"route":"Douro Line: Porto Campanhã to Pocinho","source":"OpenStreetMap contributors","sourceUrl":"https://www.openstreetmap.org/relation/4508126","license":"ODbL 1.0","geometryVersion":"2026-08-12","osmRelationIds":[4508126,1724300],"osmWayIds":[125150906,1180201361,691377233,1410585705,1151433580,845538056,1164024640,690903785,1366029782,543210735,690960082,1180201365,488869211,1180201368,1180201372,689771466,1300764791,1300764793,1300764794,1300764788,690220879,488889159,690220876,690220877,1180201376,1180201377,151430437,1180201379,540041074,488866559,488866560,8053532,488855277,1180201380,690220874,209891042,1180201386,690220870,690220871,1503459774,1503459773,1154635869,157894136,157894142,157894163,157894148,124542536,1311297676,1311297677,689872200,689872199,103482548,169771380,4590930,1181895797,1181895799,1181895795,156514266,156514269,156514267,156514268,124542160,690565223,689872204,690565220,690565219,92844538,92844540,1181895801,1181895802,689872210,1181895805,1181895806,689872214,1181895809,1181895811,689872216,1181895821,1181895824,689872224,196225710,196225716,196225722,1154635871,1181895826,1181895827,1181895828,689872228,690565211,535303414,690565214,1181895837,535303422,105570299,1181895840,535303420,1181895845,1181895847,535303383,535303381,124537160,601676430,601676428,1181895850,1181895852,535303424,126366439,126366495,690565203,689893451,690565206,1181895853,1154635873,124537161,1154635875,1181895866,1181895867,1154635877,689893456,1154635879,1181895872,1181905632,689893458,690819443,124536120,1181905636,124858487,1154635886,1181905637,124858498,1135494895,1135494894,148340123,1182293399,221123221,221123236,1182062972,1182062976,221123233,1182062979,148340124,1182062980,221123229,148340121,124858495,124858473,221123222,221123218,1182062982,1182063008,148340125,689898490,1182063010,1182063011,221123230,1410054315,1410054314,98994532,98994537,1182063012,98994531,98994530,95670894,1135494896,1182063013,98994529,1462811128,1182063043,1182063040,1154635887,1366092608,1182063047,1182063048,221123235,1182063051,1182293397,1182063049,1366092598,1154635888,1182080666,1182080668,127882729,1366092599,1182080670,88540345,88540359,98994533,98994527,1154635889,127882728,98994535,98994528,1182080673,127631338,1429587744,1182293386,127631288,1366092600,221123215,1182293385,1182293381,127631290,1366092601,1182293380,221123228,127631289,1039735151,88540343,1039735150,88540346,1182293378,689912822,98994534,1182293376,909681838,127631346,1135494899,1182126302,1182080678,1182126301,127631328,1135494900,1366092604,1135494901,1182126293,1182126292,127631365,1366092605,98935698,98935735,98935718,1182126270,98935701,98935720,98935737,127631360,98935709,98935725,98935700,98935729,98935724,98935705,689912824,1182126287,127631356,1182126284,689912826,98935727,37103078,37103080,689912827,127631240,127631287,183772016,183772015,1366092607,1182126290,1182126291,1366092606,127631253,848006647,848006646,98935696,1182126269,98935716,1408693003,1182126268,1182126263,1153380618,1408693002,127631251,98906653,221123226,1154635891,1170303369,98906656,88496943,1420016766,1503459768,88496944,88496965,221123232,221123224,88496945,1408693023,1408693024,1311846376,93770960,93770965,127350654,1420016767,1420016768,127350681,1179853087,1179853086,1154640103,1170303370,1154640102,127350668,1135476578,88508991,1466108860,1503459767,440374397,88508982,440374396,1135476579,127670081,88508986,1168608118,88508987,221123227,221123217,127205112,127350667,123592227,127660700,1179853077,1179853076,127350692,88508976,88508978,1177636350,1135476580,1177636351,1135476588,1168608119,127205104,126798961,126799025,88508989,88508977,127350656,88507554,88507567,88507566,88507531,88507572,88507578,1420016769,1135476593,127350669,1366092610,1366092609,127350706,88507580,88507570,88507534,88507557,88507581,88507533,88507545,88507532,88507548,127350660,127205066,88507538,88507535,88507562,127350679,88507576,1179853075,1442867620,88507573,1179853071,1179853074,1179853072,127350670,88507553,88507539,88507536,88507574,88507582,88507559,88507561,88507575,88507547,88507550,95965872,95965857],"approximateLengthKm":169.91},"features":[{"type":"Feature","properties":{"name":"Douro Line: Porto Campanhã to Pocinho"},"geometry":{"type":"LineString","coordinates":[[-8.5851874,41.1487944],[-8.5846029,41.1514533],[-8.5845333,41.1517664],[-8.5844445,41.1521763],[-8.5843684,41.1525271],[-8.5842915,41.1528906],[-8.5841603,41.1534919],[-8.5841245,41.1536734],[-8.5840543,41.1539546],[-8.5840395,41.1540138],[-8.5839602,41.1543939],[-8.5839303,41.1545299],[-8.5839044,41.1546436],[-8.5837546,41.1552731],[-8.5836092,41.1559414],[-8.5835584,41.1561017],[-8.5835041,41.1562514],[-8.5834364,41.1564253],[-8.5833146,41.156743],[-8.5832768,41.1568342],[-8.5812712,41.1616653],[-8.5808297,41.1627287],[-8.5807635,41.1628964],[-8.5806926,41.1630547],[-8.5805335,41.1633539],[-8.5803793,41.1635951],[-8.5802259,41.1638239],[-8.5799696,41.1641512],[-8.5797919,41.1643393],[-8.5796306,41.1645067],[-8.5794642,41.1646691],[-8.5792906,41.1648308],[-8.5790959,41.165003],[-8.5788379,41.1652266],[-8.5787007,41.1653474],[-8.5779753,41.165995],[-8.5776322,41.1662809],[-8.5768818,41.1669363],[-8.5760156,41.1676805],[-8.5747023,41.1688188],[-8.5736253,41.1697572],[-8.5730567,41.1702524],[-8.5724625,41.1707672],[-8.572224,41.1709669],[-8.5720701,41.1710925],[-8.5710619,41.1719921],[-8.5706179,41.1723797],[-8.5696014,41.1732637],[-8.5693666,41.1734665],[-8.5678287,41.1747988],[-8.5666208,41.1758415],[-8.5652215,41.1770579],[-8.5644932,41.1776829],[-8.5642814,41.1778661],[-8.5642154,41.1779232],[-8.5641104,41.1780669],[-8.5638132,41.1783259],[-8.5636188,41.1784958],[-8.5620694,41.1798503],[-8.5599928,41.1816475],[-8.5589102,41.1825967],[-8.558399,41.1830607],[-8.5581632,41.1832905],[-8.5579359,41.1835287],[-8.5577287,41.1837739],[-8.557531,41.1840268],[-8.5572975,41.1843447],[-8.557176,41.1845518],[-8.5569713,41.1848748],[-8.5568644,41.1850826],[-8.5567109,41.1854625],[-8.5565975,41.1857345],[-8.5564783,41.1860863],[-8.556306,41.186562],[-8.5559504,41.1876041],[-8.5557593,41.1881764],[-8.5555656,41.1887626],[-8.5555149,41.1889397],[-8.5554683,41.1891218],[-8.5553953,41.1894902],[-8.5553654,41.1896964],[-8.5553477,41.1899057],[-8.5553282,41.1903229],[-8.5553324,41.1907146],[-8.5553535,41.1910608],[-8.5554074,41.191594],[-8.5555508,41.1928662],[-8.5556848,41.1940989],[-8.5557823,41.1949992],[-8.5560299,41.1976618],[-8.5562275,41.1993189],[-8.5562018,41.1994856],[-8.5562306,41.1996459],[-8.5562776,41.1998918],[-8.556336,41.2001477],[-8.5564813,41.2007174],[-8.5566793,41.2014871],[-8.5566977,41.2015598],[-8.5568762,41.2022646],[-8.5572435,41.2037019],[-8.5572814,41.2038624],[-8.5573384,41.2041126],[-8.5573982,41.2044167],[-8.5574316,41.2046327],[-8.5574558,41.2048491],[-8.5574845,41.2052815],[-8.5574866,41.2055428],[-8.5574766,41.2058147],[-8.5574591,41.2060811],[-8.5574309,41.206346],[-8.5573713,41.2066981],[-8.5573002,41.2070465],[-8.5572284,41.2073181],[-8.5571524,41.2075708],[-8.5570749,41.2078019],[-8.556984,41.208033],[-8.5568663,41.2083134],[-8.5567405,41.2085913],[-8.5563075,41.2094662],[-8.5558766,41.2103465],[-8.5557956,41.2105065],[-8.5557363,41.2106233],[-8.5556864,41.2107206],[-8.5555574,41.2109723],[-8.5553386,41.2114317],[-8.5551198,41.2118799],[-8.5549018,41.2123344],[-8.5547704,41.2126081],[-8.5545563,41.2130543],[-8.5543779,41.2134945],[-8.5542415,41.2138597],[-8.5540814,41.2145142],[-8.5540224,41.2149268],[-8.5539971,41.2151965],[-8.5539843,41.2154684],[-8.5539753,41.2158731],[-8.5539823,41.2160329],[-8.5540965,41.2171233],[-8.554136,41.2175748],[-8.5541558,41.2178565],[-8.554195,41.2182956],[-8.5541959,41.2183095],[-8.5542117,41.2189084],[-8.5542036,41.2192413],[-8.554181,41.2195677],[-8.5541426,41.2197553],[-8.5541,41.2199227],[-8.5539917,41.2200741],[-8.5539334,41.2202022],[-8.5538569,41.2203414],[-8.553759,41.2204952],[-8.5536297,41.2206655],[-8.5535116,41.2208009],[-8.5533813,41.2209324],[-8.553216,41.2210776],[-8.5530319,41.2212187],[-8.5528229,41.2213544],[-8.552615,41.2214736],[-8.5524277,41.2215663],[-8.5522772,41.2216334],[-8.5521171,41.2216976],[-8.5519689,41.221753],[-8.5517888,41.2218123],[-8.5515899,41.2218697],[-8.551375,41.2219249],[-8.5511345,41.2219765],[-8.5508314,41.2220302],[-8.5506539,41.2220576],[-8.5504325,41.2220856],[-8.5501471,41.2221086],[-8.5499964,41.222116],[-8.5496397,41.2221186],[-8.549062,41.2220947],[-8.5486425,41.2220492],[-8.5482039,41.221975],[-8.5476719,41.2218471],[-8.5471054,41.2217021],[-8.5468231,41.2216296],[-8.5452063,41.2212049],[-8.544947,41.2211412],[-8.5447736,41.2210987],[-8.5443559,41.2209961],[-8.5438538,41.2209044],[-8.543348,41.2208428],[-8.5425145,41.2208207],[-8.5416641,41.2208611],[-8.5413055,41.2208891],[-8.5408112,41.2209278],[-8.5396607,41.2210013],[-8.5391906,41.2210166],[-8.5384399,41.2210031],[-8.537731,41.2209435],[-8.5369805,41.2208278],[-8.5367312,41.2207764],[-8.5364909,41.2207262],[-8.5361337,41.2206464],[-8.535704,41.220542],[-8.5353759,41.2204621],[-8.5352066,41.2204192],[-8.5350281,41.2203706],[-8.5349199,41.2203806],[-8.5346819,41.2203132],[-8.5344735,41.2202525],[-8.5342589,41.2201857],[-8.5340286,41.2201053],[-8.5338013,41.2200223],[-8.5336395,41.2199553],[-8.5331105,41.2197018],[-8.5325715,41.2193938],[-8.5318253,41.2188646],[-8.5312995,41.2182655],[-8.5308571,41.2176321],[-8.5304494,41.2169942],[-8.5299423,41.2164152],[-8.5293549,41.2159155],[-8.5287389,41.2155025],[-8.5281637,41.2151587],[-8.5265682,41.2142581],[-8.5233626,41.2125331],[-8.5224573,41.2120026],[-8.5215718,41.2114521],[-8.5187229,41.2096146],[-8.5169498,41.208465],[-8.5147096,41.2070053],[-8.5132054,41.2060655],[-8.5115383,41.2050914],[-8.5109721,41.2047101],[-8.5101684,41.2040357],[-8.5097043,41.2035413],[-8.5076384,41.2008493],[-8.5064758,41.1993799],[-8.5059856,41.1988682],[-8.505408,41.1984167],[-8.5047981,41.1980463],[-8.5040449,41.1977132],[-8.5037312,41.1976049],[-8.5030919,41.1974113],[-8.5019947,41.197132],[-8.5012679,41.1969512],[-8.5007634,41.1968257],[-8.5006051,41.1967846],[-8.4998852,41.1965975],[-8.4991654,41.1963673],[-8.4983937,41.1960462],[-8.4976616,41.1956707],[-8.4945122,41.1937211],[-8.4915584,41.191888],[-8.4913799,41.1917771],[-8.4907404,41.1913869],[-8.49041,41.1911824],[-8.489815,41.1907942],[-8.4894655,41.1905171],[-8.4893518,41.1904269],[-8.4892473,41.1903441],[-8.4886077,41.1897732],[-8.4879303,41.1891013],[-8.4872073,41.1882766],[-8.4864937,41.1873591],[-8.4858822,41.1865627],[-8.4854597,41.1860421],[-8.4851428,41.1855969],[-8.4846349,41.1849677],[-8.4842226,41.1844808],[-8.4834618,41.1837756],[-8.4829423,41.1833776],[-8.4821632,41.1829003],[-8.4806896,41.1822056],[-8.4797761,41.1817184],[-8.479097,41.1811339],[-8.4786302,41.1806439],[-8.4782356,41.1800761],[-8.4779876,41.1795285],[-8.4769776,41.1765998],[-8.4765852,41.1754756],[-8.4762596,41.1748733],[-8.475906,41.1743783],[-8.4754145,41.1739102],[-8.4750395,41.1736269],[-8.4745677,41.1732903],[-8.4740365,41.1730085],[-8.4729526,41.1725052],[-8.4719219,41.1721],[-8.4709817,41.171762],[-8.4701933,41.1714598],[-8.4695257,41.1711244],[-8.4690061,41.1707972],[-8.4684968,41.1704117],[-8.4677583,41.1697806],[-8.4667001,41.1688757],[-8.4650653,41.1674763],[-8.4650629,41.1674742],[-8.4647786,41.1672308],[-8.4647747,41.1672276],[-8.4634294,41.1660759],[-8.4625344,41.1653109],[-8.4614722,41.1644147],[-8.4604908,41.1637401],[-8.4572985,41.1617997],[-8.4564081,41.1612486],[-8.4554905,41.1607558],[-8.4545809,41.1603925],[-8.4538499,41.1601818],[-8.4530648,41.1600115],[-8.4522183,41.1598959],[-8.4514175,41.1598447],[-8.4505806,41.159853],[-8.4498647,41.1599255],[-8.449084,41.1600373],[-8.4484265,41.1602025],[-8.4474878,41.1605013],[-8.4468252,41.1607877],[-8.446189,41.1611011],[-8.44545,41.1615846],[-8.4439268,41.1626504],[-8.4432769,41.1630514],[-8.4426066,41.1633702],[-8.4420559,41.1635744],[-8.4412286,41.1637625],[-8.4404435,41.1638736],[-8.4396205,41.1638866],[-8.4392388,41.1638729],[-8.4379323,41.163784],[-8.4366243,41.1636948],[-8.435302,41.163605],[-8.4341945,41.1634948],[-8.4334088,41.1633789],[-8.4321312,41.1630802],[-8.4278476,41.1620571],[-8.4264236,41.1617309],[-8.4254407,41.161557],[-8.4245008,41.1614545],[-8.4233985,41.161401],[-8.4202518,41.1613137],[-8.4189383,41.161282],[-8.4176372,41.1612442],[-8.4134348,41.1611317],[-8.4126128,41.1610857],[-8.4117455,41.1609499],[-8.4110245,41.160748],[-8.4101693,41.1603964],[-8.4096077,41.1600905],[-8.4090563,41.1596838],[-8.4079868,41.1587251],[-8.4069256,41.1577596],[-8.4061793,41.1572218],[-8.4051754,41.156642],[-8.40026,41.1543475],[-8.3991877,41.1538353],[-8.3979784,41.1532738],[-8.3956913,41.1522038],[-8.3955682,41.1521464],[-8.3948221,41.1518004],[-8.3944991,41.1516506],[-8.3941707,41.1514983],[-8.3931469,41.1511374],[-8.3923415,41.1509499],[-8.3918258,41.1508828],[-8.3909172,41.1508476],[-8.3899543,41.1508782],[-8.3892993,41.1509627],[-8.3883875,41.1511831],[-8.3877726,41.1514056],[-8.3870803,41.1517269],[-8.3864068,41.1521508],[-8.3858102,41.1526314],[-8.3852882,41.1532235],[-8.3849038,41.1538207],[-8.384428,41.154686],[-8.3843757,41.154677],[-8.3839303,41.155307],[-8.3833585,41.1558706],[-8.3828298,41.1562846],[-8.3820119,41.1567551],[-8.3773331,41.159134],[-8.3768975,41.159348],[-8.3762244,41.1596407],[-8.3755924,41.1598453],[-8.3749562,41.1599568],[-8.3745363,41.1599992],[-8.3743271,41.1600139],[-8.3741412,41.1600252],[-8.3739589,41.1600338],[-8.3729691,41.1600756],[-8.3722358,41.1601113],[-8.3721016,41.1601589],[-8.3719299,41.1601733],[-8.3715445,41.1602151],[-8.3713696,41.1602411],[-8.3711933,41.1602722],[-8.3709892,41.1603168],[-8.3708045,41.1603649],[-8.3706472,41.1604128],[-8.3702347,41.1605579],[-8.3697431,41.1607881],[-8.3691381,41.1611742],[-8.368645,41.1616043],[-8.3677754,41.1626777],[-8.366502,41.1641941],[-8.365815,41.1648915],[-8.3636062,41.1670196],[-8.3629986,41.1675851],[-8.3624035,41.1680186],[-8.3619016,41.1682918],[-8.35925,41.1696313],[-8.3578495,41.1703628],[-8.3570098,41.1707932],[-8.3561224,41.1712471],[-8.355259,41.1716927],[-8.3550713,41.1717876],[-8.3549244,41.1718597],[-8.3547857,41.1719247],[-8.3546236,41.1719959],[-8.3544583,41.1720624],[-8.3542648,41.1721326],[-8.354138,41.1721755],[-8.3539921,41.1722202],[-8.3538699,41.1722537],[-8.3537523,41.1722845],[-8.3536134,41.1723167],[-8.3534882,41.1723425],[-8.3533589,41.1723671],[-8.353258,41.1723842],[-8.3531556,41.1724012],[-8.3523626,41.1724902],[-8.3508705,41.1726424],[-8.350214,41.1727545],[-8.3494256,41.1729635],[-8.3487188,41.1732691],[-8.3476115,41.1739393],[-8.3455882,41.1751954],[-8.3450753,41.175582],[-8.3446321,41.175997],[-8.3441352,41.1766019],[-8.3437441,41.177251],[-8.3433989,41.1780866],[-8.3425627,41.180269],[-8.3421939,41.1812193],[-8.3419663,41.181795],[-8.3419202,41.1819262],[-8.3418321,41.1821698],[-8.3417074,41.182483],[-8.3398258,41.1874065],[-8.33922,41.1889917],[-8.3382158,41.1916192],[-8.3380897,41.191938],[-8.337714,41.192931],[-8.3375707,41.1933404],[-8.3374484,41.1937619],[-8.3373754,41.1938525],[-8.3372317,41.1945515],[-8.3367961,41.1973559],[-8.3366531,41.1980136],[-8.3364768,41.1984419],[-8.3362383,41.1987966],[-8.336042,41.1990887],[-8.3359304,41.1992185],[-8.3356317,41.1995278],[-8.3350844,41.1999333],[-8.3345396,41.2002493],[-8.3340359,41.2004417],[-8.3331375,41.2006899],[-8.3293127,41.2015312],[-8.3274287,41.2019456],[-8.3266749,41.2021559],[-8.3259673,41.2024425],[-8.3253496,41.2028283],[-8.3243854,41.203611],[-8.3235147,41.2043519],[-8.3226464,41.2050909],[-8.3224274,41.2052808],[-8.3204777,41.2069167],[-8.3198509,41.2073774],[-8.3198133,41.2073995],[-8.3196705,41.2074833],[-8.3191488,41.2077897],[-8.3185749,41.2080708],[-8.3180093,41.2083452],[-8.3175536,41.2085448],[-8.3159677,41.2092951],[-8.3151796,41.2096097],[-8.3143152,41.2098626],[-8.3134513,41.2100412],[-8.3108401,41.2104446],[-8.3015424,41.2118713],[-8.3010655,41.2119679],[-8.3006064,41.2120974],[-8.3001888,41.2122459],[-8.2997926,41.2124212],[-8.2994508,41.2126085],[-8.2991187,41.2128311],[-8.2988142,41.2130768],[-8.298569,41.2133034],[-8.2980701,41.2138957],[-8.297795,41.2142627],[-8.2976818,41.2144123],[-8.2970353,41.215263],[-8.2963062,41.2162706],[-8.296179,41.2164098],[-8.2958439,41.2167766],[-8.2953013,41.2172556],[-8.2948477,41.2175955],[-8.2938508,41.2183426],[-8.2937738,41.2184124],[-8.2929524,41.2191573],[-8.2924192,41.2196824],[-8.2919717,41.2201471],[-8.2915332,41.220677],[-8.2897028,41.2229919],[-8.2889345,41.2239927],[-8.2883315,41.2244906],[-8.2874861,41.2249424],[-8.2846919,41.2260121],[-8.2842112,41.2262275],[-8.2838129,41.2264533],[-8.2834502,41.2267043],[-8.2831578,41.226946],[-8.282895,41.2272169],[-8.2826322,41.2275345],[-8.2824151,41.2278658],[-8.2821928,41.2284128],[-8.2820334,41.2291592],[-8.2816547,41.2320388],[-8.2815289,41.2325152],[-8.2813655,41.232899],[-8.2811515,41.2332722],[-8.280874,41.2336315],[-8.2805768,41.233933],[-8.2802303,41.2341993],[-8.2798126,41.2344815],[-8.2793413,41.2347162],[-8.2788307,41.2349124],[-8.2783033,41.2350557],[-8.2775128,41.2351797],[-8.2767356,41.2352268],[-8.2755271,41.235243],[-8.2742247,41.2352526],[-8.2731647,41.2352689],[-8.273051,41.2352737],[-8.2728938,41.2352837],[-8.2726122,41.2353046],[-8.2721293,41.2353816],[-8.2717159,41.2354802],[-8.2713141,41.2356145],[-8.2707172,41.2359128],[-8.2703588,41.2361335],[-8.2700213,41.2364019],[-8.2696451,41.2368076],[-8.2694448,41.2370833],[-8.269287,41.2373682],[-8.2691683,41.237688],[-8.2690814,41.2380591],[-8.2690552,41.238409],[-8.2690904,41.2388383],[-8.2693667,41.240187],[-8.2694351,41.240618],[-8.2694285,41.2409345],[-8.2693931,41.2412452],[-8.2693143,41.2415452],[-8.2691991,41.241835],[-8.268885,41.2423797],[-8.2684644,41.2428949],[-8.2681168,41.2432054],[-8.2677099,41.2434856],[-8.2670829,41.2438623],[-8.2669887,41.2439178],[-8.2657144,41.2446211],[-8.2644462,41.245356],[-8.2626705,41.2465058],[-8.260818,41.247739],[-8.260425,41.247978],[-8.2600163,41.2481883],[-8.2596616,41.2483559],[-8.2593304,41.2485027],[-8.2590204,41.2486303],[-8.2586949,41.2487336],[-8.2583621,41.2488382],[-8.2581042,41.2489016],[-8.2578463,41.248965],[-8.2574636,41.2490368],[-8.2566574,41.2491576],[-8.2565118,41.2491793],[-8.2557206,41.2492543],[-8.2481615,41.2498516],[-8.2478015,41.24989],[-8.247047,41.2500209],[-8.2466211,41.2501328],[-8.2461338,41.2502881],[-8.2450487,41.2507073],[-8.244872,41.2507794],[-8.2439636,41.2510826],[-8.2434447,41.2511923],[-8.2429094,41.2512465],[-8.242423,41.25126],[-8.2418632,41.2511991],[-8.2411324,41.2510477],[-8.2400983,41.2507662],[-8.2394481,41.25061],[-8.2389307,41.2505201],[-8.2384766,41.2504845],[-8.2380235,41.2504859],[-8.2374963,41.2505402],[-8.2370839,41.2506247],[-8.2366608,41.2507529],[-8.23627,41.2509177],[-8.2359094,41.2511042],[-8.2356072,41.2513121],[-8.235338,41.2515275],[-8.2347824,41.2520439],[-8.2343664,41.2524472],[-8.2342533,41.2525574],[-8.2333115,41.2534326],[-8.2329319,41.2537091],[-8.2325119,41.2539279],[-8.2320638,41.2540978],[-8.2316764,41.254202],[-8.2313041,41.2542786],[-8.2308839,41.2543168],[-8.2304647,41.2543174],[-8.230053,41.2542856],[-8.2296247,41.2542109],[-8.2292685,41.2541146],[-8.228907,41.2539912],[-8.2285714,41.2538354],[-8.2284958,41.2537941],[-8.2282191,41.2536345],[-8.2278817,41.2534079],[-8.2273532,41.2530045],[-8.2268289,41.2525389],[-8.2266781,41.252405],[-8.2262498,41.2520247],[-8.2258589,41.2517006],[-8.2252601,41.2511719],[-8.2249621,41.2509249],[-8.2248859,41.250865],[-8.2247923,41.2507994],[-8.2246919,41.2507323],[-8.2245824,41.2506635],[-8.2244629,41.2505915],[-8.2243445,41.2505266],[-8.2242329,41.2504729],[-8.2241149,41.2504233],[-8.2239967,41.2503778],[-8.2238734,41.2503317],[-8.2237418,41.2502882],[-8.2235995,41.2502459],[-8.2234688,41.2502104],[-8.2233635,41.2501841],[-8.2230994,41.2501198],[-8.2228121,41.2500582],[-8.2225284,41.2500082],[-8.2222191,41.2499648],[-8.2219324,41.2499427],[-8.2216388,41.2499297],[-8.2213418,41.2499257],[-8.221054,41.2499282],[-8.2207024,41.2499455],[-8.2203547,41.2499646],[-8.2104547,41.2506198],[-8.2099639,41.2506484],[-8.2097778,41.2506593],[-8.2097136,41.2506627],[-8.2095791,41.250669],[-8.209398,41.2506772],[-8.2091609,41.2506849],[-8.2083127,41.2507327],[-8.2081665,41.2507435],[-8.2080017,41.2507586],[-8.2078229,41.2507761],[-8.2076298,41.2508023],[-8.2074389,41.2508381],[-8.2072466,41.2508827],[-8.2070437,41.2509321],[-8.2068078,41.2509991],[-8.2065615,41.251081],[-8.2063125,41.2511741],[-8.206086,41.2512756],[-8.2058589,41.2513878],[-8.2056405,41.2515133],[-8.2054519,41.2516341],[-8.2052776,41.2517578],[-8.2051143,41.2518863],[-8.2049344,41.2520391],[-8.2047916,41.2521728],[-8.2046188,41.2523392],[-8.2044086,41.252548],[-8.2019443,41.255045],[-8.2018224,41.2551728],[-8.2008973,41.2561038],[-8.2007057,41.2562797],[-8.2005337,41.2564321],[-8.2003463,41.2565795],[-8.2001553,41.2567188],[-8.2000125,41.2568149],[-8.1998512,41.2569167],[-8.1996806,41.2570169],[-8.1995355,41.2570974],[-8.1993902,41.2571729],[-8.1992703,41.257233],[-8.1991559,41.2572854],[-8.1989863,41.2573611],[-8.1988642,41.2574103],[-8.198768,41.2574466],[-8.1986463,41.2574894],[-8.1985055,41.2575375],[-8.1983995,41.2575716],[-8.1982965,41.257602],[-8.1981295,41.2576466],[-8.1978318,41.2577203],[-8.1976517,41.25776],[-8.197265,41.2578209],[-8.1969807,41.2578526],[-8.1967286,41.2578745],[-8.1964639,41.257891],[-8.1962197,41.2579015],[-8.1959629,41.2579022],[-8.1956993,41.2578987],[-8.1954315,41.2578727],[-8.195218,41.2578488],[-8.195006,41.2578188],[-8.1946376,41.2577559],[-8.1943886,41.2577041],[-8.1941792,41.2576537],[-8.1939506,41.2575945],[-8.1937519,41.2575291],[-8.193594,41.2574745],[-8.1931743,41.2573098],[-8.1929876,41.25723],[-8.1926017,41.2570386],[-8.1923588,41.2568995],[-8.192142,41.2567621],[-8.1919396,41.2566241],[-8.1917244,41.2564519],[-8.1914477,41.2562221],[-8.1910795,41.2557959],[-8.1907926,41.2553365],[-8.1900434,41.2537851],[-8.1894062,41.2522627],[-8.1890284,41.2513908],[-8.1884185,41.2501123],[-8.1882305,41.2497192],[-8.1880614,41.2494041],[-8.1878798,41.2491198],[-8.1876288,41.2487956],[-8.1873795,41.2485401],[-8.1871448,41.248319],[-8.1865215,41.2477576],[-8.1861386,41.2474121],[-8.1857937,41.2471018],[-8.1856434,41.2469666],[-8.1855508,41.2468814],[-8.1854626,41.2467998],[-8.1853696,41.2467119],[-8.1852812,41.2466267],[-8.1852057,41.2465524],[-8.1851396,41.2464854],[-8.1850762,41.2464184],[-8.1850191,41.2463541],[-8.1849677,41.2462969],[-8.1849109,41.2462317],[-8.184802,41.2460882],[-8.1847062,41.2459607],[-8.1846197,41.2458335],[-8.1844771,41.245594],[-8.1844103,41.2454697],[-8.1843551,41.2453557],[-8.1842968,41.2452255],[-8.1842428,41.2450938],[-8.1841928,41.2449531],[-8.1841585,41.2448375],[-8.1841249,41.2447173],[-8.1840949,41.2445798],[-8.1840731,41.2444694],[-8.1840572,41.2443588],[-8.184046,41.2442285],[-8.1840385,41.2441033],[-8.1840369,41.2438532],[-8.1840318,41.243642],[-8.1840331,41.2435648],[-8.1840355,41.2434898],[-8.1840382,41.2434227],[-8.1840475,41.2432199],[-8.1840743,41.2429158],[-8.1840683,41.2424141],[-8.1839104,41.2417434],[-8.1836824,41.2412579],[-8.1833861,41.2408426],[-8.1830579,41.240458],[-8.1827679,41.2402026],[-8.1823707,41.2399189],[-8.1819735,41.2396939],[-8.1789132,41.2382833],[-8.1783525,41.2379863],[-8.177944,41.2377337],[-8.1775648,41.2374259],[-8.1772161,41.2370629],[-8.1769467,41.2367215],[-8.176735,41.2363083],[-8.1766156,41.2359652],[-8.1765211,41.2355266],[-8.1764634,41.2351758],[-8.1763453,41.2344923],[-8.1762077,41.2338248],[-8.1760276,41.233226],[-8.1752548,41.2315609],[-8.1746607,41.2302571],[-8.1745808,41.2300841],[-8.1743766,41.229597],[-8.1738699,41.2280524],[-8.1732878,41.2262273],[-8.1730618,41.225612],[-8.1727889,41.2249939],[-8.1724806,41.2243978],[-8.1721597,41.2238313],[-8.1714606,41.2226808],[-8.1712458,41.2223775],[-8.171003,41.2220891],[-8.1706487,41.2217613],[-8.1702344,41.2214557],[-8.1697057,41.2211713],[-8.1690018,41.2208783],[-8.1682965,41.2207028],[-8.1679945,41.2206477],[-8.1672801,41.2205234],[-8.1661554,41.2203724],[-8.1651164,41.2202201],[-8.1643797,41.2201798],[-8.162191,41.2201562],[-8.1614921,41.2200997],[-8.160902,41.2199992],[-8.1603099,41.2198543],[-8.1597658,41.2196696],[-8.1591363,41.2194247],[-8.1587914,41.2192418],[-8.1584491,41.2190353],[-8.1583012,41.218939],[-8.158146,41.2188297],[-8.1579885,41.2187143],[-8.1573135,41.2181815],[-8.1570954,41.2180044],[-8.1564269,41.2174756],[-8.1556579,41.2168601],[-8.1551993,41.2164913],[-8.1550529,41.2163696],[-8.1549205,41.2162451],[-8.1547923,41.216111],[-8.1546825,41.215976],[-8.1546296,41.2158975],[-8.1545841,41.2158259],[-8.1544998,41.2156826],[-8.1544274,41.2155223],[-8.1543914,41.2154261],[-8.1543568,41.2153196],[-8.1542514,41.2149544],[-8.1541782,41.2147094],[-8.1537292,41.2132059],[-8.1535848,41.212899],[-8.1534184,41.2126042],[-8.1532486,41.212353],[-8.1529509,41.2120173],[-8.1526321,41.2117301],[-8.1520911,41.2113386],[-8.1516669,41.211077],[-8.1513615,41.2108736],[-8.1509065,41.2105293],[-8.1506429,41.2102787],[-8.1504036,41.2100124],[-8.1501832,41.2097239],[-8.1499961,41.2093927],[-8.1498726,41.2091137],[-8.1497731,41.20879],[-8.1496953,41.2083922],[-8.1496696,41.2080476],[-8.1496732,41.2079438],[-8.149681,41.2078349],[-8.1497376,41.2074328],[-8.1500806,41.2055876],[-8.1501142,41.2051062],[-8.1500776,41.2046477],[-8.1499761,41.2042043],[-8.1498414,41.203805],[-8.1496278,41.2033803],[-8.1493793,41.2029691],[-8.1480483,41.2014241],[-8.1461049,41.1991344],[-8.1457114,41.198679],[-8.1454918,41.1984338],[-8.1453126,41.1982495],[-8.1451073,41.1980555],[-8.1449318,41.1979034],[-8.1447376,41.1977462],[-8.1445348,41.1975955],[-8.1443462,41.1974646],[-8.1439065,41.1971814],[-8.1437172,41.1970605],[-8.1435679,41.1969697],[-8.1434037,41.1968706],[-8.1432306,41.1967751],[-8.1430417,41.1966767],[-8.1428363,41.1965803],[-8.1426158,41.1964827],[-8.1410805,41.1958298],[-8.1403083,41.1954832],[-8.1401521,41.1954134],[-8.1400017,41.1953433],[-8.1398588,41.1952728],[-8.1397247,41.1952011],[-8.1395852,41.19512],[-8.1394605,41.1950394],[-8.139327,41.1949463],[-8.1391875,41.194844],[-8.1390754,41.1947574],[-8.1389104,41.1946221],[-8.1387932,41.1945156],[-8.1386894,41.1944114],[-8.138588,41.1942953],[-8.1384908,41.1941622],[-8.1384104,41.1940284],[-8.1383543,41.1938881],[-8.1383147,41.1937476],[-8.1382903,41.1936032],[-8.1382773,41.193463],[-8.1382676,41.1931118],[-8.1382673,41.1929966],[-8.1382714,41.1929002],[-8.1382796,41.1927963],[-8.1382946,41.1926876],[-8.1383193,41.1925808],[-8.1383566,41.1924696],[-8.138404,41.1923483],[-8.1384603,41.1922269],[-8.1385279,41.1921011],[-8.1385954,41.191986],[-8.138702,41.1918117],[-8.1390603,41.1912521],[-8.1393276,41.1908347],[-8.1396124,41.1903484],[-8.1398226,41.1898138],[-8.139932,41.1892351],[-8.1399953,41.1883393],[-8.1400348,41.1876782],[-8.1401192,41.1869426],[-8.1401493,41.1863364],[-8.1401366,41.1859186],[-8.1400421,41.1854105],[-8.1398032,41.1847949],[-8.1395647,41.1843511],[-8.139125,41.1837449],[-8.1381705,41.1825907],[-8.1375524,41.1818354],[-8.1370005,41.1811584],[-8.136994,41.1811505],[-8.136835,41.1809573],[-8.1359454,41.1798737],[-8.1356726,41.1795455],[-8.1351781,41.1789413],[-8.1348076,41.1784909],[-8.1346756,41.1783303],[-8.1334036,41.1767839],[-8.1332004,41.1765422],[-8.133016,41.1763063],[-8.1328822,41.1761314],[-8.1327932,41.1760063],[-8.1327347,41.1759186],[-8.1326308,41.1757463],[-8.1325581,41.1756033],[-8.1324907,41.1754474],[-8.132426,41.1752778],[-8.1323762,41.1751193],[-8.132332,41.1749609],[-8.1322963,41.1747874],[-8.1322762,41.1746252],[-8.1322643,41.1744692],[-8.132263,41.1743012],[-8.1322728,41.1741261],[-8.1322955,41.173955],[-8.1323215,41.1738051],[-8.1323504,41.1736781],[-8.1323834,41.1735553],[-8.1324195,41.1734417],[-8.132472,41.1733054],[-8.1325353,41.1731626],[-8.1325984,41.1730309],[-8.1326623,41.1729147],[-8.1327436,41.1727834],[-8.1328379,41.1726408],[-8.132924,41.1725176],[-8.1330124,41.1723995],[-8.1330988,41.1722888],[-8.133187,41.1721794],[-8.13342,41.1718895],[-8.1337312,41.1715037],[-8.1340364,41.1711238],[-8.1344516,41.1704436],[-8.1346027,41.1701219],[-8.134817,41.1694599],[-8.1349262,41.1686279],[-8.1348302,41.1677301],[-8.134677,41.1672176],[-8.1339608,41.1656471],[-8.1334591,41.1645653],[-8.1330639,41.1635629],[-8.1319583,41.1595248],[-8.1316747,41.1584889],[-8.1313967,41.1576868],[-8.13118,41.157111],[-8.1306947,41.1560228],[-8.1299227,41.1546954],[-8.12943,41.1538532],[-8.1293404,41.1537005],[-8.1288035,41.1527939],[-8.1283858,41.1521698],[-8.128294,41.1520415],[-8.1282198,41.1519464],[-8.1281254,41.1518303],[-8.1280534,41.1517409],[-8.1279943,41.1516706],[-8.1278393,41.1514833],[-8.127732,41.1513596],[-8.1275162,41.1511275],[-8.1268196,41.1503586],[-8.1263113,41.1496627],[-8.1259468,41.1489208],[-8.1253232,41.1467297],[-8.1251771,41.1463219],[-8.1250996,41.1461056],[-8.1248601,41.1456977],[-8.1245109,41.1451713],[-8.1240178,41.1446143],[-8.1233074,41.1440119],[-8.1213072,41.1425529],[-8.121068,41.1423819],[-8.1208512,41.1422194],[-8.1206765,41.1420866],[-8.1205245,41.1419676],[-8.120404,41.1418671],[-8.1202827,41.1417637],[-8.1201586,41.1416466],[-8.1200448,41.1415241],[-8.119933,41.1413975],[-8.1198357,41.1412782],[-8.1197424,41.1411594],[-8.1196701,41.1410574],[-8.1196123,41.1409727],[-8.1195609,41.1408914],[-8.1194474,41.1406648],[-8.1193774,41.1405292],[-8.1193261,41.1404007],[-8.1192839,41.1402886],[-8.1192567,41.1402012],[-8.1192214,41.140086],[-8.1191971,41.1399946],[-8.119178,41.1399074],[-8.1191625,41.1398295],[-8.1191478,41.1397311],[-8.1191384,41.1396452],[-8.1191291,41.1395461],[-8.119121,41.1394368],[-8.1191203,41.1393471],[-8.1191223,41.1392514],[-8.1191324,41.1389039],[-8.1192371,41.1379764],[-8.1192463,41.1378957],[-8.1192494,41.1378169],[-8.119251,41.1377055],[-8.1192997,41.1370181],[-8.1193171,41.1366368],[-8.1192989,41.1363257],[-8.1192521,41.1360558],[-8.1191684,41.1358167],[-8.1190359,41.1355638],[-8.1188516,41.1353328],[-8.1185773,41.1350647],[-8.1182597,41.1347977],[-8.1077635,41.1260764],[-8.1075243,41.1258583],[-8.1073502,41.1256948],[-8.1071587,41.125505],[-8.10656,41.1249162],[-8.1061989,41.1244686],[-8.1058655,41.1239302],[-8.1056779,41.1234687],[-8.1053821,41.122741],[-8.1050455,41.1220886],[-8.1033151,41.1191979],[-8.1026292,41.1181618],[-8.1016914,41.1167879],[-8.1008054,41.1154647],[-8.1006649,41.1152167],[-8.1004659,41.1147385],[-8.099332,41.1115012],[-8.0991048,41.1110062],[-8.0986865,41.1102991],[-8.0981596,41.1096487],[-8.0970179,41.108529],[-8.0966585,41.1081763],[-8.0963352,41.107816],[-8.0960839,41.1074377],[-8.095934,41.1070789],[-8.0957361,41.106296],[-8.0953794,41.1054452],[-8.0950134,41.1049682],[-8.0946436,41.1046355],[-8.094207,41.1043516],[-8.0936744,41.1041213],[-8.0929834,41.1039291],[-8.0908687,41.1035861],[-8.0882556,41.1031656],[-8.0869386,41.1029496],[-8.0862423,41.1028296],[-8.0859049,41.1027509],[-8.0855023,41.1026186],[-8.084914,41.1023739],[-8.0840709,41.101964],[-8.0835618,41.1016545],[-8.0829554,41.1011414],[-8.082506,41.1005424],[-8.0821562,41.1000462],[-8.0820506,41.0998868],[-8.0819728,41.0997625],[-8.081925,41.0996712],[-8.0818494,41.0995189],[-8.0817932,41.0993965],[-8.0817542,41.0992897],[-8.0817285,41.0991922],[-8.0816983,41.0990896],[-8.0816636,41.0989391],[-8.0816501,41.0988499],[-8.0816382,41.0987652],[-8.0816262,41.0986645],[-8.0816141,41.0985322],[-8.0816013,41.0983938],[-8.0815982,41.0982432],[-8.0816045,41.0980976],[-8.0816159,41.0979557],[-8.0816223,41.0979023],[-8.081634,41.0978288],[-8.0816609,41.0977004],[-8.0816735,41.0976341],[-8.0816925,41.0975341],[-8.0818642,41.0966274],[-8.0818725,41.0965393],[-8.0818749,41.0964422],[-8.0818187,41.0961041],[-8.0817115,41.095781],[-8.0815221,41.0954007],[-8.0812249,41.0949893],[-8.0807689,41.0945909],[-8.0802553,41.0942743],[-8.0797179,41.0940407],[-8.0791401,41.0939013],[-8.0785985,41.0938342],[-8.0781121,41.0938263],[-8.0775795,41.0938768],[-8.0770487,41.0939796],[-8.0760002,41.0942253],[-8.0756047,41.0942928],[-8.0751748,41.0943366],[-8.0747488,41.0943466],[-8.0732157,41.0943304],[-8.072258,41.0943194],[-8.0721081,41.0943224],[-8.0720326,41.0943265],[-8.071955,41.0943318],[-8.0716936,41.0943544],[-8.0715393,41.0943647],[-8.0713987,41.0943756],[-8.0713067,41.0943818],[-8.0712189,41.0943884],[-8.0711257,41.0943974],[-8.0710297,41.0944077],[-8.0708521,41.0944286],[-8.0697048,41.0945715],[-8.0693464,41.0946186],[-8.0691997,41.0946377],[-8.0680147,41.0947921],[-8.0678873,41.094807],[-8.0677682,41.0948188],[-8.0676596,41.0948271],[-8.0675515,41.0948304],[-8.0674291,41.0948306],[-8.0672946,41.094828],[-8.0671678,41.0948199],[-8.067054,41.0948071],[-8.0669245,41.0947871],[-8.0667042,41.0947494],[-8.0664475,41.0946974],[-8.0663198,41.094666],[-8.0661967,41.0946334],[-8.0660789,41.0945987],[-8.0659741,41.0945653],[-8.0658841,41.0945331],[-8.0657801,41.0944932],[-8.0656568,41.0944396],[-8.0649058,41.0941158],[-8.0632632,41.0934217],[-8.061742,41.0929125],[-8.0615684,41.0928554],[-8.0613755,41.0927782],[-8.0612108,41.0927046],[-8.0610188,41.0926085],[-8.0608175,41.0924999],[-8.0592105,41.0914374],[-8.0590201,41.0913387],[-8.0587761,41.0912389],[-8.0585085,41.0911335],[-8.0582311,41.0910397],[-8.057915,41.0909496],[-8.057655,41.0908999],[-8.0573907,41.0908563],[-8.0571002,41.090815],[-8.054668,41.0906032],[-8.0538027,41.0905639],[-8.0535651,41.0905638],[-8.0532849,41.0905819],[-8.0530583,41.0905977],[-8.0517561,41.0907781],[-8.0498894,41.0911362],[-8.0496435,41.0911972],[-8.0493549,41.0912812],[-8.0491306,41.0913627],[-8.0484295,41.0916974],[-8.0475986,41.0921724],[-8.0458287,41.0935341],[-8.0453294,41.0938732],[-8.0448921,41.0940857],[-8.0441555,41.0943482],[-8.0416018,41.0952211],[-8.0386033,41.0963856],[-8.0385352,41.0964099],[-8.03846,41.0964341],[-8.0383161,41.0964781],[-8.0382334,41.0964988],[-8.0381405,41.0965199],[-8.0380412,41.0965388],[-8.0379572,41.0965525],[-8.0378694,41.0965664],[-8.0377145,41.0965903],[-8.0372642,41.0966387],[-8.0364811,41.0966389],[-8.0357959,41.0966694],[-8.0353119,41.0967378],[-8.0310888,41.09767],[-8.0304043,41.0977977],[-8.0295231,41.0978831],[-8.0288278,41.0978948],[-8.0274261,41.0979175],[-8.0267275,41.0979773],[-8.0259447,41.0981476],[-8.0239759,41.0988315],[-8.0231814,41.0991374],[-8.0227067,41.0993826],[-8.0222534,41.0997019],[-8.0211027,41.1007401],[-8.0205918,41.1011353],[-8.0196717,41.1017889],[-8.0193254,41.1021011],[-8.0190539,41.1024622],[-8.0188721,41.102856],[-8.0183407,41.1042335],[-8.0179906,41.1049819],[-8.0177685,41.1053074],[-8.0175197,41.1055915],[-8.0171674,41.1058985],[-8.0169615,41.106032],[-8.0166063,41.1062237],[-8.0162241,41.1063868],[-8.0158106,41.1065183],[-8.0153202,41.1066109],[-8.0145249,41.1066589],[-8.014074,41.1066201],[-8.0123565,41.106357],[-8.0121907,41.1063367],[-8.0120276,41.1063176],[-8.0118682,41.1063011],[-8.0117088,41.1062875],[-8.0113713,41.1062618],[-8.0112171,41.1062554],[-8.0110821,41.1062516],[-8.0109435,41.1062488],[-8.0108041,41.1062465],[-8.0106683,41.1062465],[-8.0105264,41.1062496],[-8.0096659,41.1062796],[-8.0091198,41.1063014],[-8.0088441,41.1063123],[-8.0074099,41.1063778],[-8.0058984,41.106448],[-8.0057001,41.1064588],[-8.0056151,41.106464],[-8.005456,41.1064751],[-8.004764,41.1064997],[-8.0039929,41.1065627],[-8.0036302,41.1066009],[-8.0007486,41.1069574],[-8.0005686,41.1069859],[-8.0003896,41.1070175],[-8.000188,41.1070565],[-7.9999863,41.1071031],[-7.9998192,41.1071465],[-7.9996753,41.1071938],[-7.9995332,41.1072568],[-7.9990046,41.1075285],[-7.9979432,41.1080609],[-7.9934747,41.1102923],[-7.9924018,41.1108247],[-7.9918539,41.1110257],[-7.9917226,41.1110592],[-7.9914102,41.1111388],[-7.9906513,41.1112454],[-7.9888399,41.1113796],[-7.9880802,41.1114187],[-7.9876783,41.1114441],[-7.9873661,41.1114714],[-7.9870621,41.1115039],[-7.9867257,41.1115495],[-7.9864571,41.1115959],[-7.9861602,41.1116552],[-7.9859004,41.1117185],[-7.9856201,41.1117981],[-7.9846127,41.1120907],[-7.984408,41.1121483],[-7.9842403,41.1121899],[-7.9840667,41.1122275],[-7.9838706,41.1122636],[-7.9836652,41.1122929],[-7.9833749,41.1123273],[-7.9831113,41.1123514],[-7.9828615,41.1123655],[-7.9825195,41.1123776],[-7.9819291,41.1123902],[-7.9812688,41.1123951],[-7.9810451,41.1123961],[-7.9807834,41.1124127],[-7.9805619,41.1124397],[-7.9802503,41.1124942],[-7.9799184,41.1125757],[-7.9796687,41.1126513],[-7.9794316,41.1127431],[-7.9792007,41.1128509],[-7.9790037,41.112966],[-7.9788178,41.1130991],[-7.9785266,41.1133562],[-7.978105,41.1137399],[-7.976358,41.115241],[-7.9755327,41.1159527],[-7.9752746,41.1161767],[-7.9750453,41.1163722],[-7.974902,41.1164921],[-7.9747588,41.1166121],[-7.9746535,41.1166958],[-7.9745483,41.1167796],[-7.9743902,41.1168941],[-7.9742194,41.1170038],[-7.9740678,41.1170904],[-7.9739135,41.1171682],[-7.9737341,41.1172458],[-7.9735787,41.1173087],[-7.9734723,41.1173453],[-7.9734071,41.1173677],[-7.9732301,41.1174208],[-7.9730603,41.1174637],[-7.9728854,41.1175011],[-7.9727483,41.1175234],[-7.9726312,41.1175407],[-7.9725171,41.1175563],[-7.9724582,41.1175614],[-7.9723046,41.1175729],[-7.972162,41.1175805],[-7.9720508,41.1175855],[-7.9717129,41.1176021],[-7.9700398,41.1176614],[-7.9691524,41.1176949],[-7.9688659,41.1177073],[-7.9686543,41.117709],[-7.9684128,41.1177023],[-7.9682253,41.1176861],[-7.9680447,41.1176647],[-7.9678569,41.1176344],[-7.9676689,41.1175933],[-7.9674742,41.1175433],[-7.9672843,41.1174854],[-7.9671309,41.1174337],[-7.9669642,41.1173625],[-7.9667849,41.1172844],[-7.966584,41.1171833],[-7.9664474,41.1171088],[-7.9662972,41.117004],[-7.9661656,41.1169102],[-7.9659695,41.1167446],[-7.965049,41.1158738],[-7.9648771,41.1157368],[-7.9647424,41.1156368],[-7.964591,41.1155454],[-7.9643938,41.1154485],[-7.9641979,41.1153532],[-7.964012,41.1152782],[-7.9637919,41.1152072],[-7.9635737,41.11515],[-7.9633678,41.1151061],[-7.963145,41.1150734],[-7.962909,41.1150551],[-7.9626736,41.1150557],[-7.9624472,41.1150607],[-7.9621573,41.1150875],[-7.9619223,41.1151324],[-7.9617224,41.1151847],[-7.9615032,41.1152451],[-7.9613021,41.1153275],[-7.9611141,41.1154124],[-7.9609734,41.1154922],[-7.9607936,41.1156076],[-7.9606494,41.1157092],[-7.960508,41.1158228],[-7.9601303,41.1161722],[-7.9595265,41.1168158],[-7.9588177,41.1176427],[-7.9583442,41.1182801],[-7.9572681,41.1197365],[-7.9566204,41.1206485],[-7.9560952,41.1213171],[-7.9554992,41.1219132],[-7.9544438,41.1227761],[-7.9542213,41.1229487],[-7.9539627,41.1231302],[-7.9535925,41.1233502],[-7.9532108,41.1235244],[-7.9527918,41.1236884],[-7.9523666,41.1238345],[-7.9521839,41.1238925],[-7.9518809,41.1239885],[-7.9516463,41.1240628],[-7.9509335,41.1242843],[-7.9509106,41.1242914],[-7.9506553,41.1243705],[-7.950554,41.1243996],[-7.9504987,41.1244138],[-7.9503531,41.124449],[-7.9502545,41.1244702],[-7.9500579,41.1245088],[-7.949967,41.1245225],[-7.9498717,41.1245361],[-7.9497748,41.1245471],[-7.9496792,41.1245562],[-7.9495714,41.1245631],[-7.9494534,41.1245698],[-7.949334,41.1245731],[-7.9492137,41.124575],[-7.9490803,41.1245755],[-7.9488709,41.1245746],[-7.9487345,41.1245709],[-7.9486233,41.1245653],[-7.9485351,41.1245592],[-7.948451,41.1245527],[-7.9482497,41.1245314],[-7.9480673,41.1245064],[-7.9478726,41.1244789],[-7.9476124,41.124432],[-7.9475126,41.1244119],[-7.9474378,41.1243952],[-7.9473014,41.1243622],[-7.9470797,41.1243035],[-7.9467939,41.1242254],[-7.9465663,41.1241683],[-7.9463327,41.1241122],[-7.9461113,41.1240641],[-7.9458962,41.1240197],[-7.9455885,41.1239598],[-7.9445765,41.1237295],[-7.9441023,41.1236177],[-7.9439187,41.1235732],[-7.9437394,41.1235272],[-7.9435878,41.1234848],[-7.9434388,41.123442],[-7.9431298,41.1233478],[-7.9423621,41.1230906],[-7.9412654,41.1227109],[-7.9399888,41.1222799],[-7.9387107,41.1218552],[-7.9373461,41.1213531],[-7.9357712,41.1207621],[-7.9352954,41.1205848],[-7.9349821,41.1204784],[-7.9347325,41.1204002],[-7.9344743,41.1203224],[-7.9342296,41.120253],[-7.9335298,41.1200665],[-7.9321302,41.1196721],[-7.9314369,41.1194512],[-7.9312003,41.1193811],[-7.9310203,41.1193316],[-7.9308351,41.1192882],[-7.9306613,41.1192591],[-7.9304438,41.1192257],[-7.9302372,41.1192029],[-7.9300492,41.1191915],[-7.9298179,41.1191859],[-7.9295988,41.1191941],[-7.9294091,41.1192055],[-7.9291741,41.1192325],[-7.9289464,41.1192689],[-7.9287533,41.1193063],[-7.9285217,41.1193574],[-7.9280548,41.1194571],[-7.9276835,41.1195518],[-7.9273428,41.1196426],[-7.9269024,41.1197597],[-7.9263606,41.1199028],[-7.9257776,41.1200645],[-7.9250281,41.1203008],[-7.9244661,41.1205106],[-7.9242254,41.1205998],[-7.9240107,41.1206722],[-7.9237909,41.1207337],[-7.9235225,41.1208088],[-7.9233012,41.1208596],[-7.9230313,41.1209055],[-7.9227605,41.1209429],[-7.9224592,41.1209814],[-7.9221874,41.1210103],[-7.9217604,41.1210438],[-7.9199771,41.1211904],[-7.9192507,41.1212382],[-7.9189188,41.12126],[-7.9184243,41.1212834],[-7.9173879,41.1213175],[-7.9171324,41.1213281],[-7.9168278,41.1213472],[-7.9165387,41.1213707],[-7.916246,41.121403],[-7.9158589,41.1214472],[-7.915419,41.1215004],[-7.9148436,41.1215743],[-7.9129649,41.1218122],[-7.91253,41.1218787],[-7.912231,41.1219203],[-7.9119814,41.1219491],[-7.9117535,41.1219623],[-7.9113411,41.1219567],[-7.9110196,41.1219262],[-7.9106282,41.1218644],[-7.9102933,41.121778],[-7.9100216,41.1216839],[-7.9097367,41.1215665],[-7.9092054,41.121288],[-7.9083328,41.1207291],[-7.9078864,41.1204814],[-7.9074549,41.1202908],[-7.9068301,41.1201188],[-7.906575,41.1200562],[-7.906322,41.1200018],[-7.9060753,41.119952],[-7.9057995,41.119906],[-7.9054702,41.1198677],[-7.9050642,41.1198386],[-7.9046033,41.1198361],[-7.9041819,41.1198479],[-7.9036986,41.1198679],[-7.9032218,41.119894],[-7.90276,41.1199447],[-7.9023714,41.1200088],[-7.902038,41.1200781],[-7.9015813,41.1201737],[-7.9012699,41.1202905],[-7.9008483,41.1204865],[-7.9005563,41.1206807],[-7.900303,41.1208851],[-7.9001064,41.1210844],[-7.899887,41.1213683],[-7.8996595,41.1217199],[-7.8984989,41.123745],[-7.8983742,41.123986],[-7.8982724,41.1241971],[-7.8981899,41.1244146],[-7.8981352,41.1245943],[-7.8980987,41.1247826],[-7.8980657,41.1250552],[-7.8979252,41.1268533],[-7.8979242,41.127034],[-7.8979415,41.1272077],[-7.8979774,41.1274654],[-7.8980145,41.1276132],[-7.8980727,41.1277833],[-7.8981477,41.1279379],[-7.8982334,41.1281028],[-7.8993074,41.1296819],[-7.8994163,41.1298691],[-7.8994761,41.1300159],[-7.8995193,41.1301545],[-7.899556,41.1303334],[-7.8995656,41.1305857],[-7.8995528,41.1308015],[-7.8995007,41.1310784],[-7.8994269,41.1313241],[-7.8992639,41.1317074],[-7.8991032,41.1319795],[-7.8989952,41.1321392],[-7.8988784,41.1322769],[-7.8987698,41.1323914],[-7.8986351,41.132519],[-7.8985163,41.1326219],[-7.8983962,41.1327083],[-7.8982861,41.1327843],[-7.8975127,41.133273],[-7.8964481,41.1339198],[-7.8956533,41.1344387],[-7.8946337,41.1351277],[-7.8942778,41.1353313],[-7.8940413,41.1354373],[-7.8937784,41.1355318],[-7.8935141,41.1356084],[-7.8932376,41.1356736],[-7.8929327,41.1357208],[-7.8926437,41.1357535],[-7.8907135,41.1359438],[-7.8904642,41.1359766],[-7.8902583,41.1360125],[-7.8900077,41.1360683],[-7.8897743,41.1361406],[-7.8896159,41.1361955],[-7.889406,41.1362782],[-7.8891898,41.1363787],[-7.8889821,41.136502],[-7.888781,41.1366339],[-7.8886051,41.1367604],[-7.8884615,41.136882],[-7.8883489,41.1369787],[-7.888217,41.1371158],[-7.8881353,41.1372072],[-7.8880597,41.1373125],[-7.8879566,41.1374923],[-7.8877851,41.1377779],[-7.8876623,41.1380615],[-7.8875655,41.1383649],[-7.8875209,41.1386142],[-7.8875043,41.138705],[-7.8874935,41.138802],[-7.8874836,41.13891],[-7.8874772,41.1390131],[-7.8874746,41.1391171],[-7.8874913,41.140528],[-7.8875064,41.1415848],[-7.8875031,41.1418788],[-7.8874984,41.1419871],[-7.8874877,41.1421112],[-7.8874732,41.1422238],[-7.8874625,41.142315],[-7.8874374,41.1424225],[-7.8873932,41.1425995],[-7.8873626,41.1427127],[-7.8872016,41.1431788],[-7.8866825,41.1442227],[-7.886452,41.1446174],[-7.8863661,41.1447419],[-7.8862569,41.1448969],[-7.885913,41.1452867],[-7.8849602,41.1463349],[-7.884837,41.1464995],[-7.8847595,41.1466122],[-7.8846594,41.146793],[-7.8845761,41.1469612],[-7.8844565,41.1473558],[-7.8842722,41.1481496],[-7.8842275,41.1483076],[-7.8841845,41.1484401],[-7.8841013,41.1486208],[-7.8839967,41.1488055],[-7.8838818,41.1489819],[-7.8834081,41.1496135],[-7.8832864,41.1497977],[-7.8831616,41.149999],[-7.8830772,41.1501575],[-7.8830032,41.1503189],[-7.8819502,41.1525793],[-7.8815544,41.1532882],[-7.8801121,41.1552423],[-7.8800162,41.1553746],[-7.8791909,41.1564701],[-7.8788217,41.1568652],[-7.8784197,41.1572688],[-7.8783215,41.1573609],[-7.8781987,41.157462],[-7.8778534,41.157736],[-7.8776932,41.1578494],[-7.8775106,41.1579675],[-7.8772594,41.1581149],[-7.8769726,41.1582736],[-7.8766955,41.1584066],[-7.8763944,41.1585437],[-7.8756562,41.158853],[-7.8734302,41.1597263],[-7.8717397,41.1603891],[-7.8715226,41.1604576],[-7.8712878,41.1605223],[-7.8710373,41.160586],[-7.8708388,41.160631],[-7.870647,41.1606726],[-7.8704717,41.1607066],[-7.8702822,41.1607365],[-7.8700673,41.1607651],[-7.8698549,41.1607887],[-7.869676,41.1608067],[-7.8694339,41.1608215],[-7.8686825,41.1608188],[-7.8678173,41.1607977],[-7.8665346,41.1607664],[-7.8657354,41.1607419],[-7.8655704,41.1607361],[-7.8653595,41.1607298],[-7.8649322,41.1606795],[-7.8645228,41.1606021],[-7.8640975,41.1604964],[-7.863791,41.1604166],[-7.8635034,41.1603415],[-7.8629206,41.1601914],[-7.8618236,41.1599141],[-7.8606334,41.1596488],[-7.8595916,41.1594253],[-7.8560464,41.1586806],[-7.8523838,41.1578188],[-7.850707,41.1574185],[-7.8494035,41.1571134],[-7.8487041,41.1569868],[-7.8459609,41.1566428],[-7.8431645,41.1562725],[-7.8381321,41.1555865],[-7.8364462,41.155381],[-7.835689,41.1552498],[-7.8350994,41.1551124],[-7.8346641,41.1549474],[-7.8321742,41.1538211],[-7.8315205,41.1535982],[-7.8311263,41.1535031],[-7.830862,41.1534531],[-7.8305838,41.1534185],[-7.8303231,41.1533999],[-7.8292251,41.1533738],[-7.8287925,41.153331],[-7.828524,41.1532989],[-7.8283759,41.1532779],[-7.8282225,41.1532535],[-7.8280861,41.1532296],[-7.8279118,41.1531978],[-7.8277402,41.153165],[-7.827595,41.1531356],[-7.8274546,41.1531037],[-7.8272875,41.153063],[-7.8271427,41.1530233],[-7.8270074,41.1529845],[-7.8268724,41.1529413],[-7.8267815,41.1529104],[-7.8266855,41.1528754],[-7.826501,41.1528001],[-7.8264013,41.1527569],[-7.8263031,41.1527113],[-7.826216,41.1526692],[-7.8261244,41.152622],[-7.8260383,41.152575],[-7.8258564,41.1524711],[-7.8256531,41.152348],[-7.8253938,41.152185],[-7.8225085,41.1503717],[-7.8223034,41.1502436],[-7.8220449,41.1500948],[-7.8217902,41.1499562],[-7.8215086,41.1498136],[-7.8212498,41.1496841],[-7.8202169,41.149184],[-7.8198342,41.1490351],[-7.8193248,41.1488738],[-7.8189531,41.1487907],[-7.8185712,41.1487402],[-7.8181622,41.1487159],[-7.8166615,41.1487128],[-7.815376,41.1487446],[-7.8146307,41.1488234],[-7.814047,41.1489367],[-7.8131243,41.1491964],[-7.8125164,41.1494275],[-7.8120833,41.1496494],[-7.8116685,41.1499188],[-7.8112815,41.1502328],[-7.8099317,41.1514642],[-7.8096338,41.1518224],[-7.8093868,41.1521987],[-7.8092682,41.152455],[-7.8091745,41.1528078],[-7.809131,41.153291],[-7.8090662,41.1543768],[-7.808961,41.154843],[-7.8088488,41.1551547],[-7.8087169,41.1554143],[-7.8083471,41.156104],[-7.8081957,41.1564233],[-7.8076363,41.1575076],[-7.8071712,41.1583655],[-7.8069356,41.1588725],[-7.8067524,41.1593743],[-7.8065044,41.1602737],[-7.8063677,41.1606922],[-7.8062349,41.1609412],[-7.8060339,41.1613016],[-7.8057625,41.1617555],[-7.8052675,41.1623964],[-7.8051475,41.1625308],[-7.8046216,41.1631201],[-7.8042905,41.1634419],[-7.8042291,41.1635017],[-7.8037155,41.1639436],[-7.8024182,41.1650155],[-7.8021899,41.1651577],[-7.8018719,41.1653595],[-7.8016638,41.1654677],[-7.8013585,41.1656264],[-7.8010871,41.1657391],[-7.8006319,41.1658782],[-7.800506,41.1659124],[-7.8001276,41.1660153],[-7.7991269,41.1662549],[-7.798718,41.1663368],[-7.7986154,41.1663548],[-7.7985397,41.1663671],[-7.7984555,41.1663779],[-7.798365,41.1663849],[-7.7982776,41.1663891],[-7.7981841,41.1663909],[-7.797837,41.1663836],[-7.7975172,41.1663749],[-7.7974355,41.1663715],[-7.7973399,41.1663657],[-7.7972369,41.1663566],[-7.7971059,41.1663416],[-7.7969857,41.1663242],[-7.7968812,41.1663082],[-7.7967733,41.1662874],[-7.7966567,41.1662649],[-7.7965363,41.1662397],[-7.7964044,41.1662097],[-7.7962625,41.1661749],[-7.7961263,41.1661391],[-7.7956714,41.1660201],[-7.7951033,41.1658722],[-7.7939925,41.1655808],[-7.7938945,41.1655547],[-7.7937982,41.1655276],[-7.7936973,41.1654946],[-7.7935124,41.1654216],[-7.7934063,41.165375],[-7.7933023,41.1653272],[-7.7931934,41.1652735],[-7.7930916,41.1652205],[-7.7929032,41.1651156],[-7.792803,41.1650575],[-7.7926892,41.1649849],[-7.7925837,41.1649151],[-7.7896404,41.1629006],[-7.7866212,41.1608288],[-7.7863272,41.1606213],[-7.7861137,41.160474],[-7.785785,41.1602442],[-7.785521,41.1600467],[-7.7852958,41.1598711],[-7.7849669,41.1595788],[-7.784889,41.1595125],[-7.7848144,41.1594502],[-7.7847421,41.1593921],[-7.7836522,41.1585519],[-7.7833008,41.1582843],[-7.7832167,41.1582231],[-7.7831389,41.1581668],[-7.7830497,41.1581033],[-7.7829533,41.1580366],[-7.7828568,41.1579706],[-7.7827468,41.1578997],[-7.7826587,41.1578454],[-7.7825675,41.1577928],[-7.7824757,41.1577392],[-7.7823941,41.1576922],[-7.7822917,41.1576376],[-7.7821816,41.1575792],[-7.7820641,41.1575188],[-7.7819465,41.1574606],[-7.7818093,41.1573978],[-7.7816802,41.1573417],[-7.7815639,41.1572948],[-7.7814477,41.1572501],[-7.7813247,41.157205],[-7.7811986,41.1571629],[-7.7811072,41.1571322],[-7.7810142,41.1571015],[-7.7809391,41.1570758],[-7.7808647,41.1570464],[-7.7807786,41.1570111],[-7.7804309,41.1568666],[-7.7799665,41.1566921],[-7.7797065,41.1565843],[-7.7787356,41.1561853],[-7.7783827,41.1560488],[-7.7776695,41.1557672],[-7.7774772,41.1556982],[-7.77733,41.1556482],[-7.7771354,41.1555915],[-7.7769202,41.1555346],[-7.7767148,41.155485],[-7.7765242,41.1554443],[-7.7763078,41.1554005],[-7.7761055,41.1553651],[-7.7758688,41.1553296],[-7.7756697,41.1553042],[-7.7754718,41.1552804],[-7.7752719,41.1552595],[-7.7750952,41.1552463],[-7.7749299,41.1552385],[-7.7747631,41.1552328],[-7.7745659,41.1552299],[-7.7736775,41.15524],[-7.7718373,41.1552558],[-7.7716792,41.1552566],[-7.7714989,41.1552591],[-7.7708653,41.1552586],[-7.7699501,41.1552773],[-7.7696998,41.1552842],[-7.7694252,41.1552789],[-7.7692401,41.1552753],[-7.7686847,41.1552116],[-7.7680956,41.1551055],[-7.7658737,41.1545673],[-7.7646568,41.1542939],[-7.7644692,41.1542517],[-7.7636313,41.1541049],[-7.7605129,41.1536813],[-7.7597815,41.153572],[-7.7593803,41.1535121],[-7.7582632,41.1532419],[-7.7533103,41.1517456],[-7.7521169,41.1513878],[-7.7509779,41.1511476],[-7.7503889,41.1510107],[-7.7497373,41.1507992],[-7.7491316,41.1505589],[-7.7458746,41.1490232],[-7.7452836,41.1487813],[-7.7449041,41.1486641],[-7.7443833,41.1485418],[-7.7439175,41.1484588],[-7.7436091,41.1484271],[-7.7431965,41.1484097],[-7.7426946,41.1483947],[-7.7424532,41.1484036],[-7.741592,41.1484327],[-7.7412937,41.1484372],[-7.7409931,41.1484325],[-7.7406454,41.1484152],[-7.7402104,41.1483947],[-7.7397586,41.148357],[-7.739347,41.1482989],[-7.7389981,41.1482395],[-7.7386717,41.1481671],[-7.7383708,41.1480842],[-7.7380589,41.1479786],[-7.7377639,41.1478798],[-7.737454,41.1477873],[-7.7371704,41.1477187],[-7.7369409,41.1476679],[-7.7367454,41.1476298],[-7.7360014,41.1474855],[-7.7336021,41.1470811],[-7.7331915,41.1469967],[-7.7326421,41.1468837],[-7.7319123,41.1466591],[-7.7307617,41.1463051],[-7.7304791,41.1462182],[-7.729821,41.1460746],[-7.7272967,41.1457707],[-7.7237802,41.1455533],[-7.7212028,41.1453981],[-7.7202485,41.145403],[-7.719146,41.1454349],[-7.719034,41.1454381],[-7.7169478,41.1454963],[-7.7162855,41.1454743],[-7.7158088,41.1454294],[-7.715494,41.1453972],[-7.7112635,41.1449449],[-7.710623,41.1448487],[-7.7096516,41.1446491],[-7.7091674,41.1445875],[-7.7085102,41.1445663],[-7.7075628,41.1445535],[-7.7071313,41.1445225],[-7.7066176,41.1444385],[-7.7061911,41.1443363],[-7.7057366,41.1441831],[-7.7043235,41.143639],[-7.7037872,41.1434589],[-7.7030891,41.1432705],[-7.6997837,41.1426818],[-7.6989911,41.1425391],[-7.6981884,41.1424457],[-7.6976341,41.1424605],[-7.6969309,41.1425653],[-7.696395,41.1427483],[-7.6959782,41.1429386],[-7.6956754,41.1430973],[-7.694749,41.1437197],[-7.6932837,41.1446482],[-7.6925225,41.1451848],[-7.6921786,41.1455212],[-7.6919166,41.1458243],[-7.6916486,41.1462263],[-7.6906712,41.1479792],[-7.6895835,41.1501715],[-7.6894159,41.1505093],[-7.689107,41.1510627],[-7.6889211,41.1513799],[-7.688873,41.1514598],[-7.688824,41.1515339],[-7.6887194,41.1516802],[-7.6884702,41.1519935],[-7.6883693,41.1521036],[-7.688033,41.1524407],[-7.6878953,41.1525787],[-7.6877488,41.1527113],[-7.68743,41.1529961],[-7.6870084,41.153308],[-7.6866854,41.1535184],[-7.6861742,41.1538089],[-7.6860189,41.1538875],[-7.6853916,41.1542323],[-7.6846352,41.1545288],[-7.6816245,41.1552793],[-7.680857,41.1555655],[-7.6807105,41.1556252],[-7.6790896,41.1562852],[-7.6760894,41.1577816],[-7.6754721,41.1580497],[-7.6737333,41.1586733],[-7.6731821,41.1589557],[-7.6726542,41.1592938],[-7.6719413,41.1598622],[-7.6713785,41.1602415],[-7.670765,41.1605816],[-7.6703622,41.1608049],[-7.669175,41.1614588],[-7.6679991,41.1622549],[-7.6675143,41.1625267],[-7.6669773,41.162749],[-7.6648813,41.1633619],[-7.6640709,41.1635138],[-7.6631573,41.1636369],[-7.6621618,41.1637018],[-7.6600392,41.163732],[-7.658215,41.1637541],[-7.6580034,41.1637449],[-7.6576343,41.1637216],[-7.6570237,41.163633],[-7.6564925,41.1634997],[-7.6555172,41.163255],[-7.6531082,41.1626167],[-7.6524738,41.1624764],[-7.6482476,41.1618264],[-7.6474464,41.1617032],[-7.6466967,41.1615436],[-7.644431,41.1610634],[-7.6440902,41.1609897],[-7.643788,41.160921],[-7.6421088,41.1605225],[-7.6414294,41.1604194],[-7.6395903,41.1602748],[-7.6377143,41.1599471],[-7.6366882,41.1598613],[-7.6341807,41.1596516],[-7.633296,41.1596544],[-7.6281366,41.1600465],[-7.6274838,41.1601579],[-7.6269399,41.1603015],[-7.6264703,41.1605126],[-7.6253756,41.1611285],[-7.6248723,41.1613636],[-7.6242304,41.1615779],[-7.6216704,41.1620808],[-7.6212837,41.1621359],[-7.6208957,41.1621709],[-7.6178515,41.1622154],[-7.6162659,41.162295],[-7.6143796,41.1623836],[-7.6139057,41.1623863],[-7.61348,41.162355],[-7.6132799,41.1623294],[-7.6130914,41.1623053],[-7.6126841,41.1622246],[-7.6122697,41.1621305],[-7.6112414,41.1618971],[-7.6109774,41.1618364],[-7.6104706,41.16172],[-7.6088555,41.1613471],[-7.6075487,41.1610454],[-7.606681,41.160819],[-7.6043221,41.1601319],[-7.6032354,41.1597682],[-7.6024529,41.1595729],[-7.6021919,41.1595078],[-7.6002994,41.1591049],[-7.5944598,41.1578761],[-7.5937014,41.157773],[-7.5916211,41.1575951],[-7.5910543,41.157587],[-7.5908733,41.1575972],[-7.5903269,41.1576282],[-7.5897221,41.1577227],[-7.5891719,41.1578744],[-7.588654,41.158062],[-7.5858111,41.1592428],[-7.5845864,41.1598072],[-7.5840615,41.160015],[-7.5834353,41.1601637],[-7.5822315,41.1602738],[-7.5816371,41.160324],[-7.5797896,41.1604892],[-7.5787047,41.1605861],[-7.5774594,41.1607071],[-7.5771846,41.1607448],[-7.5769645,41.1607956],[-7.5767778,41.1608494],[-7.5765944,41.160909],[-7.5764111,41.1609868],[-7.5762392,41.1610666],[-7.5760979,41.1611421],[-7.5759689,41.1612224],[-7.5757784,41.161359],[-7.5754516,41.1616494],[-7.5752138,41.161927],[-7.5749744,41.1624194],[-7.5748573,41.1628943],[-7.5746527,41.1637244],[-7.574391,41.1642377],[-7.5740946,41.1646202],[-7.5740324,41.1647004],[-7.5733922,41.1653376],[-7.5725746,41.1660627],[-7.5722213,41.1663404],[-7.5721595,41.166389],[-7.571777,41.1666896],[-7.5715455,41.1668336],[-7.5712244,41.1670332],[-7.5706951,41.1672807],[-7.5705784,41.1673208],[-7.5700858,41.1674904],[-7.5696482,41.167641],[-7.5692815,41.1677671],[-7.5685789,41.1680089],[-7.5681685,41.1681465],[-7.5677454,41.1682957],[-7.5673917,41.1684464],[-7.5668152,41.168692],[-7.5661597,41.1690778],[-7.5648424,41.1698866],[-7.5637049,41.1705845],[-7.5624916,41.1713412],[-7.5592763,41.1733465],[-7.5587254,41.1736312],[-7.558423,41.1737594],[-7.5573251,41.1742249],[-7.5566904,41.1747007],[-7.5563074,41.1751972],[-7.5554553,41.1765834],[-7.5552985,41.176804],[-7.5547179,41.1776219],[-7.5538735,41.1788498],[-7.5535494,41.1793211],[-7.5527973,41.1808364],[-7.552494,41.1814476],[-7.5518799,41.1833022],[-7.5515163,41.185051],[-7.5513707,41.1855466],[-7.5511228,41.1864075],[-7.5504471,41.1887535],[-7.5502282,41.1892425],[-7.5500857,41.1894612],[-7.5499621,41.1896295],[-7.5498641,41.1897399],[-7.5495916,41.1899888],[-7.5493723,41.1901177],[-7.5490892,41.1902668],[-7.5489834,41.1903181],[-7.5484764,41.1905358],[-7.548216,41.1906325],[-7.5479763,41.1906976],[-7.5478559,41.1907262],[-7.5474377,41.1907921],[-7.5469213,41.1908017],[-7.5466486,41.1907729],[-7.546437,41.1907384],[-7.5461812,41.1906834],[-7.5458078,41.1905854],[-7.5451436,41.1903777],[-7.5443774,41.1901391],[-7.5442275,41.1900919],[-7.5434284,41.1898415],[-7.5429563,41.1896935],[-7.5420635,41.189412],[-7.5414435,41.1892142],[-7.5402255,41.1888126],[-7.53939,41.1884488],[-7.5389013,41.188193],[-7.538603,41.1880292],[-7.5381344,41.1877253],[-7.5373353,41.1871582],[-7.5365912,41.1866302],[-7.5352135,41.1856371],[-7.5351248,41.1855772],[-7.5345789,41.1852542],[-7.5345704,41.1852502],[-7.5339629,41.1849642],[-7.5338416,41.1849176],[-7.5319908,41.1842066],[-7.5296723,41.1833306],[-7.5290715,41.1830696],[-7.5280914,41.1825493],[-7.5274354,41.1821669],[-7.5264666,41.1817329],[-7.5256145,41.1814548],[-7.5248446,41.1813373],[-7.5241013,41.1813384],[-7.5236173,41.1814103],[-7.5235659,41.1814253],[-7.5231078,41.1815595],[-7.5230532,41.1815801],[-7.5226337,41.181738],[-7.5222773,41.1819179],[-7.5222095,41.1819663],[-7.5219412,41.182158],[-7.5210959,41.1828638],[-7.5203665,41.183463],[-7.5203368,41.1834911],[-7.5196683,41.1841243],[-7.518769,41.1850509],[-7.5184151,41.1854851],[-7.5181734,41.1859546],[-7.5179035,41.1869545],[-7.5174519,41.1886276],[-7.51733,41.1889756],[-7.5171153,41.1893633],[-7.5161548,41.1907175],[-7.5158824,41.1912281],[-7.5152523,41.1925135],[-7.514943,41.19297],[-7.5145195,41.1933725],[-7.5139379,41.1937658],[-7.5124634,41.1946302],[-7.5120537,41.1949088],[-7.5115458,41.1954133],[-7.5113308,41.1957861],[-7.5108809,41.196648],[-7.510578,41.1971053],[-7.5104566,41.1972362],[-7.5102292,41.1974736],[-7.5099418,41.1976808],[-7.509623,41.1978676],[-7.5092042,41.1980729],[-7.5081512,41.1984541],[-7.5074159,41.1986858],[-7.5063864,41.1990103],[-7.5058647,41.199213],[-7.5044675,41.1998729],[-7.5033611,41.2003253],[-7.5027801,41.2005243],[-7.5023617,41.2006243],[-7.5019491,41.2006784],[-7.5005697,41.2007716],[-7.4992507,41.2009805],[-7.4984435,41.2010347],[-7.4973581,41.2010467],[-7.497092,41.2010405],[-7.4968279,41.2010235],[-7.4965713,41.200995],[-7.4963064,41.2009517],[-7.4960418,41.2009001],[-7.4950039,41.2006905],[-7.4945583,41.2006452],[-7.4941086,41.2006424],[-7.4924311,41.2007282],[-7.4917528,41.2006895],[-7.4904822,41.2004856],[-7.4889332,41.2002371],[-7.4865272,41.1997987],[-7.4859661,41.1997347],[-7.4825637,41.199548],[-7.4820689,41.1995462],[-7.4815726,41.199582],[-7.4802268,41.1998066],[-7.4795599,41.1998572],[-7.4764832,41.1999247],[-7.4743524,41.2001452],[-7.4733977,41.2002824],[-7.47249,41.2004995],[-7.471637,41.20078],[-7.4704129,41.2011824],[-7.4664895,41.2024952],[-7.4658717,41.2027801],[-7.4650423,41.2032789],[-7.4648661,41.2034067],[-7.4647132,41.2035247],[-7.464579,41.203642],[-7.4644744,41.2037407],[-7.4643345,41.2038821],[-7.46422,41.2040152],[-7.4641228,41.2041398],[-7.4640331,41.2042678],[-7.463033,41.2057506],[-7.4627635,41.2062931],[-7.4624197,41.2070143],[-7.4621375,41.2074638],[-7.4612449,41.2085791],[-7.4609972,41.2091523],[-7.4606934,41.2101575],[-7.4605076,41.2105802],[-7.4603493,41.2108082],[-7.4595011,41.2116837],[-7.4589655,41.2121315],[-7.457341,41.2133616],[-7.4567853,41.2137222],[-7.4552266,41.2145226],[-7.4546078,41.2147702],[-7.453842,41.2150308],[-7.4530287,41.2152219],[-7.4491302,41.215911],[-7.4479699,41.2160739],[-7.4472824,41.2161129],[-7.4466133,41.2161063],[-7.4442908,41.2159569],[-7.4436768,41.2158767],[-7.4431108,41.2157454],[-7.4403412,41.2148445],[-7.4398563,41.2147266],[-7.4379944,41.2143966],[-7.4373675,41.2142504],[-7.4371356,41.2141727],[-7.4367906,41.2140261],[-7.4362091,41.2137888],[-7.435948,41.2136822],[-7.4352844,41.2134081],[-7.4351204,41.2133406],[-7.4346615,41.2131569],[-7.4344021,41.2130496],[-7.4343241,41.2130191],[-7.4342362,41.2129857],[-7.4341435,41.2129523],[-7.4340481,41.2129204],[-7.4339666,41.2128939],[-7.4338787,41.2128672],[-7.433781,41.2128393],[-7.4328158,41.2125621],[-7.4327248,41.2125361],[-7.4326331,41.2125085],[-7.4325391,41.2124767],[-7.4324409,41.2124425],[-7.4323713,41.212418],[-7.4322945,41.2123896],[-7.4321364,41.2123208],[-7.4320512,41.2122801],[-7.4319567,41.2122376],[-7.4300218,41.2112086],[-7.4288577,41.2106081],[-7.4282851,41.2103698],[-7.4270833,41.2099696],[-7.4264323,41.2096854],[-7.4252563,41.2090797],[-7.4251156,41.2090129],[-7.4249789,41.2089512],[-7.4248226,41.2088856],[-7.4246775,41.2088312],[-7.422869,41.2082197],[-7.4226668,41.2081518],[-7.4219003,41.2079031],[-7.421029,41.2076543],[-7.4201174,41.207371],[-7.4189345,41.2069986],[-7.4175096,41.2065668],[-7.416514,41.2062724],[-7.4158237,41.2060654],[-7.4141166,41.2055378],[-7.413963,41.2054826],[-7.4136572,41.2053687],[-7.4133971,41.2052615],[-7.4128801,41.2050442],[-7.4116533,41.2043486],[-7.4108274,41.2038568],[-7.4101833,41.2035094],[-7.4095996,41.2032364],[-7.4078482,41.2024587],[-7.407314,41.2022294],[-7.4065345,41.2020102],[-7.4056662,41.2018051],[-7.4051154,41.2016204],[-7.4045994,41.2013978],[-7.4040166,41.2010705],[-7.4036212,41.2008426],[-7.4032073,41.200604],[-7.402726,41.2003904],[-7.4021809,41.2002216],[-7.4003685,41.1997482],[-7.3983842,41.199085],[-7.3978156,41.1989375],[-7.3949623,41.1983202],[-7.3945893,41.1981949],[-7.3938287,41.1978997],[-7.3928981,41.1975478],[-7.3922108,41.1972067],[-7.3901514,41.1958747],[-7.3893427,41.1951527],[-7.3886893,41.1943974],[-7.3881832,41.1936232],[-7.3877903,41.1928851],[-7.3875507,41.1922233],[-7.3872746,41.1905955],[-7.3857566,41.1857389],[-7.3856139,41.1854502],[-7.3854553,41.1852176],[-7.3849096,41.1845917],[-7.3844632,41.1841637],[-7.3840282,41.1836343],[-7.3834125,41.1826987],[-7.3828476,41.181206],[-7.3821711,41.1800379],[-7.3816786,41.1790016],[-7.3813996,41.1786201],[-7.3809727,41.1782108],[-7.3804965,41.1779077],[-7.3783202,41.1768242],[-7.3779817,41.1766288],[-7.3777777,41.1764802],[-7.3770959,41.1760117],[-7.3763847,41.1755236],[-7.3745864,41.174729],[-7.3739283,41.1743072],[-7.3731807,41.1736413],[-7.3720751,41.1720056],[-7.3718182,41.1714168],[-7.3712526,41.1685775],[-7.3712337,41.1679395],[-7.3713619,41.1674023],[-7.3729064,41.1635519],[-7.3730208,41.1630358],[-7.3730391,41.1626196],[-7.372989,41.1621528],[-7.3728787,41.1617548],[-7.3728171,41.1615775],[-7.3727428,41.1613882],[-7.372651,41.1611832],[-7.3724963,41.1609814],[-7.3722612,41.1607398],[-7.3719608,41.1605158],[-7.3716011,41.1603177],[-7.3711276,41.1601297],[-7.3706262,41.159978],[-7.3700895,41.1598417],[-7.3695066,41.1597131],[-7.3646747,41.1587714],[-7.3622609,41.1582713],[-7.3616399,41.1580385],[-7.3612061,41.1577843],[-7.3608521,41.1574719],[-7.360532,41.1570617],[-7.3599348,41.1555642],[-7.359729,41.1552303],[-7.3591754,41.1544423],[-7.3588454,41.1536779],[-7.3586699,41.1528853],[-7.358261,41.1509578],[-7.358042,41.1503147],[-7.357762,41.1496995],[-7.3573146,41.1491007],[-7.3568511,41.1486448],[-7.3564847,41.1483642],[-7.3560411,41.1481363],[-7.355547,41.1479741],[-7.3542563,41.1476596],[-7.3534389,41.1475473],[-7.352525,41.1474712],[-7.3519025,41.1473633],[-7.3510416,41.1470067],[-7.3501708,41.1466132],[-7.34929,41.1463817],[-7.3488176,41.1463092],[-7.3481669,41.1462811],[-7.346831,41.146293],[-7.3464148,41.1462617],[-7.3458692,41.1461977],[-7.3451627,41.1460265],[-7.342942,41.1453888],[-7.3410116,41.1450117],[-7.3396579,41.1448602],[-7.336421,41.1446944],[-7.332696,41.1445178],[-7.3319094,41.1444997],[-7.3314961,41.1445237],[-7.3310439,41.1445829],[-7.3305175,41.1447129],[-7.330116,41.1448551],[-7.3286084,41.1453891],[-7.3281839,41.145507],[-7.3279962,41.145547],[-7.3277497,41.1455836],[-7.3274845,41.1456063],[-7.3272804,41.1456132],[-7.3270904,41.1456076],[-7.3268927,41.1455944],[-7.3266806,41.1455712],[-7.3265002,41.1455346],[-7.3262756,41.1454772],[-7.3260684,41.1454126],[-7.3258658,41.1453368],[-7.3256924,41.145257],[-7.3255192,41.145165],[-7.3253319,41.1450499],[-7.3251649,41.1449361],[-7.3250068,41.1448008],[-7.3248668,41.1446598],[-7.3246954,41.144458],[-7.3245666,41.1442859],[-7.324466,41.1441405],[-7.3240671,41.1435445],[-7.3236587,41.1431141],[-7.3232452,41.1428217],[-7.3227667,41.1425486],[-7.3221347,41.1423214],[-7.3208529,41.1420047],[-7.3201845,41.1419172],[-7.3195454,41.1419135],[-7.3189829,41.1419845],[-7.3185145,41.1420833],[-7.3180699,41.1422479],[-7.3171337,41.1426444],[-7.316027,41.1431137],[-7.3147127,41.1436712],[-7.3142381,41.1438792],[-7.3133918,41.1442458],[-7.3129421,41.1444],[-7.3124664,41.1444957],[-7.3119205,41.1445462],[-7.3111959,41.1445517],[-7.3103148,41.1443808],[-7.3093187,41.1438903],[-7.308685,41.143355],[-7.308435,41.1429264],[-7.3083111,41.1426611],[-7.3081843,41.1422484],[-7.3079719,41.140957],[-7.3078256,41.1405171],[-7.3075313,41.1400312],[-7.3070562,41.1394896],[-7.3065185,41.1390486],[-7.3062246,41.1388705],[-7.3059696,41.1387504],[-7.305283,41.1384623],[-7.3046744,41.1382357],[-7.304087,41.1380547],[-7.3032814,41.137898],[-7.30245,41.1378423],[-7.3016967,41.1378713],[-7.3000148,41.1380968],[-7.2994101,41.1381045],[-7.298736,41.1380336],[-7.2980184,41.1378706],[-7.2960094,41.1374429],[-7.2956157,41.1373639],[-7.2952542,41.1373122],[-7.2937266,41.1371876],[-7.2930878,41.1370579],[-7.2925652,41.1368837],[-7.2913888,41.1363944],[-7.2909173,41.1362525],[-7.2903139,41.136163],[-7.2893354,41.1361038],[-7.2889609,41.1360645],[-7.2886997,41.1360316],[-7.2878989,41.1358651],[-7.287452,41.1357571],[-7.2867852,41.1356174],[-7.2865086,41.1355689],[-7.2857629,41.1354329],[-7.2855546,41.1353749],[-7.2843731,41.1349192],[-7.283845,41.1348032],[-7.2833508,41.1347426],[-7.2827463,41.1347013],[-7.2820913,41.1347263],[-7.2814393,41.134815],[-7.2808776,41.1349545],[-7.2798971,41.1353216],[-7.2786485,41.1358235],[-7.2782073,41.1360115],[-7.2777371,41.1362869],[-7.2775,41.1364573],[-7.2758476,41.1378987],[-7.2752063,41.1383457],[-7.2747927,41.1385364],[-7.2732628,41.1390728],[-7.2727132,41.1392165],[-7.2714797,41.1394501],[-7.270644,41.1396403],[-7.2699272,41.1398855],[-7.269145,41.1402297],[-7.2680831,41.1407992],[-7.2675114,41.1410503],[-7.2668214,41.141224],[-7.2662631,41.1413135],[-7.2656933,41.1413431],[-7.2652169,41.1413256],[-7.2636435,41.1411307],[-7.2631757,41.1411078],[-7.2628655,41.141119],[-7.2627489,41.1411271],[-7.2626407,41.1411382],[-7.2625252,41.1411527],[-7.2624245,41.1411678],[-7.2623324,41.1411847],[-7.2622379,41.1412036],[-7.2621441,41.1412238],[-7.2620403,41.1412488],[-7.2619426,41.1412739],[-7.2618494,41.1413],[-7.261349,41.1414439],[-7.2605894,41.1416648],[-7.2596614,41.1419681],[-7.2581173,41.1426795],[-7.257387,41.1428678],[-7.2566853,41.1429361],[-7.2561181,41.1429322],[-7.2548622,41.1428268],[-7.2541201,41.1428342],[-7.2534289,41.1429096],[-7.2513717,41.1432317],[-7.2503759,41.1434108],[-7.249567,41.1435102],[-7.248923,41.1435328],[-7.2482318,41.1434733],[-7.2471737,41.1432294],[-7.2466332,41.1430741],[-7.2461136,41.1428726],[-7.245608,41.1425882],[-7.2446533,41.1419094],[-7.2443539,41.1417229],[-7.2438208,41.1414466],[-7.240782,41.1402438],[-7.2393132,41.1397821],[-7.2367659,41.139066],[-7.2360325,41.1388585],[-7.2326861,41.1376195],[-7.2317011,41.1372321],[-7.2316094,41.137194],[-7.2315177,41.137156],[-7.2313629,41.1370852],[-7.2303852,41.1366153],[-7.2302418,41.1365513],[-7.2301281,41.1365045],[-7.2295591,41.1362923],[-7.2278527,41.135729],[-7.2259123,41.134995],[-7.2251162,41.1346912],[-7.224572,41.1345798],[-7.2235489,41.1344509],[-7.2226786,41.1343303],[-7.2214558,41.1341501],[-7.221132,41.1341043],[-7.2210135,41.1340886],[-7.2209051,41.134077],[-7.2207977,41.1340663],[-7.2206843,41.1340592],[-7.220577,41.1340565],[-7.220479,41.1340553],[-7.2203596,41.1340564],[-7.220213,41.1340634],[-7.2200813,41.1340737],[-7.2199401,41.1340877],[-7.2198013,41.1341068],[-7.2196588,41.1341311],[-7.2195343,41.1341559],[-7.2185105,41.1343702],[-7.2183223,41.1344011],[-7.2181435,41.1344235],[-7.2179706,41.1344387],[-7.2177972,41.1344469],[-7.2176112,41.1344461],[-7.2174103,41.1344355],[-7.2172016,41.1344193],[-7.2163494,41.134336],[-7.216156,41.1343208],[-7.2159716,41.1343126],[-7.215793,41.1343134],[-7.2156139,41.1343181],[-7.2154376,41.1343264],[-7.2152563,41.1343386],[-7.2150814,41.1343524],[-7.2111687,41.1346622],[-7.2110819,41.1346662],[-7.2109451,41.1346703],[-7.2108454,41.1346717],[-7.210769,41.134672],[-7.2106989,41.1346714],[-7.2105164,41.1346674],[-7.2104338,41.134664],[-7.210303,41.1346556],[-7.2102488,41.1346511],[-7.2101441,41.1346397],[-7.2100939,41.1346334],[-7.2099432,41.1346131],[-7.2097483,41.1345799],[-7.2095712,41.1345442],[-7.2094136,41.1345089],[-7.2089095,41.1343902],[-7.2080348,41.1341029],[-7.2054788,41.1331346],[-7.2040169,41.1325708],[-7.2035652,41.132351],[-7.2031279,41.1320641],[-7.2026994,41.1316651],[-7.2023663,41.131181],[-7.2018116,41.1299448],[-7.2015405,41.1295176],[-7.2012211,41.1291674],[-7.2002372,41.1282378],[-7.1991847,41.1270412],[-7.1987823,41.126683],[-7.1982944,41.1263849],[-7.1965806,41.1255114],[-7.195855,41.1252743],[-7.1951637,41.1251578],[-7.1935163,41.1250308],[-7.1930739,41.1249661],[-7.1919311,41.1247256],[-7.1906974,41.1244433],[-7.1899748,41.1242972],[-7.1862444,41.123858],[-7.1856514,41.1238504],[-7.1850707,41.1239237],[-7.18354,41.124254],[-7.1826834,41.1243592],[-7.1818463,41.1244076],[-7.178584,41.1244902],[-7.1781632,41.1245306],[-7.1776084,41.1246055],[-7.1738668,41.1254052],[-7.1736238,41.1254491],[-7.1734231,41.1254785],[-7.1732361,41.1254985],[-7.1730411,41.1255114],[-7.172847,41.1255139],[-7.1726907,41.1255074],[-7.1725439,41.1254975],[-7.1724309,41.1254854],[-7.1723077,41.1254697],[-7.1721921,41.1254483],[-7.1720811,41.1254216],[-7.1719679,41.1253898],[-7.1718469,41.1253511],[-7.171734,41.1253117],[-7.1705735,41.1248966],[-7.1701581,41.1247537],[-7.1700293,41.1247062],[-7.1699038,41.1246577],[-7.1696659,41.1245671],[-7.1695597,41.1245275],[-7.1694596,41.1244921],[-7.1693524,41.1244575],[-7.1668778,41.1237164],[-7.1664744,41.1236319],[-7.1661684,41.123585],[-7.1649302,41.1234605],[-7.1643809,41.123438],[-7.1637553,41.1234891],[-7.1631079,41.1236449],[-7.1624813,41.1239],[-7.1591519,41.1257241],[-7.1587321,41.1259736],[-7.1584037,41.1262646],[-7.1566578,41.1281201],[-7.1551638,41.129471],[-7.1547032,41.1298358],[-7.1543946,41.1300272],[-7.1540758,41.1301639],[-7.1536321,41.1303178],[-7.1531238,41.1304327],[-7.1514137,41.1306963],[-7.1498225,41.1309337],[-7.1426354,41.1320059],[-7.1419796,41.1320955],[-7.1417847,41.1321221],[-7.1415906,41.1321382],[-7.1414125,41.1321417],[-7.1412267,41.1321393],[-7.1410347,41.1321293],[-7.1406588,41.1320845],[-7.1404588,41.1320502],[-7.1402869,41.1320134],[-7.1401559,41.1319814],[-7.1400461,41.1319502],[-7.1395573,41.1317655],[-7.1390899,41.1315133],[-7.1386572,41.1312065],[-7.1385768,41.1311229],[-7.1384154,41.1309488],[-7.1383055,41.13082],[-7.1382052,41.130685],[-7.1368887,41.1288059]]}}]}
