{"type":"FeatureCollection","metadata":{"route":"Dublin–Rosslare: Dublin Connolly to Rosslare Europort","source":"OpenStreetMap contributors","sourceUrl":"https://www.openstreetmap.org/relation/16753439","license":"ODbL 1.0","geometryVersion":"2026-08-12","osmRelationIds":[16753439],"osmWayIds":[1543215887,1425917002,4934569,1204392038,354358285,354357195,354357192,354357190,354357188,353638523,353638525,353638520,353638518,353638517,340514364,340514367,340514375,340514377,1278547067,255439488,77008471,370197358,246065297,246065298,246064394,246064395,370197364,370197363,370197360,4934554,349890623,77008473,370200875,4934555,4934556,4934557,4934558,4934559,3819250,34886350,1463601329,384851980,4934595,10497826,10497827,10497829,372832736,4934496,4934497,290564417,311960795,338390212,311960796,311960797,311960794,317101104,311960793,372701526,368505014,317312613,317312614,311960791,311960792,266634893,352859881,352859880,299275712,299275711,311960790,311960786,708947264,708947263,372345762,323954718,323954717,372189763,323951837,323951836,372345763,437384828,437384829,323951833,323951834,323950210,323950209,372189751,321447891,321447892,321447888,321447887,321447886,321447884,321377588,321377589,1273195065,308289362,308289364,266634894,266592219,266592220,153237693,299275707,266611489,494791590,266611491,370204589,370204588,266611483,86498698,86498718,372976185,44708447,21572641,266581823,10423716,266606357,405878200,20797230,7991728,272484948,272484949,20797707,20798626,20798627,1543097374,20798628,20798629,20798630,20798632,20799753,20799754,20799757,86500224,86500223,86500225,266603315,266606354,1273195062,384851978,266603323,266603318,1543215888,375934999,266603331,387930229,387930228,387930223,387930224,321214082,113800999,24393949,765641915,28158463,765641916,765641917,24934358,220248441,143896911,143896903,360409556,765641919,360409557,387924506,765641920,387924505,28616128,27889197,143896908,143896910,28615851,1545226025,1545226026,28992854,387921626,387921627,387921620,387921619,108200076,108200091,387911287,387911288,34685482,765641921,1530992454,1530992455,34685483,122227671,122227668,765641922,360412248,765641925,765641924,360412247,147694012,765641926,765641927,147694016,1331107676,1331107677,685127223,685127206,685127211,685127231,147694010,147694026,387843169,387843170,101353175,101353211,1530899179,1530899178,147694003,1530899180,1530899181,147694027,34316189,34316188,387842144,387842145,387842141,387842142,765641928,387842139,387841405,387841406,34316254,34316255,765641929,1530899184,1530899183,1329044111,1329044106,136114649,136114652,136114650,136114651,765641930,33372614,147918295,765641931,407483780,1530912546,1530912547,1530912548,1530912545,765641932,765641933,407483781,387841384,387841385,387838874,765641934,387838883,33372621,27920166,360416285,27920168,765641935,765641936,27920172,27920171,1382726463,1382726457,220029342,220029344,30889063,136223538,136223537,30889171,186985751,186985750,186985797,186985796,387759391,387759392,30889172,136922473,31307848,31307847,185797078,185803499,185800535,764376805,154686781,154686782,31293980,31307664,136922471,136922467,31307663,31307662,764376806,144143663,144143661,362186651,362186650,764376807,185721137,764376809,275794723,275794720,31293978,28640108,387757111,387757110,387757102,387757103,387757100,387757101,28768837,28768838,133779074,619131839,619131840,164113742,387755535,387755536,387754871,387754872,387754853,387754852,1006437578,1006437579,387754849,387754850,387754403,387754404,190522730,190522729,1534373509,1534373510,164124967,164124966,387754388,387754389,29122647,189439016,1530471685,1530471684,764376810,189439015,190678332,190678331,191115002,191115001,764376811,339982438,97308485,97308501,53332428,53332429,1014174431,1014174429,97305299,137277158,764376816,137277156,387713656,387713657,764376817,387713654,387713655,35023117,35023118,764376818,200660571,200660570,387711615,387711616,764376819,200660568,200660569,187806008,764376820,187806007,225714386,225714383,764376821,387709226,387709230,764376822,225714385,764376823,225714382,35022237,35022238,35022225,35022224,35022222,35022223,764376824,225816431,466129083,764376825,226756695,227396341,227493697,232280679,33783943,33783942,232319348,232319351,1312575553,1312575554,87443515,87443512,87443513,36734230,26568009,36734228,89250842,89250867,407473986,407473985,407473982,387708922,387708917,407195610,407189820,764376827,87602307,87602306,513157209,387697624,764376828,764376829,387697623,87721945,87721896,87787241,764376830,87787242,329379129,329379128,764376831,764376832,764376833,329311165,329311166,137276110,137276112,339919280,764376834,193391364,339919281,764376836,764376837,321511699,1234257025,764376838,26568010],"approximateLengthKm":167.86},"features":[{"type":"Feature","properties":{"name":"Dublin–Rosslare","source":"OpenStreetMap contributors"},"geometry":{"type":"LineString","coordinates":[[-6.2475985,53.3526804],[-6.2477687,53.3526209],[-6.2479799,53.3525588],[-6.2482111,53.3525006],[-6.2485909,53.352421],[-6.2487339,53.3523915],[-6.2488061,53.3523767],[-6.2489606,53.3523342],[-6.2490735,53.3522962],[-6.2493285,53.3522065],[-6.2496762,53.3520802],[-6.2500159,53.3519435],[-6.2501446,53.3518806],[-6.2503645,53.3517688],[-6.2508197,53.3515309],[-6.2508422,53.3515186],[-6.2510557,53.3514023],[-6.2516035,53.3511183],[-6.2527222,53.3505282],[-6.2528639,53.3504524],[-6.2531994,53.3502622],[-6.2532937,53.3502051],[-6.2534358,53.3501187],[-6.2536866,53.349945],[-6.2538356,53.3498038],[-6.2539146,53.3497288],[-6.2541399,53.349471],[-6.2542438,53.3493387],[-6.2543713,53.3491215],[-6.2544425,53.3490012],[-6.2545503,53.3487096],[-6.2545801,53.34863],[-6.2546169,53.3484121],[-6.2546095,53.3481652],[-6.2546075,53.3481133],[-6.254596,53.3479831],[-6.2545757,53.3478729],[-6.2545433,53.3477406],[-6.2545199,53.3476587],[-6.2544893,53.3475408],[-6.2544099,53.3473683],[-6.2543622,53.3472722],[-6.254317,53.3471954],[-6.2542816,53.3471318],[-6.254231,53.3470508],[-6.2541615,53.3469565],[-6.2540468,53.3468212],[-6.2539265,53.3466883],[-6.2538235,53.3465896],[-6.2536693,53.3464551],[-6.2535379,53.3463486],[-6.2532258,53.3460991],[-6.2530871,53.345989],[-6.2529448,53.3458793],[-6.2528382,53.3457848],[-6.2524404,53.3454394],[-6.2523003,53.345321],[-6.2521071,53.3451461],[-6.2519428,53.3449989],[-6.2516077,53.3447014],[-6.2512402,53.344389],[-6.2511904,53.3443487],[-6.2511401,53.3443119],[-6.2510532,53.3442533],[-6.2509227,53.3441692],[-6.2507406,53.3440594],[-6.2506116,53.3439945],[-6.2504923,53.3439398],[-6.2502973,53.3438542],[-6.2501134,53.3437846],[-6.2499654,53.3437379],[-6.2497828,53.3436814],[-6.2493929,53.3435745],[-6.2492232,53.3435328],[-6.2484727,53.3433603],[-6.2482695,53.3433178],[-6.247174,53.3430752],[-6.2466221,53.3429447],[-6.2464508,53.3429032],[-6.2461848,53.3428415],[-6.2460326,53.3428045],[-6.2454538,53.3426437],[-6.2451159,53.3425502],[-6.2449673,53.3425071],[-6.2447239,53.342431],[-6.2440843,53.3422234],[-6.2439594,53.3421818],[-6.2436199,53.3420657],[-6.2423029,53.341606],[-6.2415205,53.3413115],[-6.2413723,53.3412516],[-6.2410171,53.341108],[-6.2408634,53.3410413],[-6.2405199,53.3409021],[-6.2403599,53.3408347],[-6.2394664,53.3404368],[-6.2393945,53.3404021],[-6.23923,53.3403284],[-6.2390828,53.3402618],[-6.2389589,53.3402051],[-6.2383443,53.3399308],[-6.237912,53.3397327],[-6.2370934,53.3393611],[-6.2367172,53.3391709],[-6.2365876,53.3391029],[-6.2359657,53.3387812],[-6.2354582,53.3385143],[-6.2348919,53.3382078],[-6.2344212,53.3379411],[-6.2338993,53.337627],[-6.2337779,53.3375518],[-6.2333628,53.3372855],[-6.2331807,53.337167],[-6.2327754,53.3368851],[-6.2312747,53.3357568],[-6.2307826,53.3353983],[-6.23039,53.3351151],[-6.229295,53.3342529],[-6.2290631,53.3340649],[-6.2289043,53.3339457],[-6.2281653,53.3333779],[-6.2279905,53.3332447],[-6.2279236,53.3331948],[-6.2279125,53.3331863],[-6.2278178,53.3331138],[-6.227789,53.3330919],[-6.2277027,53.3330304],[-6.2270187,53.3325082],[-6.2257822,53.3315552],[-6.2244735,53.3305773],[-6.2238285,53.3300814],[-6.2233834,53.3297425],[-6.223272,53.3296489],[-6.2231031,53.3295221],[-6.2227813,53.3292806],[-6.2219735,53.3286591],[-6.2216865,53.3284332],[-6.2211205,53.3280039],[-6.2209781,53.3278978],[-6.2208188,53.3277838],[-6.2203143,53.3274018],[-6.2197973,53.3270078],[-6.2193105,53.3266349],[-6.2188075,53.3262535],[-6.218554,53.326057],[-6.2180249,53.3256546],[-6.2176996,53.3254069],[-6.2171655,53.3249989],[-6.2168115,53.3247307],[-6.2160835,53.3241754],[-6.2157344,53.3239086],[-6.2150549,53.3233903],[-6.2146356,53.3230727],[-6.2141521,53.3227075],[-6.2135268,53.3222434],[-6.2129991,53.3218573],[-6.2122209,53.3212963],[-6.2117415,53.3209546],[-6.2115253,53.3208037],[-6.2112804,53.3206357],[-6.2108252,53.3203237],[-6.2101833,53.3198856],[-6.2097864,53.3196155],[-6.2093349,53.3193101],[-6.2088832,53.3190095],[-6.2084236,53.318707],[-6.2078912,53.3183566],[-6.2073014,53.3179643],[-6.2067725,53.3176159],[-6.2059731,53.3170888],[-6.2055669,53.3168204],[-6.2050095,53.3164513],[-6.2049457,53.3164107],[-6.2041953,53.3159146],[-6.2036867,53.3155773],[-6.2032248,53.3152729],[-6.2026694,53.3149067],[-6.2021376,53.3145534],[-6.2012271,53.3139529],[-6.2007413,53.3136318],[-6.1999749,53.3131268],[-6.1992474,53.3126459],[-6.1985814,53.3122039],[-6.1974311,53.3114445],[-6.1963313,53.3107202],[-6.1951817,53.310004],[-6.194797,53.3097754],[-6.1939801,53.3093179],[-6.1936073,53.3091149],[-6.1929795,53.3087859],[-6.1925974,53.3085946],[-6.1919648,53.308287],[-6.1914089,53.3080278],[-6.1905795,53.3076574],[-6.1897059,53.3072931],[-6.1873061,53.306317],[-6.185784,53.3057015],[-6.1847826,53.3052961],[-6.1838023,53.3048983],[-6.1822625,53.3042761],[-6.1808682,53.3037096],[-6.1802923,53.303477],[-6.1799379,53.3033352],[-6.1786869,53.3028628],[-6.1785436,53.302811],[-6.1779611,53.3026062],[-6.1772953,53.3023855],[-6.1757225,53.3018935],[-6.1749552,53.3016763],[-6.1743177,53.3015055],[-6.1732176,53.3012309],[-6.1713196,53.3007833],[-6.1709353,53.3006906],[-6.1695732,53.3003649],[-6.1683319,53.3000592],[-6.1676585,53.2998828],[-6.1668334,53.2996591],[-6.1661842,53.2994732],[-6.165567,53.2992904],[-6.1652046,53.2991781],[-6.1643504,53.298909],[-6.1636343,53.2986689],[-6.1629849,53.2984438],[-6.1624847,53.29826],[-6.1619872,53.298065],[-6.1612915,53.2978126],[-6.1604647,53.2975016],[-6.1601915,53.2973996],[-6.1595663,53.2971638],[-6.1590806,53.2969779],[-6.1584529,53.2967421],[-6.1573714,53.2963478],[-6.1570414,53.2962388],[-6.1566631,53.2961234],[-6.1563924,53.2960447],[-6.1561504,53.2959801],[-6.155899,53.295916],[-6.1556281,53.295854],[-6.1552912,53.2957812],[-6.1549349,53.2957101],[-6.154632,53.2956554],[-6.1540179,53.2955628],[-6.1538553,53.2955398],[-6.1536128,53.2955106],[-6.1531581,53.2954659],[-6.1528758,53.2954473],[-6.1525536,53.2954279],[-6.1522837,53.2954145],[-6.1519191,53.2954051],[-6.1515492,53.2954018],[-6.1512271,53.2954068],[-6.1509375,53.2954143],[-6.1506224,53.2954283],[-6.1503865,53.2954423],[-6.1499719,53.2954731],[-6.1488441,53.2955774],[-6.147254,53.2957557],[-6.1465916,53.295832],[-6.1464719,53.2958453],[-6.1450489,53.2960053],[-6.1432584,53.2962067],[-6.1426147,53.2962658],[-6.1424474,53.2962782],[-6.1421165,53.2963002],[-6.1419094,53.2963125],[-6.1415508,53.2963259],[-6.1413186,53.2963329],[-6.1411015,53.2963363],[-6.140952,53.2963356],[-6.1405253,53.2963295],[-6.1402537,53.2963214],[-6.1397871,53.2962959],[-6.1393496,53.2962575],[-6.1389587,53.296209],[-6.1385806,53.2961555],[-6.138383,53.2961233],[-6.1379308,53.2960397],[-6.1375695,53.2959631],[-6.1373693,53.2959157],[-6.1370613,53.2958351],[-6.1370293,53.2958267],[-6.136762,53.29575],[-6.1363965,53.295633],[-6.1361211,53.2955411],[-6.1358642,53.2954475],[-6.1355028,53.2953071],[-6.1351351,53.2951519],[-6.1346512,53.294935],[-6.1344179,53.2948268],[-6.1343676,53.2948021],[-6.1339901,53.2946171],[-6.1331267,53.2941919],[-6.1327519,53.2940108],[-6.1317939,53.2935486],[-6.1311815,53.2932111],[-6.130821,53.2930094],[-6.1300553,53.2924503],[-6.129685,53.2921899],[-6.1294387,53.2920062],[-6.1294009,53.291978],[-6.1290901,53.2917498],[-6.1287463,53.2914597],[-6.1282854,53.2910181],[-6.1281726,53.2909076],[-6.1278808,53.2906341],[-6.1277939,53.2905552],[-6.1276576,53.2904314],[-6.1273492,53.290125],[-6.1272711,53.2900385],[-6.1271904,53.2899357],[-6.1271,53.2898076],[-6.1270431,53.2897125],[-6.1269795,53.2895864],[-6.1269042,53.2893762],[-6.126859,53.289197],[-6.1268352,53.2889725],[-6.1268516,53.2887561],[-6.1268948,53.2885343],[-6.126944,53.2883882],[-6.1269575,53.2883522],[-6.1269775,53.2883048],[-6.1270236,53.2882094],[-6.1270259,53.2882047],[-6.1271391,53.2879901],[-6.1272866,53.2877068],[-6.1274803,53.2873033],[-6.1275608,53.2870797],[-6.1275995,53.2868927],[-6.1276278,53.2866139],[-6.127632,53.2864977],[-6.1276398,53.2862852],[-6.1276502,53.28592],[-6.1276502,53.2856697],[-6.1276502,53.2854061],[-6.1276502,53.2852163],[-6.1276457,53.2848261],[-6.1275891,53.2843237],[-6.1274774,53.2839416],[-6.1273298,53.2836423],[-6.1270885,53.2832949],[-6.1268411,53.2830098],[-6.1265372,53.2827354],[-6.12619,53.282478],[-6.1258175,53.2822455],[-6.1254867,53.28207],[-6.1251604,53.2819275],[-6.124696,53.2817511],[-6.1241886,53.2815843],[-6.1230954,53.2812499],[-6.1162324,53.2791509],[-6.1145375,53.2786399],[-6.1125295,53.2780515],[-6.1113708,53.2777136],[-6.1110883,53.2776244],[-6.1098936,53.2772887],[-6.1091398,53.2771026],[-6.1082419,53.2768745],[-6.1073891,53.2766722],[-6.1070302,53.2765846],[-6.1061764,53.2763764],[-6.1056942,53.2762569],[-6.1047482,53.2760231],[-6.1046453,53.2759977],[-6.1031915,53.2756351],[-6.1010391,53.2751181],[-6.1007969,53.2750518],[-6.1005618,53.2749773],[-6.1001815,53.2748496],[-6.0997391,53.2746764],[-6.099624,53.2746284],[-6.0993551,53.2745095],[-6.0989843,53.2743337],[-6.0986671,53.2741639],[-6.0984113,53.2740171],[-6.0981155,53.2738302],[-6.0978123,53.2736108],[-6.0975575,53.2734039],[-6.0973414,53.2732189],[-6.097153,53.2730403],[-6.0969779,53.2728583],[-6.0968241,53.2726685],[-6.0967215,53.2725216],[-6.0966117,53.2723331],[-6.096531,53.2721542],[-6.0964898,53.2720317],[-6.0964423,53.2718244],[-6.0963697,53.2713585],[-6.0964021,53.2711649],[-6.0964794,53.2709819],[-6.096573,53.2708356],[-6.0967625,53.2705602],[-6.0968708,53.2704209],[-6.0969436,53.2703367],[-6.0970436,53.2702322],[-6.0972116,53.2700797],[-6.0974116,53.2699218],[-6.0975842,53.2698083],[-6.0977674,53.2696969],[-6.0979727,53.2695923],[-6.0982786,53.2694511],[-6.09879,53.2692367],[-6.0994027,53.2689947],[-6.0997064,53.2688791],[-6.1003871,53.268631],[-6.1012443,53.2683438],[-6.1020437,53.2680867],[-6.1023646,53.2679849],[-6.1028935,53.2678046],[-6.1033285,53.2676507],[-6.1036554,53.2675263],[-6.104715,53.2671077],[-6.1052684,53.2668993],[-6.1056516,53.2667557],[-6.1060283,53.2666019],[-6.106206,53.2665194],[-6.1063864,53.2664297],[-6.1065456,53.2663415],[-6.1068158,53.2661614],[-6.1069678,53.2660527],[-6.107105,53.2659432],[-6.1072806,53.2657927],[-6.1075202,53.2655558],[-6.1076933,53.2653361],[-6.1078702,53.2650992],[-6.108001,53.2648726],[-6.1083202,53.2643665],[-6.1086279,53.2639283],[-6.108776,53.2637316],[-6.1089202,53.2635591],[-6.1091606,53.2632634],[-6.1094433,53.2629609],[-6.1099086,53.2624882],[-6.1104394,53.2619901],[-6.1107221,53.2617267],[-6.1110048,53.2614311],[-6.1112778,53.2611216],[-6.1115374,53.2607984],[-6.1116913,53.2605925],[-6.1119336,53.260229],[-6.1121079,53.2599461],[-6.1121586,53.2598448],[-6.1122105,53.2597424],[-6.1123047,53.2595445],[-6.1124374,53.2592121],[-6.112549,53.2588704],[-6.1127663,53.2580467],[-6.1128547,53.2575705],[-6.1128701,53.2574796],[-6.1129047,53.2571793],[-6.1129278,53.2568561],[-6.112949,53.2563004],[-6.112972,53.255892],[-6.1130009,53.2556493],[-6.1130163,53.2553858],[-6.113087,53.2547741],[-6.1131111,53.2545593],[-6.1131365,53.254403],[-6.1131809,53.2541168],[-6.1132215,53.2538891],[-6.1132697,53.2535923],[-6.1132862,53.2534588],[-6.1133141,53.253272],[-6.1133281,53.2531073],[-6.1133915,53.2523437],[-6.1134537,53.2516059],[-6.11346,53.2515437],[-6.1134816,53.2512939],[-6.1135108,53.2509918],[-6.1135285,53.250821],[-6.1135577,53.2505166],[-6.113597,53.2501325],[-6.1136313,53.2498775],[-6.1137023,53.2495518],[-6.1137785,53.2492542],[-6.1139168,53.2488603],[-6.1140652,53.2485088],[-6.1143265,53.2480321],[-6.1144128,53.2478931],[-6.1146526,53.2475371],[-6.1148112,53.2472965],[-6.1148937,53.2471945],[-6.1151086,53.2469295],[-6.1154037,53.2465806],[-6.1157094,53.2462101],[-6.1160012,53.2458305],[-6.11609,53.2457037],[-6.1163108,53.2453765],[-6.1164732,53.2450972],[-6.1166407,53.2447897],[-6.1168246,53.2443812],[-6.1168563,53.2443076],[-6.1169553,53.2440343],[-6.1171139,53.2434391],[-6.1171913,53.2428772],[-6.1172243,53.2421605],[-6.1172319,53.2415645],[-6.1172357,53.2412206],[-6.1172395,53.2408045],[-6.1172471,53.2403755],[-6.1172522,53.2400361],[-6.1172547,53.2395958],[-6.1172611,53.2394181],[-6.1172745,53.239097],[-6.1172668,53.2382311],[-6.1172306,53.2378069],[-6.1172033,53.2376368],[-6.1171661,53.2373976],[-6.1171072,53.2370713],[-6.11702,53.2367002],[-6.1168114,53.2360663],[-6.1167401,53.2359031],[-6.116596,53.2355388],[-6.1164318,53.2351456],[-6.1162181,53.2346283],[-6.1159563,53.2340043],[-6.1153068,53.2324526],[-6.1151512,53.2320753],[-6.1150915,53.2319308],[-6.1149696,53.2316466],[-6.1144948,53.2305254],[-6.1139941,53.2293497],[-6.1137139,53.2286726],[-6.1134337,53.2280048],[-6.1130966,53.2272125],[-6.1126514,53.2261178],[-6.1122509,53.2252062],[-6.1117011,53.2238728],[-6.1113171,53.2229721],[-6.1109235,53.2220311],[-6.1098346,53.2194276],[-6.1093463,53.2182854],[-6.1092953,53.2181525],[-6.1091282,53.2177704],[-6.109053,53.2175782],[-6.1089591,53.2173619],[-6.1087188,53.2167646],[-6.1084334,53.2161139],[-6.1081134,53.2154527],[-6.1077703,53.2149176],[-6.1075368,53.2145965],[-6.1070488,53.2140208],[-6.106744,53.2136988],[-6.1063001,53.2132689],[-6.1059484,53.2129409],[-6.1054439,53.2124558],[-6.1050922,53.212095],[-6.1048673,53.2118343],[-6.1045271,53.2114165],[-6.1042215,53.2109745],[-6.1039572,53.2105289],[-6.1039102,53.2104497],[-6.1036408,53.2098831],[-6.1036007,53.2097867],[-6.1034102,53.2093133],[-6.1032509,53.2088857],[-6.1030643,53.2084209],[-6.1028812,53.2080044],[-6.1026881,53.2076205],[-6.1024892,53.2072728],[-6.1023847,53.2071143],[-6.1023152,53.207011],[-6.1021501,53.2067807],[-6.102135,53.2067589],[-6.1019237,53.2064653],[-6.1017144,53.2061695],[-6.1015209,53.2059],[-6.1013329,53.2056285],[-6.1012543,53.2055208],[-6.1011294,53.2053402],[-6.1011017,53.2053002],[-6.1010764,53.2052621],[-6.1010094,53.2051611],[-6.1007238,53.2047874],[-6.10072,53.2047811],[-6.1004278,53.2043059],[-6.1003421,53.2041625],[-6.099866,53.2033791],[-6.0998603,53.2033698],[-6.0998072,53.2032754],[-6.0997031,53.2030296],[-6.099615,53.2028727],[-6.0995813,53.2027992],[-6.0995509,53.2027422],[-6.0995475,53.2027355],[-6.0995318,53.2027065],[-6.0993268,53.2023902],[-6.0991111,53.2020507],[-6.0990388,53.2019364],[-6.0989208,53.2017552],[-6.0986674,53.2013661],[-6.0979298,53.2002953],[-6.0978534,53.2001764],[-6.0974368,53.1995432],[-6.0973816,53.1994494],[-6.0973283,53.1993589],[-6.0972409,53.199226],[-6.0970773,53.1989651],[-6.0967907,53.1985305],[-6.0963818,53.1979103],[-6.0961225,53.1975685],[-6.0958348,53.1972701],[-6.0956156,53.1971024],[-6.0954753,53.1969932],[-6.0953885,53.1969306],[-6.0952974,53.1968677],[-6.0951831,53.1967944],[-6.0950864,53.196733],[-6.094857,53.1966006],[-6.0948135,53.1965755],[-6.0946313,53.1964808],[-6.0944203,53.1963814],[-6.0942859,53.1963218],[-6.0941498,53.1962668],[-6.0940712,53.1962368],[-6.0936825,53.1960949],[-6.0932335,53.1959664],[-6.0927614,53.1958627],[-6.0924575,53.195796],[-6.0922184,53.195762],[-6.0919744,53.1957297],[-6.0914479,53.1956797],[-6.0911513,53.1956654],[-6.0905655,53.1956405],[-6.0900792,53.1956215],[-6.0898584,53.1956062],[-6.0895896,53.1955838],[-6.0891292,53.1955363],[-6.0886697,53.1954711],[-6.0883354,53.1954146],[-6.0879841,53.1953475],[-6.0877395,53.1952991],[-6.087495,53.1952456],[-6.0870577,53.1951341],[-6.0866117,53.1950067],[-6.0862969,53.194903],[-6.0858301,53.1947228],[-6.0853414,53.1945002],[-6.0850706,53.1943704],[-6.0848201,53.1942406],[-6.0844715,53.194066],[-6.0843046,53.1939721],[-6.0840984,53.1938561],[-6.0835196,53.1935329],[-6.0827848,53.1931275],[-6.0822135,53.1928251],[-6.0816994,53.1925816],[-6.0810733,53.1922571],[-6.0804721,53.1919297],[-6.0799564,53.1915858],[-6.0796601,53.1913469],[-6.0794703,53.191181],[-6.0791359,53.1908271],[-6.0788718,53.1905117],[-6.0788261,53.1904548],[-6.0786585,53.190246],[-6.0785889,53.1901512],[-6.0784929,53.1900241],[-6.0783222,53.1897746],[-6.0781964,53.1895655],[-6.0781334,53.1894422],[-6.07796,53.1891532],[-6.0778146,53.1888642],[-6.0776756,53.1885642],[-6.0775646,53.1882642],[-6.0774511,53.187944],[-6.0773563,53.1876182],[-6.0772921,53.1873198],[-6.077243,53.1870196],[-6.0772182,53.186898],[-6.0772026,53.1867756],[-6.0771932,53.1866393],[-6.0771888,53.1865191],[-6.0771911,53.1863039],[-6.0772032,53.1861486],[-6.0772301,53.1858757],[-6.0772616,53.1855764],[-6.0772689,53.1852582],[-6.077261,53.1849001],[-6.0772262,53.1845353],[-6.0771852,53.184271],[-6.0771347,53.1840089],[-6.0770744,53.183792],[-6.0769969,53.1835578],[-6.0768842,53.1833125],[-6.0768262,53.1832013],[-6.0767496,53.1830793],[-6.0766225,53.1828996],[-6.0763609,53.1826045],[-6.0762435,53.1824753],[-6.0758824,53.182078],[-6.0757253,53.1818194],[-6.0756782,53.1817404],[-6.0756051,53.1815848],[-6.0755417,53.1814202],[-6.0754794,53.1811687],[-6.075452,53.1810047],[-6.0754187,53.1804292],[-6.0754109,53.1801171],[-6.0753934,53.1798943],[-6.0753825,53.1796975],[-6.0753618,53.1795297],[-6.0753478,53.1793848],[-6.0753204,53.1792079],[-6.0753015,53.179107],[-6.0752575,53.178891],[-6.0752124,53.1787331],[-6.0751665,53.178582],[-6.0751229,53.1784451],[-6.0750506,53.1782443],[-6.0749692,53.1780478],[-6.0748889,53.1778607],[-6.0748194,53.1777168],[-6.0747094,53.1774824],[-6.0745895,53.1772537],[-6.0744729,53.1770137],[-6.0743814,53.1768012],[-6.0743387,53.1766816],[-6.0743177,53.1766074],[-6.0742956,53.1765264],[-6.0742538,53.1763623],[-6.0742253,53.1762334],[-6.0742097,53.1761156],[-6.07422,53.1759628],[-6.0742465,53.1757606],[-6.0742952,53.175601],[-6.0743779,53.1753755],[-6.0745458,53.1750008],[-6.0746834,53.1747479],[-6.0748217,53.1745406],[-6.0749668,53.1743302],[-6.0751297,53.174115],[-6.0752422,53.1739777],[-6.0755929,53.1735782],[-6.0765657,53.1724799],[-6.077347,53.1715247],[-6.0785257,53.1700035],[-6.0789793,53.1692326],[-6.0791402,53.1686819],[-6.0791898,53.1672734],[-6.078943,53.1661557],[-6.0786295,53.1650502],[-6.0785547,53.1648197],[-6.0784664,53.1645512],[-6.0783034,53.1640556],[-6.0779246,53.1628812],[-6.0776521,53.1620211],[-6.0767078,53.1590842],[-6.0764536,53.1583286],[-6.0763082,53.1579034],[-6.0762014,53.1576387],[-6.0760718,53.1573742],[-6.0759046,53.1571011],[-6.0757792,53.1569056],[-6.0756935,53.1567727],[-6.0754198,53.1564131],[-6.0750645,53.1560234],[-6.0748053,53.1557627],[-6.0744689,53.155467],[-6.0741962,53.1552327],[-6.0739046,53.1550133],[-6.0735138,53.1547602],[-6.0731084,53.1545158],[-6.0721533,53.1539707],[-6.0713613,53.153517],[-6.0710164,53.1533077],[-6.0707301,53.1531134],[-6.070448,53.1529104],[-6.0701596,53.1526911],[-6.0697939,53.1523753],[-6.0694532,53.1520657],[-6.0691606,53.1517612],[-6.0689099,53.1514616],[-6.0686486,53.1511082],[-6.0681185,53.150341],[-6.0680509,53.150249],[-6.0677939,53.1499025],[-6.0674238,53.1494615],[-6.067185,53.1491597],[-6.0668411,53.1487943],[-6.0664844,53.1484592],[-6.0661208,53.14816],[-6.065942,53.148009],[-6.0656661,53.1477853],[-6.0651901,53.1474393],[-6.0647494,53.1471374],[-6.0638114,53.1465288],[-6.0631423,53.1460911],[-6.0628343,53.1458887],[-6.0623095,53.1455237],[-6.062057,53.1453326],[-6.06202,53.1453039],[-6.0618582,53.1451709],[-6.0616869,53.1450205],[-6.0614766,53.1448302],[-6.0611579,53.1445114],[-6.0610213,53.1443615],[-6.0609314,53.1442663],[-6.0608345,53.1441598],[-6.0607509,53.1440658],[-6.0605963,53.1438986],[-6.0604562,53.1437306],[-6.06035,53.1436059],[-6.0602259,53.1434674],[-6.0600926,53.1433059],[-6.0600146,53.1431964],[-6.0599305,53.1430691],[-6.0598639,53.1429752],[-6.0597161,53.1427355],[-6.0596298,53.1426053],[-6.0592444,53.1420205],[-6.0592067,53.1419668],[-6.0588701,53.1414816],[-6.0585892,53.1410943],[-6.0585523,53.1410493],[-6.058113,53.1404605],[-6.0577241,53.1400004],[-6.0573375,53.1395799],[-6.0570089,53.139217],[-6.0566491,53.1388567],[-6.0561837,53.138394],[-6.0553441,53.1375908],[-6.0541344,53.1364686],[-6.0533049,53.1356751],[-6.0522864,53.1347241],[-6.0522287,53.1346655],[-6.051515,53.1339945],[-6.0503275,53.1328404],[-6.0498399,53.1322509],[-6.0497737,53.1321608],[-6.0497173,53.1320838],[-6.0492127,53.1313964],[-6.0469106,53.1277169],[-6.0456205,53.1256202],[-6.0452726,53.125045],[-6.0449993,53.1245546],[-6.0437011,53.1216857],[-6.0434485,53.1211139],[-6.0429721,53.1200161],[-6.0428238,53.119614],[-6.0427009,53.1191412],[-6.0426015,53.1186578],[-6.0425166,53.117983],[-6.0424193,53.1172891],[-6.0422736,53.1161868],[-6.042169,53.1152875],[-6.0419408,53.1137235],[-6.0416159,53.11113],[-6.0415289,53.1104998],[-6.0413632,53.109263],[-6.0411487,53.1077427],[-6.041053,53.1071266],[-6.0410288,53.1068548],[-6.0409619,53.1063306],[-6.0409579,53.1062469],[-6.0407985,53.1049244],[-6.0406663,53.1040938],[-6.0405317,53.1033559],[-6.0403672,53.102633],[-6.0401303,53.1017289],[-6.0398885,53.1009296],[-6.0396118,53.1000659],[-6.03936,53.0992396],[-6.0390783,53.0981484],[-6.0389726,53.0976921],[-6.03891,53.0973623],[-6.0383169,53.0934553],[-6.0380985,53.0917955],[-6.0378206,53.089684],[-6.0377607,53.0892579],[-6.0375603,53.0879191],[-6.0373279,53.0864236],[-6.0369993,53.0843051],[-6.0366078,53.0817803],[-6.0356685,53.0753508],[-6.0355709,53.0746858],[-6.0354799,53.0741221],[-6.0353188,53.0729802],[-6.0351556,53.0718689],[-6.0350185,53.0708287],[-6.0350084,53.070072],[-6.0351102,53.0692831],[-6.0351497,53.0690297],[-6.0352061,53.0687593],[-6.0353741,53.0681382],[-6.0356175,53.067433],[-6.036058,53.0665159],[-6.0368623,53.0651674],[-6.0376559,53.0638265],[-6.0379534,53.0632633],[-6.0384561,53.0622297],[-6.0390528,53.060856],[-6.0393414,53.0601098],[-6.0400972,53.0579247],[-6.0405219,53.0567205],[-6.0419993,53.0524376],[-6.0422726,53.051622],[-6.0432873,53.0487311],[-6.0437707,53.0472948],[-6.0448368,53.0441454],[-6.0451032,53.0434207],[-6.0455165,53.0421998],[-6.0460819,53.0405888],[-6.0463979,53.0396342],[-6.0471311,53.0374852],[-6.0474539,53.0365884],[-6.0477806,53.0356406],[-6.0479069,53.035232],[-6.0481062,53.034561],[-6.0483482,53.0336375],[-6.04841,53.0333716],[-6.0485756,53.0325861],[-6.0486702,53.0320839],[-6.0487721,53.0314602],[-6.0489395,53.0303683],[-6.0490668,53.0295302],[-6.0491614,53.0289393],[-6.049334,53.0277353],[-6.0496986,53.0254108],[-6.0497466,53.0250958],[-6.0499977,53.0234466],[-6.0501352,53.0226946],[-6.0503155,53.0219654],[-6.0509078,53.0201579],[-6.051102,53.0195749],[-6.0512656,53.0189904],[-6.0514472,53.0181168],[-6.0515391,53.0174406],[-6.0515815,53.0167558],[-6.0515874,53.016372],[-6.051536,53.0151327],[-6.0515069,53.0141981],[-6.0513945,53.0114873],[-6.0512558,53.0081832],[-6.0511688,53.0061324],[-6.0511005,53.0050297],[-6.051059,53.0044827],[-6.0509762,53.00375],[-6.050954,53.0035336],[-6.0509022,53.0030646],[-6.0507489,53.0018398],[-6.0506103,53.001005],[-6.0505006,53.0004119],[-6.0502628,52.9994133],[-6.0500781,52.9986083],[-6.049841,52.997655],[-6.0496832,52.9970197],[-6.0495585,52.9965389],[-6.0493476,52.9957363],[-6.0491226,52.9949471],[-6.0490277,52.9946516],[-6.0489265,52.9943431],[-6.0488433,52.9941011],[-6.0487136,52.9937595],[-6.0485824,52.9934547],[-6.0483002,52.9928255],[-6.0480662,52.9923291],[-6.047964,52.9921101],[-6.0478915,52.9919286],[-6.0478365,52.9917774],[-6.0477892,52.9916145],[-6.0477628,52.9915006],[-6.0477438,52.9913816],[-6.0477287,52.9911889],[-6.0477333,52.9910337],[-6.0477362,52.990993],[-6.0477477,52.9908921],[-6.0477778,52.9907202],[-6.047825,52.9905381],[-6.0478718,52.9904141],[-6.0479384,52.9902674],[-6.0480201,52.99011],[-6.0481503,52.9899182],[-6.0483026,52.9897362],[-6.0484393,52.9895905],[-6.0486473,52.9894028],[-6.0488153,52.9892632],[-6.0489784,52.9891403],[-6.049179,52.9890115],[-6.0492962,52.9889444],[-6.0493929,52.9888908],[-6.04949,52.9888427],[-6.0495483,52.9888152],[-6.0496508,52.9887703],[-6.0497636,52.9887234],[-6.0498902,52.9886729],[-6.049999,52.9886338],[-6.0501198,52.9885937],[-6.0502377,52.9885556],[-6.0503957,52.9885082],[-6.0504841,52.9884837],[-6.050575,52.9884611],[-6.0506976,52.9884323],[-6.0508392,52.9884021],[-6.0510148,52.9883662],[-6.0511046,52.9883489],[-6.0512748,52.9883184],[-6.0514649,52.9882878],[-6.0516143,52.9882654],[-6.0518097,52.9882389],[-6.0520029,52.9882123],[-6.0520395,52.9882088],[-6.0525585,52.9881472],[-6.0532262,52.9880707],[-6.0541274,52.9879679],[-6.0544212,52.9879339],[-6.054775,52.9878929],[-6.0553088,52.987836],[-6.05535,52.9878319],[-6.0556954,52.9877977],[-6.0564051,52.9877422],[-6.0567591,52.9877247],[-6.0577566,52.9877098],[-6.0586582,52.9877411],[-6.0588771,52.9877541],[-6.0616461,52.9879341],[-6.0617862,52.9879428],[-6.0625219,52.9879998],[-6.0638084,52.9880923],[-6.0657749,52.9882585],[-6.066009,52.9882913],[-6.0671081,52.9884609],[-6.0679498,52.9886377],[-6.06859,52.9887993],[-6.0693778,52.9890351],[-6.0702287,52.9893404],[-6.0737662,52.9906431],[-6.0747959,52.9909974],[-6.0758989,52.9913226],[-6.0763853,52.9914443],[-6.0770729,52.9915913],[-6.078249,52.9918149],[-6.0798352,52.9920117],[-6.0800519,52.9920233],[-6.0809373,52.9920587],[-6.0820037,52.9920764],[-6.0826787,52.9920754],[-6.084044,52.9920734],[-6.0863223,52.992053],[-6.0865061,52.9920536],[-6.0882533,52.992053],[-6.0886194,52.9920522],[-6.0887271,52.9920512],[-6.0898479,52.9920418],[-6.0911964,52.9920403],[-6.0921039,52.9920248],[-6.0936768,52.9919823],[-6.0946156,52.9918842],[-6.0960471,52.9916918],[-6.0970164,52.9915066],[-6.0983797,52.9911523],[-6.0996528,52.9907605],[-6.1009727,52.9902015],[-6.1022163,52.9896038],[-6.1036715,52.9888273],[-6.1055858,52.9878058],[-6.1073146,52.986893],[-6.1083873,52.9863463],[-6.1089528,52.9860534],[-6.1132679,52.9837892],[-6.115981,52.9823663],[-6.116952,52.981831],[-6.1170307,52.9817872],[-6.1178514,52.9812771],[-6.1186856,52.9807218],[-6.1206493,52.9794096],[-6.1229281,52.9778819],[-6.1246205,52.9767472],[-6.1282099,52.9743513],[-6.1295096,52.9734957],[-6.1296039,52.9734247],[-6.1322804,52.9716655],[-6.1341169,52.9703919],[-6.1350832,52.969749],[-6.1360607,52.9692004],[-6.1382448,52.9680965],[-6.140516,52.9671147],[-6.141289,52.9668131],[-6.1451487,52.965208],[-6.1462942,52.9647296],[-6.1496295,52.9633982],[-6.1512319,52.9627463],[-6.1543512,52.9614268],[-6.1569191,52.9603636],[-6.1587959,52.9595821],[-6.1631011,52.9578082],[-6.1673337,52.9560477],[-6.1682362,52.9556737],[-6.1702693,52.9548111],[-6.1711057,52.9543937],[-6.1715108,52.9541645],[-6.1717092,52.9540436],[-6.1721083,52.9538],[-6.1724466,52.953574],[-6.1726309,52.9534218],[-6.1729396,52.9531688],[-6.1734821,52.9526759],[-6.1750328,52.9511311],[-6.1756007,52.9505787],[-6.1761899,52.9500477],[-6.1765693,52.949731],[-6.176977,52.9494343],[-6.1777995,52.9488308],[-6.1794921,52.9477991],[-6.1813755,52.9467289],[-6.1814876,52.9466718],[-6.1818081,52.9465058],[-6.1823231,52.9462238],[-6.182773,52.9459579],[-6.1831122,52.9457505],[-6.1834944,52.945493],[-6.1838949,52.9451949],[-6.1840211,52.9451013],[-6.1843531,52.9448473],[-6.1847164,52.9445456],[-6.1850897,52.9442164],[-6.1854081,52.9439278],[-6.185743,52.9436375],[-6.1860803,52.9433634],[-6.1863281,52.9431805],[-6.1866301,52.9429672],[-6.186862,52.9428163],[-6.1872776,52.9425711],[-6.1876864,52.942356],[-6.1881167,52.9421551],[-6.1886052,52.9419453],[-6.1889941,52.9417948],[-6.1894488,52.9416427],[-6.1900437,52.9414697],[-6.190578,52.9413363],[-6.1909997,52.941245],[-6.1914225,52.9411695],[-6.1918452,52.9411043],[-6.1923547,52.941043],[-6.1928304,52.9409979],[-6.1932503,52.9409701],[-6.1937079,52.9409546],[-6.1941614,52.9409476],[-6.1946123,52.9409473],[-6.1969392,52.9409789],[-6.198498,52.9410038],[-6.2005544,52.9410346],[-6.2006456,52.9410361],[-6.2026163,52.9410655],[-6.203726,52.9410729],[-6.2046567,52.941059],[-6.2055997,52.9410292],[-6.2064234,52.9409759],[-6.2074977,52.9408968],[-6.2086521,52.9407912],[-6.2104738,52.940635],[-6.2113076,52.940551],[-6.2119765,52.9404671],[-6.21269,52.9403588],[-6.2133995,52.940236],[-6.2140808,52.940096],[-6.2148853,52.9399019],[-6.2155217,52.939733],[-6.2162388,52.9395205],[-6.2168824,52.9393127],[-6.2174693,52.9391027],[-6.2180103,52.9388946],[-6.2187526,52.9385755],[-6.2195339,52.9381935],[-6.2202684,52.937809],[-6.220911,52.9374639],[-6.221304,52.9372374],[-6.2217603,52.9369547],[-6.2221269,52.9367108],[-6.2226329,52.9363372],[-6.2229831,52.9360497],[-6.2233262,52.9357491],[-6.2236675,52.9354268],[-6.223838,52.9352483],[-6.2240763,52.9349787],[-6.2243204,52.9346606],[-6.2246285,52.9342235],[-6.2249052,52.933785],[-6.2251718,52.9332847],[-6.2253607,52.9328668],[-6.225455,52.9326355],[-6.2255263,52.9324336],[-6.2258036,52.9315651],[-6.2258349,52.9314358],[-6.2258959,52.9311883],[-6.2260014,52.930884],[-6.226126,52.9304895],[-6.2262545,52.9301272],[-6.2263474,52.929809],[-6.2264221,52.9294813],[-6.2264459,52.9292345],[-6.2264804,52.9290157],[-6.2264867,52.9287084],[-6.2264804,52.9285145],[-6.2264529,52.9282373],[-6.2263845,52.9279533],[-6.2262649,52.9275114],[-6.2259666,52.9266941],[-6.2256803,52.9261751],[-6.2256662,52.9261502],[-6.2253813,52.9256795],[-6.2248748,52.9249119],[-6.2245735,52.9244261],[-6.2243625,52.923981],[-6.224222,52.9236514],[-6.2240881,52.9232805],[-6.2239732,52.9228535],[-6.2238353,52.9223812],[-6.223576,52.921423],[-6.2234805,52.9210742],[-6.2233412,52.9206347],[-6.2233083,52.9205214],[-6.2229155,52.9191846],[-6.2227534,52.9186997],[-6.222648,52.9184623],[-6.2225033,52.9181854],[-6.2223862,52.9179905],[-6.2221925,52.917718],[-6.2219258,52.9173889],[-6.2215649,52.9170042],[-6.2212886,52.9167652],[-6.2210492,52.9165857],[-6.2207879,52.9164053],[-6.2204413,52.9161838],[-6.2201483,52.9160066],[-6.2198025,52.9158209],[-6.2193918,52.9156236],[-6.2189154,52.9154123],[-6.2185045,52.9152301],[-6.2183179,52.91515],[-6.2182132,52.9151011],[-6.2179069,52.9149545],[-6.2175476,52.9147692],[-6.2172632,52.9146058],[-6.2169312,52.9143943],[-6.2166222,52.9141784],[-6.216329,52.9139546],[-6.2160278,52.9137003],[-6.215768,52.9134551],[-6.2155173,52.913195],[-6.2153039,52.9129432],[-6.2151036,52.9126674],[-6.2149062,52.9123596],[-6.2147293,52.9120381],[-6.2146122,52.9117648],[-6.2145028,52.9114472],[-6.2144228,52.911086],[-6.2143939,52.9107918],[-6.2143893,52.9105131],[-6.2144049,52.9102488],[-6.2144344,52.90999],[-6.2144934,52.9097299],[-6.214568,52.9093234],[-6.2145964,52.9090634],[-6.214612,52.9088057],[-6.2146005,52.9085803],[-6.2145593,52.9082819],[-6.2144846,52.9079709],[-6.2143721,52.9075724],[-6.2143065,52.9072935],[-6.2142606,52.9070488],[-6.214236,52.9068305],[-6.2142364,52.9066467],[-6.2142452,52.906392],[-6.2142726,52.9061734],[-6.2143772,52.9056193],[-6.2144391,52.9053806],[-6.2145132,52.9050551],[-6.2145646,52.9048291],[-6.2146756,52.9043856],[-6.2147305,52.9041841],[-6.2148356,52.9038976],[-6.2149225,52.9036867],[-6.2150254,52.9034777],[-6.2151449,52.9032665],[-6.2152703,52.9030747],[-6.2154518,52.9028329],[-6.2156191,52.902632],[-6.2157526,52.9024831],[-6.2163334,52.9019448],[-6.216576,52.9017451],[-6.2168439,52.9015498],[-6.2171265,52.9013592],[-6.2174814,52.9011362],[-6.2178348,52.9009307],[-6.2180513,52.9008134],[-6.218138,52.9007667],[-6.2183938,52.9006376],[-6.2186523,52.9005154],[-6.2189789,52.9003717],[-6.2193271,52.9002334],[-6.2199087,52.9000156],[-6.2205246,52.8998131],[-6.2215087,52.8994975],[-6.2219909,52.8993283],[-6.222441,52.8991565],[-6.2228337,52.898984],[-6.2232708,52.8987666],[-6.2236658,52.8985454],[-6.224041,52.8983075],[-6.2243294,52.898105],[-6.2246186,52.8978756],[-6.2248515,52.8976743],[-6.2251518,52.8973843],[-6.2253275,52.897197],[-6.2255577,52.8969087],[-6.2257185,52.8966876],[-6.2257495,52.8966433],[-6.2258883,52.8964357],[-6.226128,52.8960544],[-6.2265508,52.8953783],[-6.2267026,52.8951303],[-6.2278123,52.8933501],[-6.2280591,52.8929532],[-6.2281147,52.8928634],[-6.2282456,52.8926365],[-6.228505,52.8921571],[-6.2286644,52.8918021],[-6.2288031,52.8914506],[-6.2288824,52.8912337],[-6.228976,52.8909423],[-6.2290389,52.8906812],[-6.2291216,52.8903214],[-6.2291791,52.8899674],[-6.2292223,52.8894865],[-6.2292324,52.889194],[-6.2291939,52.8885905],[-6.229174,52.888185],[-6.229121,52.8878323],[-6.2290324,52.8874557],[-6.2288845,52.886972],[-6.2287498,52.886587],[-6.2286012,52.8862367],[-6.2284336,52.8858925],[-6.2282703,52.8855819],[-6.2280756,52.8852514],[-6.2277437,52.8847577],[-6.227194,52.8840073],[-6.2265349,52.8831175],[-6.2264907,52.8830586],[-6.226066,52.8824871],[-6.225783,52.8821061],[-6.2257399,52.8820464],[-6.225461,52.8816715],[-6.2249641,52.880998],[-6.2246998,52.880655],[-6.2244601,52.880373],[-6.2241714,52.8800463],[-6.2238489,52.8797069],[-6.2235665,52.8794396],[-6.2232313,52.8791374],[-6.2228388,52.8788096],[-6.222501,52.8785515],[-6.2220722,52.8782378],[-6.2211397,52.8775703],[-6.2201069,52.8768336],[-6.2200466,52.8767897],[-6.2197535,52.8765815],[-6.2193695,52.8762894],[-6.219133,52.8760951],[-6.2189309,52.8759041],[-6.2187767,52.8757474],[-6.2186366,52.8755874],[-6.2184999,52.8753978],[-6.218356,52.8751641],[-6.2182517,52.8749479],[-6.2181774,52.8747563],[-6.2181169,52.874538],[-6.2180861,52.8743589],[-6.2180684,52.8741035],[-6.2180701,52.8739455],[-6.2181019,52.8737161],[-6.2181537,52.8734697],[-6.2182247,52.8732631],[-6.2183411,52.8729695],[-6.2185394,52.8725098],[-6.2186822,52.8721342],[-6.218765,52.8718657],[-6.2188409,52.8715659],[-6.2189056,52.8712457],[-6.2189576,52.8709238],[-6.2190004,52.8706148],[-6.219033,52.8702707],[-6.219052,52.8699713],[-6.2190605,52.8696096],[-6.2190415,52.8693046],[-6.2190055,52.8689264],[-6.2189569,52.8686514],[-6.2188954,52.8683936],[-6.2187782,52.86798],[-6.2186285,52.8675777],[-6.2184813,52.8672535],[-6.2183131,52.8669231],[-6.2181069,52.8665802],[-6.2178467,52.8661842],[-6.2176567,52.8659371],[-6.2174468,52.8656896],[-6.2166902,52.864896],[-6.2166487,52.8648518],[-6.2163933,52.86457],[-6.2161967,52.8643419],[-6.216045,52.8641312],[-6.2158557,52.8638599],[-6.2156598,52.8635029],[-6.2155487,52.863282],[-6.2153929,52.8629595],[-6.2152745,52.8626722],[-6.2151727,52.8623548],[-6.2151065,52.8621039],[-6.2150624,52.8619045],[-6.2150161,52.8615665],[-6.2149826,52.8611482],[-6.2149808,52.8611054],[-6.2149722,52.8606832],[-6.2149569,52.8592721],[-6.2149364,52.857597],[-6.2149262,52.8570048],[-6.2149153,52.8559864],[-6.2149057,52.8549702],[-6.214874,52.8535033],[-6.2148843,52.8532161],[-6.214905,52.8529742],[-6.2149644,52.8526636],[-6.2150316,52.8523452],[-6.2151272,52.8520549],[-6.2152332,52.8517662],[-6.2153624,52.8514743],[-6.2155227,52.8511903],[-6.2156984,52.8508922],[-6.2158535,52.8506815],[-6.2161481,52.850271],[-6.2170656,52.8492377],[-6.2174533,52.8488256],[-6.2176621,52.8486155],[-6.2176919,52.8485855],[-6.2184768,52.8477955],[-6.2189249,52.8473898],[-6.2195158,52.8469167],[-6.2199112,52.8466186],[-6.2209184,52.8458978],[-6.2214558,52.8455169],[-6.2228703,52.8445216],[-6.2270835,52.8415571],[-6.2275275,52.8412544],[-6.2285591,52.840518],[-6.2294947,52.8398485],[-6.2298313,52.839581],[-6.2299921,52.839444],[-6.2302753,52.8391962],[-6.2306824,52.8387826],[-6.2309183,52.8385059],[-6.2311931,52.8381465],[-6.2314508,52.8377474],[-6.2316443,52.8373822],[-6.231779,52.8370932],[-6.2318684,52.836864],[-6.2319616,52.8365874],[-6.2320271,52.8363361],[-6.2320849,52.836051],[-6.2321299,52.8357146],[-6.2321451,52.8354918],[-6.2321452,52.8351227],[-6.2321262,52.8348381],[-6.2320858,52.8345855],[-6.2320212,52.8342448],[-6.2318917,52.8337977],[-6.2317968,52.8335488],[-6.2316471,52.8332242],[-6.231478,52.8329078],[-6.2313167,52.832621],[-6.2310237,52.8322012],[-6.230749,52.8318437],[-6.2304603,52.8315183],[-6.2301198,52.8311796],[-6.229805,52.8309025],[-6.2294469,52.8306237],[-6.2290807,52.8303646],[-6.2285581,52.8300396],[-6.2281824,52.829827],[-6.2277065,52.8295625],[-6.2259775,52.8286501],[-6.2252771,52.828303],[-6.2245073,52.82794],[-6.2241038,52.8277648],[-6.2237344,52.8276292],[-6.223288,52.8274863],[-6.2227152,52.8273233],[-6.2216698,52.827066],[-6.2211809,52.8269216],[-6.2208089,52.8267942],[-6.219211,52.826201],[-6.2186564,52.8259947],[-6.2178461,52.8256693],[-6.2172676,52.8254191],[-6.2166372,52.8251213],[-6.2161305,52.8248669],[-6.2155032,52.8245206],[-6.2149164,52.8241617],[-6.213165,52.8230032],[-6.2126908,52.8226985],[-6.211174,52.8217045],[-6.2106289,52.8213475],[-6.2101603,52.8210206],[-6.2094598,52.8205231],[-6.2087511,52.8199587],[-6.2082143,52.8194908],[-6.2067529,52.8181263],[-6.2061966,52.8176463],[-6.2058412,52.8173585],[-6.2051495,52.8168367],[-6.2044822,52.8163872],[-6.203878,52.8160237],[-6.2031668,52.8156327],[-6.2025734,52.8153511],[-6.2018942,52.8150714],[-6.2014277,52.8149029],[-6.2009866,52.8147614],[-6.1996847,52.8143939],[-6.1992055,52.8142452],[-6.1964349,52.813402],[-6.1956083,52.8131484],[-6.1938073,52.8125977],[-6.1925469,52.8122067],[-6.192053,52.8120385],[-6.1916844,52.811905],[-6.1911831,52.811715],[-6.1902724,52.8113613],[-6.1898627,52.811218],[-6.1894607,52.8110931],[-6.1888825,52.810929],[-6.1884666,52.810836],[-6.1883227,52.8108044],[-6.1880974,52.8107614],[-6.1877018,52.8106908],[-6.1872311,52.8106168],[-6.1861493,52.8104593],[-6.1852507,52.8103525],[-6.1847035,52.8102767],[-6.1842736,52.8102121],[-6.1838254,52.8101288],[-6.1833261,52.8100241],[-6.1829614,52.8099416],[-6.1828797,52.8099217],[-6.1824654,52.8098135],[-6.1820076,52.8096806],[-6.1815952,52.8095477],[-6.1810299,52.8093574],[-6.1806624,52.8092157],[-6.1801884,52.8090198],[-6.1798136,52.8088538],[-6.179386,52.808647],[-6.1790016,52.8084504],[-6.1786444,52.8082491],[-6.1783247,52.8080615],[-6.1780466,52.8078855],[-6.1776979,52.8076555],[-6.1772889,52.8073641],[-6.1771399,52.8072529],[-6.1768087,52.8069864],[-6.1764103,52.8066499],[-6.1759833,52.8062595],[-6.175436,52.8057484],[-6.1748793,52.805243],[-6.1742231,52.8047467],[-6.173324,52.804079],[-6.1730121,52.8038775],[-6.1719818,52.8032614],[-6.1719038,52.8032162],[-6.1718165,52.8031718],[-6.1712009,52.8028384],[-6.1705245,52.8025],[-6.1700233,52.8022639],[-6.1685016,52.8016255],[-6.1683823,52.8015782],[-6.1681418,52.8014788],[-6.1671496,52.80111],[-6.1659119,52.8007284],[-6.1653799,52.8005591],[-6.1639211,52.8001002],[-6.1638287,52.8000637],[-6.1629525,52.7997023],[-6.1624562,52.7994485],[-6.1619875,52.7991614],[-6.1615861,52.7988761],[-6.1611522,52.7985541],[-6.1606807,52.7980848],[-6.160468,52.7978439],[-6.160214,52.7975309],[-6.160083,52.7973066],[-6.1599123,52.7969945],[-6.159756,52.7966584],[-6.159635,52.7963131],[-6.1595486,52.7959734],[-6.1594934,52.7955544],[-6.1595152,52.7950144],[-6.1596118,52.794514],[-6.1597676,52.7939388],[-6.1599092,52.793369],[-6.1600878,52.7927629],[-6.1601459,52.7925179],[-6.1602611,52.7919818],[-6.1603494,52.7916167],[-6.1603919,52.7914337],[-6.1604547,52.7912609],[-6.1606092,52.7907593],[-6.160695,52.7904357],[-6.1610193,52.7892124],[-6.1617376,52.7865619],[-6.1619415,52.7860284],[-6.1622164,52.785386],[-6.1632976,52.7836625],[-6.1641788,52.78272],[-6.1655241,52.7817025],[-6.165831,52.781483],[-6.1667246,52.7809126],[-6.1673209,52.7805577],[-6.168053,52.7801323],[-6.1687452,52.7797445],[-6.1694693,52.7793288],[-6.1700304,52.7790106],[-6.1706251,52.7786654],[-6.171251,52.7783042],[-6.1718999,52.7779406],[-6.172775,52.7774419],[-6.1738031,52.776859],[-6.1754141,52.7759424],[-6.1806801,52.7729369],[-6.1813747,52.7725553],[-6.1823438,52.7720706],[-6.1837608,52.7714543],[-6.1853815,52.7708665],[-6.1877756,52.7700507],[-6.1911803,52.7688596],[-6.1916405,52.7687078],[-6.19211,52.7685393],[-6.1926687,52.7683469],[-6.1941893,52.7678064],[-6.1966536,52.7669546],[-6.1982543,52.7664013],[-6.200302,52.7657072],[-6.2011447,52.7654167],[-6.2023998,52.7650091],[-6.2064008,52.7635868],[-6.2083719,52.7629046],[-6.2103437,52.7621082],[-6.2120385,52.7613111],[-6.2135141,52.7604841],[-6.2144821,52.7598765],[-6.2153836,52.7592147],[-6.2162275,52.7584261],[-6.2164319,52.7582256],[-6.2165089,52.7581439],[-6.2169436,52.7576224],[-6.2175337,52.7566545],[-6.2180307,52.755562],[-6.218063,52.7554905],[-6.2198309,52.7513786],[-6.2216743,52.7472321],[-6.2217443,52.7470695],[-6.2221499,52.74608],[-6.2224761,52.745365],[-6.2228538,52.7446584],[-6.2233462,52.7439698],[-6.223687,52.7435715],[-6.2240852,52.743157],[-6.2249406,52.7423668],[-6.2262704,52.7414825],[-6.227189,52.7409619],[-6.2286106,52.7402701],[-6.2300309,52.7395917],[-6.2301751,52.7395183],[-6.2337404,52.7377545],[-6.2359489,52.7365832],[-6.2368404,52.7359493],[-6.2377764,52.7350743],[-6.2385034,52.7341988],[-6.2387473,52.7338401],[-6.2389548,52.733468],[-6.238977,52.7334057],[-6.2391433,52.733022],[-6.2393318,52.7325118],[-6.2396311,52.7317119],[-6.239875,52.731124],[-6.2401744,52.730537],[-6.2405862,52.7299127],[-6.2413063,52.7289685],[-6.2413385,52.7289251],[-6.2434446,52.7260831],[-6.244614,52.7245746],[-6.2457639,52.7230785],[-6.2458433,52.7229781],[-6.2476957,52.7204524],[-6.2488508,52.7189565],[-6.249434,52.7181084],[-6.2499443,52.7174903],[-6.2503801,52.7170299],[-6.2508372,52.7165807],[-6.2517221,52.7158917],[-6.2524051,52.7154454],[-6.2554544,52.7139501],[-6.2563144,52.7134914],[-6.2571455,52.7130009],[-6.2579328,52.7125415],[-6.2583996,52.7122637],[-6.2592605,52.7116733],[-6.2601139,52.711016],[-6.2606779,52.7105412],[-6.2609724,52.7102654],[-6.2613573,52.7098997],[-6.2617603,52.7094889],[-6.2658782,52.704949],[-6.2663689,52.7043993],[-6.2668919,52.7036978],[-6.2673557,52.7029475],[-6.2676518,52.7024443],[-6.2684556,52.700901],[-6.269008,52.6997302],[-6.269244,52.6990966],[-6.2693283,52.6987953],[-6.2694674,52.6982335],[-6.2695726,52.6976946],[-6.2697166,52.697172],[-6.2700203,52.6964871],[-6.2703957,52.6957918],[-6.2711233,52.6948863],[-6.2724012,52.6934723],[-6.2726874,52.6931483],[-6.2736896,52.692011],[-6.2745113,52.6910837],[-6.2749529,52.6904391],[-6.2750883,52.6902422],[-6.2753121,52.6897966],[-6.2755068,52.6893385],[-6.2757775,52.6888222],[-6.2761172,52.688373],[-6.2763971,52.6880482],[-6.2767282,52.6877475],[-6.2771861,52.6873779],[-6.277613,52.6870649],[-6.279068,52.686262],[-6.2791461,52.6862204],[-6.2798686,52.6858246],[-6.2809467,52.6851929],[-6.2819914,52.6845073],[-6.2829874,52.6837487],[-6.2836693,52.6831504],[-6.2841166,52.6827085],[-6.2844706,52.6823131],[-6.2848327,52.6818837],[-6.2851519,52.6814369],[-6.285448,52.6809837],[-6.2857296,52.6804841],[-6.2860174,52.6798777],[-6.2861061,52.6796489],[-6.2863046,52.6790291],[-6.2867069,52.6776381],[-6.2867359,52.6775289],[-6.2871366,52.6761113],[-6.2871886,52.6759522],[-6.2872624,52.6757426],[-6.2875367,52.6751811],[-6.2878542,52.6746452],[-6.2881511,52.674246],[-6.2882339,52.6741494],[-6.2884602,52.6738983],[-6.2888231,52.6735367],[-6.2890486,52.6733319],[-6.2897007,52.6728359],[-6.2912451,52.6717592],[-6.2920201,52.6712246],[-6.2926184,52.67081],[-6.2930825,52.6704981],[-6.2935451,52.6701834],[-6.2944481,52.6695348],[-6.2951078,52.6690787],[-6.2957193,52.6685971],[-6.2962736,52.6681407],[-6.2968368,52.6676397],[-6.2975346,52.6669503],[-6.2981124,52.6662667],[-6.2984927,52.665781],[-6.2997259,52.6640856],[-6.3009281,52.6623801],[-6.301198,52.6619914],[-6.3020438,52.6608302],[-6.3027247,52.6598324],[-6.3033283,52.6589756],[-6.3034998,52.6587523],[-6.3038873,52.6582107],[-6.3043197,52.6576756],[-6.3045165,52.6574779],[-6.3051626,52.6568288],[-6.3061583,52.6559221],[-6.3062397,52.6558548],[-6.3068353,52.6553895],[-6.3096544,52.6534925],[-6.3110944,52.6525818],[-6.3127204,52.6515637],[-6.3181193,52.6480659],[-6.3255581,52.6433431],[-6.3271252,52.6423859],[-6.3283075,52.6415744],[-6.3301338,52.6404143],[-6.3360225,52.6366454],[-6.3361035,52.6365908],[-6.33805,52.6353494],[-6.3381153,52.6353043],[-6.3395014,52.634403],[-6.3432041,52.6320557],[-6.3433486,52.6319615],[-6.3459025,52.6303055],[-6.3492814,52.6281321],[-6.3500177,52.6276903],[-6.3505586,52.6273604],[-6.3511782,52.6270299],[-6.3520119,52.6266152],[-6.3527691,52.6262731],[-6.3534275,52.6259911],[-6.3540147,52.6257655],[-6.3551513,52.6253593],[-6.35639,52.6249779],[-6.3570311,52.6248138],[-6.3592138,52.6242686],[-6.3622385,52.6235791],[-6.3628717,52.6234391],[-6.3634801,52.6233029],[-6.3688797,52.6220987],[-6.3713417,52.6215375],[-6.3721186,52.6213642],[-6.3732252,52.6211113],[-6.376525,52.6203584],[-6.3780886,52.6200082],[-6.3789714,52.6198196],[-6.3805675,52.6195344],[-6.3816292,52.6193476],[-6.3841184,52.619028],[-6.3866038,52.6187577],[-6.39158,52.6181994],[-6.4027136,52.6169637],[-6.4106721,52.6160791],[-6.4130853,52.6157852],[-6.4150401,52.615494],[-6.4157596,52.6153809],[-6.4169359,52.6151961],[-6.420971,52.6143723],[-6.4242119,52.613545],[-6.4244316,52.6134826],[-6.425982,52.6130457],[-6.4272664,52.6126524],[-6.427547,52.6125665],[-6.4276899,52.6125221],[-6.430501,52.6115473],[-6.4318717,52.6110434],[-6.433192,52.6105057],[-6.4344813,52.6099686],[-6.4352911,52.6096021],[-6.4372768,52.6087245],[-6.4403584,52.6073531],[-6.4404881,52.6072929],[-6.4418326,52.6067096],[-6.4440609,52.6058328],[-6.446692,52.6049238],[-6.4479241,52.6045861],[-6.4501607,52.6039316],[-6.4534555,52.6030244],[-6.4578771,52.6017704],[-6.460967,52.6009047],[-6.4639239,52.599875],[-6.4661113,52.5989716],[-6.4680659,52.5979709],[-6.4697825,52.5969235],[-6.4715973,52.5956007],[-6.4716879,52.595525],[-6.4724768,52.5948658],[-6.473515,52.5939579],[-6.4776883,52.5904064],[-6.4778833,52.5902405],[-6.4788028,52.5894579],[-6.4813653,52.5872518],[-6.4841754,52.5848527],[-6.4847835,52.5843227],[-6.4853786,52.5838566],[-6.4858341,52.5835237],[-6.4862688,52.5832356],[-6.4863252,52.5832006],[-6.4870894,52.5827717],[-6.4883177,52.5822539],[-6.4908284,52.581402],[-6.5005019,52.5781749],[-6.5008877,52.5780461],[-6.5055972,52.5764607],[-6.5065723,52.5761329],[-6.5109373,52.5746793],[-6.5120308,52.5742619],[-6.5130356,52.573834],[-6.5138402,52.5734369],[-6.5151289,52.5726886],[-6.5152032,52.5726395],[-6.5158635,52.5721674],[-6.5165385,52.5716556],[-6.5175264,52.5708454],[-6.5175736,52.5708119],[-6.5176558,52.570739],[-6.5208129,52.5681428],[-6.5222174,52.5669159],[-6.5234673,52.5656215],[-6.5235899,52.5654845],[-6.5236287,52.5654432],[-6.527189,52.5614912],[-6.5278443,52.5607644],[-6.5284676,52.5600728],[-6.5290526,52.5594238],[-6.5300028,52.5583795],[-6.5309551,52.5573617],[-6.5323461,52.5559685],[-6.5338467,52.5546055],[-6.5362468,52.5524143],[-6.5368264,52.5518643],[-6.5373639,52.5512806],[-6.5380078,52.5504748],[-6.538163,52.5502818],[-6.5386104,52.5496151],[-6.5386395,52.5495709],[-6.5389724,52.5490365],[-6.5392458,52.5484476],[-6.539566,52.5473403],[-6.5397271,52.5462539],[-6.5397479,52.5460177],[-6.5397593,52.5458879],[-6.5397525,52.5455156],[-6.5396927,52.5447365],[-6.5395441,52.543836],[-6.539332,52.5431269],[-6.5392549,52.5429157],[-6.5389478,52.5421972],[-6.5385628,52.5414857],[-6.5385309,52.5414332],[-6.5380818,52.5406939],[-6.538037,52.5405978],[-6.5376729,52.5400122],[-6.5372424,52.5394695],[-6.5368143,52.5390101],[-6.536779,52.5389708],[-6.5367401,52.5389318],[-6.5360383,52.5383427],[-6.5352538,52.5378056],[-6.5342758,52.5372409],[-6.5337667,52.5369656],[-6.5333055,52.5367043],[-6.5320167,52.536005],[-6.5313535,52.5356411],[-6.5307492,52.5352491],[-6.5300785,52.534728],[-6.5297674,52.5344126],[-6.5294682,52.5340874],[-6.5293596,52.5339473],[-6.5292581,52.5337761],[-6.5285728,52.5326201],[-6.5284166,52.5320156],[-6.5283767,52.5315965],[-6.5284035,52.5311543],[-6.528594,52.5301623],[-6.5287603,52.5296026],[-6.529259,52.5281057],[-6.5298621,52.5266094],[-6.5303001,52.5255773],[-6.5305294,52.5250718],[-6.530607,52.5249326],[-6.5306938,52.5247772],[-6.5308119,52.5245655],[-6.5308803,52.5244253],[-6.5312114,52.5237918],[-6.5317468,52.5227946],[-6.5320806,52.5223341],[-6.5327224,52.5216646],[-6.5331184,52.5213219],[-6.5335772,52.5210048],[-6.5341105,52.5206917],[-6.5346672,52.5203997],[-6.5348571,52.5203185],[-6.5354379,52.5200606],[-6.5359853,52.5198426],[-6.5367362,52.5195764],[-6.538167,52.5191116],[-6.5402287,52.5184047],[-6.5418587,52.5178698],[-6.5441576,52.5171063],[-6.5458688,52.5162965],[-6.5467761,52.5156997],[-6.5471756,52.5153459],[-6.547872,52.5146183],[-6.5481825,52.5141825],[-6.5491112,52.5128309],[-6.5496102,52.5123064],[-6.5497273,52.5122066],[-6.5499324,52.5120362],[-6.5503896,52.5117566],[-6.5512076,52.5113547],[-6.5529553,52.5107439],[-6.5543953,52.5103982],[-6.5559223,52.5100667],[-6.5595175,52.5093797],[-6.5599054,52.5092989],[-6.5603077,52.5092017],[-6.5606999,52.5090924],[-6.5610319,52.5089781],[-6.5614461,52.5088184],[-6.5617575,52.5086867],[-6.5620483,52.5085434],[-6.5623556,52.5083708],[-6.5626075,52.5082121],[-6.5628304,52.5080623],[-6.563053,52.507899],[-6.5632769,52.5077096],[-6.5634538,52.5075481],[-6.5636095,52.5073994],[-6.5637614,52.5072428],[-6.5640152,52.506971],[-6.5643927,52.506571],[-6.5647843,52.506166],[-6.5649725,52.5059562],[-6.5650712,52.5058485],[-6.5652207,52.5056953],[-6.5656768,52.5052138],[-6.5663786,52.5044967],[-6.5664825,52.5043905],[-6.5667425,52.5040999],[-6.5668211,52.5040045],[-6.5669149,52.5038877],[-6.567002,52.5037767],[-6.5672395,52.5034516],[-6.5674918,52.5030653],[-6.5677172,52.5027387],[-6.5677974,52.5026326],[-6.5681632,52.5021483],[-6.5686435,52.5015084],[-6.5688724,52.5009918],[-6.5689282,52.5007178],[-6.5689644,52.5001721],[-6.5687715,52.4988811],[-6.5687347,52.4986928],[-6.5686765,52.4985724],[-6.5684242,52.4980161],[-6.5680566,52.4972825],[-6.5679601,52.4970119],[-6.5679359,52.4967696],[-6.5679049,52.4965466],[-6.5679595,52.4960147],[-6.5680896,52.4956162],[-6.5682825,52.4952316],[-6.568726,52.4946061],[-6.5692844,52.4939425],[-6.5696585,52.4934712],[-6.5698272,52.4932288],[-6.5699761,52.4929816],[-6.5701131,52.4926993],[-6.5701805,52.4925143],[-6.5702473,52.4922923],[-6.5702602,52.4922374],[-6.5702921,52.4919993],[-6.5702883,52.4917638],[-6.5702702,52.4914472],[-6.5701784,52.4910546],[-6.5701168,52.4908546],[-6.5698675,52.4900458],[-6.5694809,52.4888007],[-6.5693067,52.488214],[-6.5691715,52.4876986],[-6.5690889,52.48732],[-6.5690785,52.4872736],[-6.5690141,52.4869645],[-6.568927,52.4863008],[-6.568825,52.4853087],[-6.5687034,52.4842969],[-6.5685994,52.483929],[-6.5683752,52.4832841],[-6.568372,52.483274],[-6.5682063,52.482958],[-6.5678864,52.4823554],[-6.5673553,52.4814229],[-6.5667267,52.4803277],[-6.5664289,52.4797096],[-6.566175,52.4788685],[-6.5659467,52.478025],[-6.5656337,52.4768935],[-6.5652995,52.4754242],[-6.5649767,52.474121],[-6.5646145,52.4728119],[-6.5644042,52.4718692],[-6.5641671,52.4709437],[-6.5640507,52.4698871],[-6.5640029,52.4693429],[-6.5639581,52.4675386],[-6.5639263,52.4668413],[-6.5639195,52.4666586],[-6.5639127,52.4660346],[-6.5638201,52.4632329],[-6.5637898,52.4620712],[-6.5637594,52.460879],[-6.5636788,52.4577235],[-6.5635967,52.4558702],[-6.5635395,52.454989],[-6.5633789,52.4540908],[-6.5632151,52.4535287],[-6.563193,52.4534556],[-6.5626889,52.4521658],[-6.5622096,52.451145],[-6.5618213,52.4503073],[-6.5617618,52.4501913],[-6.5615664,52.4495653],[-6.561448,52.4489979],[-6.5613952,52.4484452],[-6.5614218,52.4477646],[-6.5616628,52.4465701],[-6.5621084,52.4443237],[-6.5625612,52.4432229],[-6.5632285,52.4422275],[-6.5648394,52.4398444],[-6.5656354,52.4386454],[-6.5664676,52.4374502],[-6.5669775,52.4366642],[-6.5670667,52.4365417],[-6.5683192,52.4346691],[-6.5688505,52.4337898],[-6.5691126,52.4332301],[-6.5693728,52.432513],[-6.5696012,52.4314548],[-6.5696595,52.4306585],[-6.5696063,52.4296611],[-6.5693494,52.4282281],[-6.56905,52.4268985],[-6.5690189,52.4267838],[-6.5689003,52.4264811],[-6.5687626,52.4261628],[-6.5684735,52.4256215],[-6.5681214,52.4251073],[-6.5676964,52.4246021],[-6.5672525,52.4241719],[-6.5671544,52.4240918],[-6.566937,52.4239026],[-6.5660242,52.4232143],[-6.5650086,52.4226472],[-6.5636486,52.4219857],[-6.5625467,52.4214588],[-6.5618223,52.421089],[-6.5613388,52.4208268],[-6.5608898,52.4204849],[-6.5604457,52.4200909],[-6.5601934,52.4198124],[-6.5599986,52.4195168],[-6.5597151,52.4187695],[-6.5596056,52.4178427],[-6.5594843,52.4172282],[-6.5594699,52.417155],[-6.5594342,52.4169741],[-6.5591874,52.4164285],[-6.5588937,52.4159735],[-6.5581311,52.4150526],[-6.5578477,52.4147341],[-6.5561384,52.4127728],[-6.5549384,52.4113323],[-6.5544476,52.4106935],[-6.5539911,52.4100079],[-6.5535615,52.4091523],[-6.5532688,52.4082815],[-6.5531204,52.4076039],[-6.5530307,52.4068986],[-6.5530044,52.4061995],[-6.5530862,52.4052255],[-6.5531591,52.4036501],[-6.5532992,52.4017749],[-6.5534886,52.398771],[-6.5535618,52.3975825],[-6.5538865,52.3966764],[-6.5542664,52.3957851],[-6.5545521,52.3953472],[-6.5548724,52.3949049],[-6.5556206,52.3941585],[-6.5569953,52.3932217],[-6.5581221,52.3925564],[-6.5598257,52.3919117],[-6.5603734,52.3917526],[-6.5606365,52.3916747],[-6.5616501,52.3913838],[-6.5626905,52.3910973],[-6.5632649,52.3908909],[-6.5640147,52.3905863],[-6.5647991,52.3902291],[-6.5650207,52.3901077],[-6.5655796,52.3898016],[-6.5662731,52.3893482],[-6.5668368,52.3889011],[-6.5673487,52.388437],[-6.5676491,52.3881666],[-6.5680606,52.3877842],[-6.5684372,52.3873009],[-6.568532,52.3871628],[-6.5686598,52.3869696],[-6.5687724,52.3867735],[-6.5689857,52.3862812],[-6.5690245,52.3861591],[-6.5691641,52.3855894],[-6.5691789,52.3854985],[-6.5692073,52.3852869],[-6.5692363,52.385014],[-6.5692363,52.3843507],[-6.5692723,52.3838196],[-6.569401,52.3831566],[-6.5695581,52.3825202],[-6.5695737,52.3822012],[-6.5695761,52.3818336],[-6.5695091,52.3815382],[-6.569354,52.3811575],[-6.5691822,52.3808403],[-6.5689232,52.3805413],[-6.5686467,52.3802966],[-6.568316,52.3800856],[-6.5676508,52.3796279],[-6.5674445,52.3794816],[-6.5667195,52.3790183],[-6.5645107,52.3775576],[-6.5630317,52.3765651],[-6.5623759,52.3761166],[-6.5617879,52.3756292],[-6.5613133,52.3751642],[-6.5608905,52.3746678],[-6.560297,52.3737378],[-6.5600376,52.3731218],[-6.5598508,52.3724756],[-6.5597602,52.3715033],[-6.5597419,52.3701975],[-6.5597361,52.3697773],[-6.5596568,52.3693231],[-6.5595428,52.3689771],[-6.5593762,52.3686267],[-6.5591762,52.3683532],[-6.5589458,52.3680851],[-6.5587092,52.3678534],[-6.5584269,52.3676256],[-6.5580363,52.3673552],[-6.557604,52.3671001],[-6.5570217,52.3668259],[-6.5564354,52.3665635],[-6.5555241,52.3661307],[-6.5551276,52.3658915],[-6.5547849,52.3656286],[-6.5539546,52.3649738],[-6.5530824,52.3643088],[-6.5521838,52.3636926],[-6.551403,52.3630165],[-6.5507112,52.3623304],[-6.5500218,52.3616852],[-6.5496099,52.3612819],[-6.549372,52.3610229],[-6.5492595,52.3608913],[-6.5491662,52.3607744],[-6.5484243,52.3597529],[-6.5480515,52.3592243],[-6.5473226,52.3582162],[-6.5469954,52.3577547],[-6.5466402,52.3572805],[-6.5459871,52.3563771],[-6.5457893,52.3560798],[-6.5455789,52.3557992],[-6.5451591,52.3553167],[-6.5446207,52.3547944],[-6.5443641,52.3546096],[-6.5436587,52.3542946],[-6.5425143,52.3538384],[-6.5414048,52.3535011],[-6.5398839,52.3531894],[-6.5383917,52.3528288],[-6.5376023,52.3524974],[-6.5374254,52.3524161],[-6.5371038,52.3522667],[-6.5369019,52.3521784],[-6.5363959,52.3519571],[-6.5336496,52.351099],[-6.5316958,52.3505487],[-6.5304783,52.3502009],[-6.5292842,52.3498981],[-6.5282908,52.3497279],[-6.5270736,52.3496197],[-6.5257694,52.3495532],[-6.524509,52.3494302],[-6.5234235,52.3492684],[-6.5222903,52.3490189],[-6.51969,52.3481836],[-6.5188718,52.3479571],[-6.5185249,52.3478788],[-6.5183712,52.3478443],[-6.5180269,52.3477798],[-6.5175986,52.3477079],[-6.517147,52.3476561],[-6.5168476,52.34763],[-6.5167156,52.3476185],[-6.5158224,52.3475843],[-6.5151609,52.3475966],[-6.5143648,52.347668],[-6.5140314,52.3477082],[-6.5131353,52.3478882],[-6.509277,52.3489423],[-6.5079571,52.3493076],[-6.5077943,52.3493526],[-6.5072042,52.3495244],[-6.5061415,52.3498183],[-6.5051884,52.3500855],[-6.5049885,52.3501434],[-6.5039145,52.3505096],[-6.5017986,52.3513664],[-6.500791,52.3517756],[-6.4996462,52.3522128],[-6.4987205,52.3525086],[-6.4980415,52.3527018],[-6.4973643,52.3528633],[-6.4960184,52.3531245],[-6.4953365,52.3532201],[-6.4947184,52.353292],[-6.4942756,52.3533327],[-6.4937806,52.3533682],[-6.4933072,52.3534006],[-6.4927855,52.3534232],[-6.4920208,52.3534364],[-6.4911898,52.3534362],[-6.4906283,52.3534231],[-6.4900138,52.353392],[-6.4894958,52.3533548],[-6.4886381,52.3532665],[-6.4872501,52.3530551],[-6.4861857,52.3528346],[-6.4853169,52.3526054],[-6.484555,52.3523799],[-6.4838392,52.3521264],[-6.4830585,52.3518224],[-6.4821846,52.3514253],[-6.4814899,52.3510604],[-6.4807265,52.3506048],[-6.4802265,52.3502695],[-6.4796119,52.3497945],[-6.4791019,52.3493424],[-6.4781205,52.3484388],[-6.4776252,52.3480213],[-6.4771425,52.347632],[-6.4767219,52.3473569],[-6.476128,52.3470397],[-6.4757581,52.3468608],[-6.4757223,52.3468444],[-6.4756759,52.3468236],[-6.4750519,52.3465349],[-6.4736553,52.3459484],[-6.4723526,52.3454781],[-6.4717706,52.3452742],[-6.4713532,52.3451431],[-6.4709223,52.3450375],[-6.470362,52.3449256],[-6.4698553,52.3448587],[-6.4695742,52.3448231],[-6.4690583,52.3447611],[-6.4687984,52.344726],[-6.4685405,52.344685],[-6.4683499,52.3446514],[-6.4680837,52.3446006],[-6.4678499,52.3445477],[-6.4675961,52.3444821],[-6.4669798,52.3443072],[-6.466553,52.3441765],[-6.466343,52.3441091],[-6.4656486,52.3438569],[-6.4655606,52.343821],[-6.4642768,52.3433121],[-6.4639652,52.3431872],[-6.4637488,52.343097],[-6.4635998,52.3430272],[-6.4634643,52.3429586],[-6.4632702,52.3428548],[-6.4631215,52.3427628],[-6.4630027,52.3426783],[-6.4629097,52.3426028],[-6.46281,52.3425178],[-6.4626464,52.3423458],[-6.4624983,52.3421744],[-6.4623587,52.3420037],[-6.4622405,52.3418567],[-6.4621204,52.3417058],[-6.4620684,52.3416316],[-6.4620433,52.341587],[-6.4620273,52.3415616],[-6.4619809,52.3414948],[-6.4619034,52.3413901],[-6.4610875,52.3404624],[-6.4605947,52.3399473],[-6.4601517,52.3394783],[-6.4600975,52.3394241],[-6.4597624,52.3390884],[-6.4594907,52.3387955],[-6.4593073,52.3386118],[-6.4590492,52.3383322],[-6.4590408,52.3383234],[-6.4581892,52.3374347],[-6.458136,52.3373767],[-6.4580821,52.337318],[-6.4578043,52.3370735],[-6.4573091,52.3366734],[-6.4568983,52.3363354],[-6.4566075,52.3361202],[-6.456405,52.3359751],[-6.4558156,52.3355828],[-6.4552331,52.3350933],[-6.4550131,52.3348986],[-6.4544908,52.3344326],[-6.454176,52.3341551],[-6.4538901,52.3338919],[-6.4526,52.3329004],[-6.4516557,52.3322666],[-6.4510418,52.3318595],[-6.4500732,52.3312587],[-6.4497012,52.3310357],[-6.4487479,52.330542],[-6.4484096,52.3303215],[-6.4480906,52.3300733],[-6.4478723,52.3298499],[-6.4477089,52.329647],[-6.4475579,52.3294127],[-6.4474045,52.3290559],[-6.4471378,52.3282525],[-6.446979,52.3277797],[-6.4467278,52.3270397],[-6.4463454,52.3258388],[-6.4462673,52.3252455],[-6.4462742,52.3248077],[-6.446327,52.3243683],[-6.4464852,52.3237184],[-6.4467104,52.3230685],[-6.4471637,52.3220178],[-6.4476614,52.3209533],[-6.4477501,52.3207542],[-6.4479383,52.3203322],[-6.4479761,52.3202606],[-6.4484141,52.3192832],[-6.4485443,52.3188989],[-6.4487218,52.3182173],[-6.448913,52.3163934],[-6.448922,52.3163206],[-6.4489816,52.3158086],[-6.4490016,52.3156091],[-6.4491208,52.3142663],[-6.4490953,52.3137014],[-6.4490723,52.3133778],[-6.4490499,52.3132181],[-6.448991,52.3129669],[-6.448908,52.3126702],[-6.4488047,52.3123616],[-6.4486792,52.3119997],[-6.4479917,52.3100949],[-6.4477527,52.3094392],[-6.4475889,52.308965],[-6.4473764,52.3084256],[-6.4471471,52.3078668],[-6.4469385,52.3074517],[-6.4466896,52.3070039],[-6.4465674,52.3067903],[-6.4464534,52.3066033],[-6.4464379,52.3065778],[-6.446304,52.3063712],[-6.4460758,52.3060363],[-6.445845,52.3057124],[-6.4457329,52.3055619],[-6.4452783,52.3049379],[-6.4442592,52.3035156],[-6.4440907,52.3032842],[-6.4438481,52.302951],[-6.4438045,52.3028891],[-6.4437321,52.302784],[-6.4431836,52.3020332],[-6.4429192,52.3016686],[-6.4416995,52.2999772],[-6.4410607,52.2990853],[-6.4405106,52.2983238],[-6.4395248,52.2969545],[-6.4393149,52.2966625],[-6.4389332,52.2961319],[-6.4380748,52.2949424],[-6.4369766,52.2934156],[-6.4369273,52.2933472],[-6.4358292,52.2918234],[-6.4350639,52.2907548],[-6.434973,52.2906288],[-6.434542,52.2900336],[-6.4335064,52.2885871],[-6.4328328,52.2876509],[-6.4325533,52.2872889],[-6.4322265,52.2869054],[-6.4320831,52.2867534],[-6.431838,52.2865064],[-6.4313272,52.286053],[-6.4309017,52.2857086],[-6.4304262,52.2853582],[-6.4299642,52.2850504],[-6.4294867,52.2847679],[-6.4292324,52.2846301],[-6.4281504,52.2841002],[-6.427377,52.2837577],[-6.4265623,52.2834403],[-6.4259612,52.2832416],[-6.4252673,52.2830467],[-6.4247112,52.2829126],[-6.4241184,52.2827819],[-6.4228711,52.2825236],[-6.4171992,52.2813508],[-6.4153572,52.2809705],[-6.4150621,52.2809086],[-6.4116828,52.2802124],[-6.4102447,52.2799144],[-6.410089,52.2798842],[-6.4098655,52.2798378],[-6.4074617,52.2793424],[-6.4060769,52.2790589],[-6.4055723,52.278952],[-6.4048252,52.2787899],[-6.4042206,52.2786406],[-6.4036544,52.2784807],[-6.4030934,52.2783039],[-6.402533,52.2781147],[-6.4015642,52.2777604],[-6.400801,52.277465],[-6.4004792,52.2773354],[-6.3998888,52.2770843],[-6.3991917,52.2767728],[-6.3986664,52.2765266],[-6.3983376,52.2763672],[-6.3978667,52.276134],[-6.3973525,52.2758704],[-6.3967847,52.275557],[-6.3962362,52.2752299],[-6.3958551,52.2749979],[-6.3955002,52.2747787],[-6.3951324,52.274543],[-6.3947133,52.2742659],[-6.3943221,52.2739954],[-6.394187,52.2738866],[-6.3940583,52.2737738],[-6.393782,52.2735456],[-6.3930728,52.2729799],[-6.3928602,52.2727983],[-6.3926972,52.2726654],[-6.3926465,52.2726215],[-6.3925996,52.2725821],[-6.3922817,52.2723152],[-6.3912416,52.271432],[-6.3910637,52.2712895],[-6.3908673,52.2711321],[-6.3904382,52.2708102],[-6.3891931,52.2697504],[-6.3871149,52.2679606],[-6.3865331,52.2674516],[-6.3857347,52.2667516],[-6.3848059,52.2659344],[-6.3836601,52.2649303],[-6.3823942,52.2638131],[-6.3813041,52.2628501],[-6.3790435,52.2608456],[-6.3766736,52.2587414],[-6.3756785,52.2578605],[-6.3747899,52.2570705],[-6.3739591,52.2563355],[-6.3732208,52.2556828],[-6.3723281,52.2548903],[-6.3715067,52.2541677],[-6.3713095,52.2540029],[-6.3711272,52.2538541],[-6.3708928,52.2536699],[-6.3706176,52.253472],[-6.3704359,52.2533453],[-6.3702542,52.25323],[-6.3698699,52.2529952],[-6.3695292,52.2527928],[-6.3690728,52.2525492],[-6.3683987,52.2522281],[-6.3683619,52.2522123],[-6.3680126,52.2520624],[-6.3674826,52.2518509],[-6.3668281,52.251616],[-6.3662618,52.251436],[-6.3656949,52.2512674],[-6.3652514,52.2511396],[-6.3652322,52.2511341],[-6.3646282,52.2509782],[-6.3639647,52.2508223],[-6.3632364,52.2506604],[-6.3631019,52.2506357],[-6.3626496,52.2505526],[-6.3621131,52.250463],[-6.3615164,52.2503815],[-6.3609645,52.2503204],[-6.3601527,52.2502474],[-6.3594807,52.2502103],[-6.35917,52.2501978],[-6.3588304,52.2501908],[-6.3583722,52.2501879],[-6.3577787,52.2501899],[-6.3572062,52.250201],[-6.3564813,52.2502265],[-6.3556881,52.2502725],[-6.3550067,52.2503366],[-6.3542271,52.2504482],[-6.3537897,52.2505298],[-6.3528142,52.2507202],[-6.3515818,52.2509882],[-6.3511604,52.2510745],[-6.350754,52.2511512],[-6.3503476,52.2512169],[-6.3499261,52.2512732],[-6.349526,52.2513215],[-6.3491171,52.2513569],[-6.3474929,52.2514742],[-6.3466369,52.2515328],[-6.3457217,52.2516021],[-6.3438837,52.2517332],[-6.3432969,52.2517753],[-6.3431589,52.2517846],[-6.3429665,52.2517968],[-6.3427786,52.2518079],[-6.3425796,52.2518162],[-6.3423815,52.2518195],[-6.3421723,52.2518218],[-6.3419019,52.2518141],[-6.3416524,52.2518011],[-6.3413815,52.2517802],[-6.3411032,52.2517519],[-6.3409752,52.2517375],[-6.3406389,52.2516929],[-6.3405037,52.2516749],[-6.3403044,52.2516484],[-6.3402416,52.2516402],[-6.3398691,52.2515915],[-6.3393516,52.2515197],[-6.339264,52.2515077],[-6.3389893,52.2514717],[-6.3387897,52.2514389],[-6.3385368,52.2513909],[-6.3382816,52.2513328],[-6.3380319,52.2512725],[-6.3377762,52.2512068],[-6.3374669,52.2511253]]}}]}
