{"type":"FeatureCollection","metadata":{"osmRelationIds":[20450147],"contributingWayIds":[26436344,746106057,164774819,91693259,91693253,91693250,91693240,314053851,1534510161,1534533542,314053850,50921075,50921046,91725038,146863395,146863400,91725048,146863396,93714324,645658915,746106055,645658920,146863398,146863402,146863392,146863401,146863397,146863399,146863394,146863389,93714315,93714320,146863391,146863387,746106054,312194834,871807324,549750558,871807328,871807322,871807319,312194836,146863388,74928729,74928591,146863403,146863393,746106052,146863390,372057176,871807318,871807317,372057179,872382249,872382250,872382248,872382247,840665185,840665184,132937561,132937588,132937563,846679117,132937578,132937550,132937568,846679118,963147083,202272689,202272690,871827121,871827120,372057178,966422146,966422145,372057177,966422148,1534510162,1534510165,966422147,966422150,966422149,132937560,75275718,1436761445,1436761446,801832771,801832769,801832767,801832766,801832765,801832764,801832763,801832762,801832761,801832756,801832759,801832757,1499530196,801832760,871827119,871827118,372059098,372059103,871827117,871827116,871827115,871827114,871827113,871827112,608962089,1534510166,746106050,549826730,681884742,681884741,133059562,871814590,871814588,1095607773,966427320,966427319,133059583,966427318,1546231140,1122820880,1546231139,966427316,966427315,314939958,871827111,871827110,682718055,682718051,966427314,966427313,314939957,1546231138,1546231137,1157396217,314815679,1019382502,1019382503,871814585,1019216137,1019216136,871814584,1018899221,1018899222,314815680,1018899218,1018899217,336673226,871814583,871814582,1534510167,1534510168,336673225,123625896,123625893,344755505,344755504,344755503,344755502,123625887,123625883,345536929,85788349,85788357,241784538,1546236211,1534510169,241784537,1534510170,1546238741,871827109,871827108,314804027,85788359,345570043,345570045,345570044,345570047,345570048,1539671207,372059092,769898303,769898302,372059095,769898305,769898304,311486044,675209679,311486042,971094765,971094764,846679116,700495280,700495278,700495279,700495281,700495282,133059611],"endpointSnapKm":[0.014,0.156],"coordinateCount":1116,"calculatedDistanceKm":151.31,"orientation":"Hualien to Taitung","source":"OpenStreetMap","license":"ODbL"},"features":[{"type":"Feature","properties":{"osmRelationIds":[20450147],"contributingWayIds":[26436344,746106057,164774819,91693259,91693253,91693250,91693240,314053851,1534510161,1534533542,314053850,50921075,50921046,91725038,146863395,146863400,91725048,146863396,93714324,645658915,746106055,645658920,146863398,146863402,146863392,146863401,146863397,146863399,146863394,146863389,93714315,93714320,146863391,146863387,746106054,312194834,871807324,549750558,871807328,871807322,871807319,312194836,146863388,74928729,74928591,146863403,146863393,746106052,146863390,372057176,871807318,871807317,372057179,872382249,872382250,872382248,872382247,840665185,840665184,132937561,132937588,132937563,846679117,132937578,132937550,132937568,846679118,963147083,202272689,202272690,871827121,871827120,372057178,966422146,966422145,372057177,966422148,1534510162,1534510165,966422147,966422150,966422149,132937560,75275718,1436761445,1436761446,801832771,801832769,801832767,801832766,801832765,801832764,801832763,801832762,801832761,801832756,801832759,801832757,1499530196,801832760,871827119,871827118,372059098,372059103,871827117,871827116,871827115,871827114,871827113,871827112,608962089,1534510166,746106050,549826730,681884742,681884741,133059562,871814590,871814588,1095607773,966427320,966427319,133059583,966427318,1546231140,1122820880,1546231139,966427316,966427315,314939958,871827111,871827110,682718055,682718051,966427314,966427313,314939957,1546231138,1546231137,1157396217,314815679,1019382502,1019382503,871814585,1019216137,1019216136,871814584,1018899221,1018899222,314815680,1018899218,1018899217,336673226,871814583,871814582,1534510167,1534510168,336673225,123625896,123625893,344755505,344755504,344755503,344755502,123625887,123625883,345536929,85788349,85788357,241784538,1546236211,1534510169,241784537,1534510170,1546238741,871827109,871827108,314804027,85788359,345570043,345570045,345570044,345570047,345570048,1539671207,372059092,769898303,769898302,372059095,769898305,769898304,311486044,675209679,311486042,971094765,971094764,846679116,700495280,700495278,700495279,700495281,700495282,133059611],"endpointSnapKm":[0.014,0.156],"coordinateCount":1116,"calculatedDistanceKm":151.31,"orientation":"Hualien to Taitung"},"geometry":{"type":"LineString","coordinates":[[121.6008225,23.9926848],[121.6007613,23.9925565],[121.6001836,23.9913459],[121.5999566,23.9909179],[121.5997306,23.9904473],[121.5993694,23.9897295],[121.5992397,23.989466],[121.5991064,23.9891919],[121.5989902,23.9889474],[121.5986003,23.9881517],[121.5980276,23.9869966],[121.5979347,23.9867839],[121.5977359,23.9863967],[121.5975531,23.9860309],[121.597456,23.9858282],[121.5969235,23.9847174],[121.594936,23.9807646],[121.5948447,23.9805975],[121.5938253,23.9784752],[121.5928431,23.9765305],[121.5919522,23.9745879],[121.5918335,23.9744136],[121.5917766,23.9743301],[121.5917485,23.9742889],[121.5916321,23.9741488],[121.591516,23.974026],[121.5913748,23.9738768],[121.5908684,23.9734392],[121.5901386,23.9728679],[121.5896613,23.9725386],[121.5880614,23.9715216],[121.587017,23.9707481],[121.5855861,23.9697852],[121.5852592,23.9695723],[121.5840081,23.9687109],[121.5839912,23.9686989],[121.583949,23.9686689],[121.5838583,23.9686044],[121.5838187,23.9685762],[121.5835756,23.9684034],[121.5834322,23.9683014],[121.5830061,23.9679918],[121.5829243,23.9679324],[121.5825321,23.9676688],[121.5809465,23.9665981],[121.5789609,23.9652544],[121.578655,23.9650531],[121.5779133,23.9645652],[121.5759875,23.9632484],[121.575632,23.9629784],[121.5737753,23.9616887],[121.5732138,23.9612936],[121.5726056,23.9609239],[121.571422,23.960084],[121.5711686,23.9599151],[121.5701394,23.9591938],[121.5698293,23.9589902],[121.5693694,23.9586841],[121.5689137,23.9583684],[121.5685098,23.9580893],[121.5683041,23.9579578],[121.568111,23.9578322],[121.5648751,23.9556265],[121.5639942,23.9550053],[121.5635507,23.9547142],[121.5611765,23.9530911],[121.5599455,23.9522949],[121.559676,23.9520998],[121.557941,23.9508889],[121.5548183,23.9487206],[121.552187,23.9469023],[121.5488272,23.9446041],[121.5472549,23.9435404],[121.5465483,23.9430499],[121.5461635,23.9427827],[121.5454076,23.9422583],[121.5436844,23.9411141],[121.542286,23.9401217],[121.5421594,23.9400252],[121.5420375,23.939924],[121.5419204,23.939818],[121.5418085,23.9397076],[121.5416912,23.9395811],[121.5415806,23.9394496],[121.5414769,23.9393136],[121.5413803,23.9391732],[121.5412911,23.9390288],[121.5412094,23.9388808],[121.5411355,23.9387293],[121.5410694,23.9385749],[121.5397445,23.935631],[121.5379691,23.9320966],[121.5363054,23.928434],[121.5355839,23.9269803],[121.5354258,23.9266088],[121.5353727,23.92649],[121.5351799,23.9260123],[121.5344071,23.9242816],[121.5340696,23.9234856],[121.5339388,23.9231751],[121.5336384,23.9222557],[121.532958,23.9199342],[121.5321981,23.9173846],[121.5314385,23.9149568],[121.530741,23.9125072],[121.5304763,23.9115225],[121.5303336,23.9110214],[121.5301704,23.9106227],[121.5300123,23.9102404],[121.5299251,23.9100193],[121.5296395,23.9089932],[121.5295179,23.9085808],[121.529295,23.9078423],[121.5290716,23.9071021],[121.5289134,23.9063169],[121.5288724,23.9060916],[121.5286466,23.9053745],[121.5286272,23.9053046],[121.5286112,23.9052547],[121.5276147,23.9019669],[121.5273519,23.9010658],[121.5268535,23.8993559],[121.5268099,23.899203],[121.5262534,23.8973343],[121.5253351,23.8942712],[121.5253111,23.8941904],[121.5246582,23.8918096],[121.524633,23.8917272],[121.5242822,23.8906691],[121.5237241,23.888775],[121.5231701,23.8868561],[121.5229705,23.8862875],[121.5227167,23.8856812],[121.5222046,23.8848419],[121.5216255,23.8839806],[121.5211245,23.8832547],[121.5206774,23.8826064],[121.5200174,23.8816899],[121.5191163,23.8805631],[121.5184989,23.8796864],[121.5178265,23.8787714],[121.5158502,23.8760145],[121.5157144,23.8758334],[121.5140484,23.8735218],[121.5130831,23.8721827],[121.512703,23.8716656],[121.5125716,23.8714764],[121.5122847,23.8710861],[121.5121117,23.8708604],[121.5114899,23.8700423],[121.5107674,23.8689979],[121.5105311,23.8686763],[121.5099069,23.8678048],[121.5094167,23.8671249],[121.5091716,23.8667818],[121.5090468,23.8666071],[121.5087714,23.8662346],[121.5083629,23.8656552],[121.5082818,23.8655431],[121.5068594,23.8635756],[121.50676,23.863438],[121.5018719,23.8566345],[121.4988679,23.8524933],[121.4960388,23.8485096],[121.4924079,23.8434446],[121.4875376,23.8366858],[121.4843643,23.8322899],[121.4842833,23.832161],[121.4842012,23.8320343],[121.4836142,23.8311833],[121.479379,23.8253311],[121.4783636,23.8238506],[121.477902,23.8230548],[121.4776085,23.8224853],[121.4772126,23.8216906],[121.476249,23.8198134],[121.4751169,23.8177971],[121.4748586,23.8172922],[121.4745971,23.8168766],[121.4739895,23.8160911],[121.4733354,23.8153616],[121.4717663,23.813855],[121.4701731,23.8122232],[121.4694294,23.8114044],[121.4627285,23.8039113],[121.4625775,23.8037322],[121.4624693,23.8035629],[121.4622901,23.8032281],[121.4621076,23.8029009],[121.4619466,23.8025786],[121.4618582,23.8023403],[121.4617499,23.8020746],[121.4615695,23.8014181],[121.4612709,23.8004454],[121.4605458,23.7961524],[121.4604581,23.7956465],[121.4601577,23.7942203],[121.4600795,23.7937803],[121.460059,23.7936836],[121.4596819,23.7919956],[121.4592646,23.790417],[121.4589971,23.7893314],[121.4587946,23.7882341],[121.4587289,23.7877957],[121.4586894,23.7874452],[121.4586162,23.7867958],[121.4585325,23.7860092],[121.4584191,23.7849439],[121.4581831,23.7833124],[121.458034,23.7824275],[121.4579107,23.781826],[121.4578351,23.7813306],[121.4577277,23.780386],[121.4576972,23.7802338],[121.4576797,23.7801194],[121.4574818,23.7788299],[121.457421,23.7783366],[121.4569749,23.7755275],[121.456952,23.7753887],[121.4562549,23.7711788],[121.4554495,23.7656947],[121.4550776,23.7635644],[121.4550395,23.7633221],[121.454939,23.7628975],[121.4547791,23.7623348],[121.4547022,23.7620833],[121.4545841,23.7617956],[121.4544214,23.7614204],[121.4543167,23.7611974],[121.4541169,23.7608072],[121.4539319,23.7604304],[121.4537301,23.7600015],[121.4533722,23.7593012],[121.4528069,23.7582401],[121.4522183,23.7571352],[121.4521454,23.7569995],[121.4505167,23.7538009],[121.4504931,23.7537582],[121.4504719,23.7537122],[121.4491131,23.7510054],[121.4488481,23.7504859],[121.4481814,23.7491789],[121.4481209,23.7490592],[121.4478059,23.7484358],[121.4477603,23.7483455],[121.4467224,23.7462914],[121.4459252,23.7447135],[121.4458817,23.7446275],[121.4458345,23.744534],[121.4451189,23.7431249],[121.4447798,23.7424572],[121.4446016,23.7420939],[121.4434443,23.7397354],[121.4430796,23.7389922],[121.4424015,23.7376821],[121.4417284,23.7362479],[121.440961,23.7346723],[121.4405576,23.7338866],[121.4402815,23.7334314],[121.4400409,23.7330685],[121.4397159,23.7326313],[121.4393554,23.7321459],[121.4392738,23.7320435],[121.4390556,23.7318147],[121.4386404,23.7314281],[121.4380378,23.7308639],[121.4373758,23.7303152],[121.4336829,23.7274325],[121.4307963,23.7254981],[121.430304,23.7252428],[121.4299874,23.7250533],[121.4298114,23.7249383],[121.4296268,23.7248123],[121.4294414,23.7246774],[121.4292799,23.7245579],[121.4289569,23.7242903],[121.4288509,23.7241989],[121.4287328,23.7240947],[121.427893,23.7232074],[121.4278678,23.7231799],[121.4276519,23.722922],[121.4272618,23.7224818],[121.4267476,23.721862],[121.4235275,23.7178573],[121.4223699,23.716289],[121.4218351,23.7156457],[121.4209723,23.7146045],[121.4206016,23.7141748],[121.420374,23.7139004],[121.4199332,23.7133691],[121.4188285,23.712008],[121.416874,23.7096378],[121.4165186,23.7092043],[121.4162572,23.7088853],[121.4159604,23.7085158],[121.4127271,23.7044905],[121.4118755,23.7033866],[121.411382,23.7026694],[121.4107838,23.7014611],[121.4106229,23.7010013],[121.4103279,23.6997682],[121.4102404,23.6992347],[121.4102031,23.6984129],[121.4102279,23.6977588],[121.4103128,23.697115],[121.4104728,23.6963955],[121.4106736,23.6956983],[121.410874,23.6951269],[121.4156204,23.6853293],[121.4172015,23.6820166],[121.4178599,23.6803536],[121.4188882,23.6780667],[121.4201606,23.6755768],[121.4203638,23.675128],[121.4214036,23.6729364],[121.4217003,23.6723544],[121.4218823,23.671638],[121.4219579,23.6710655],[121.4219745,23.67045],[121.4218383,23.6696113],[121.421595,23.6686856],[121.4215691,23.6685871],[121.4215526,23.6685242],[121.4212026,23.6674176],[121.4210713,23.667019],[121.4208958,23.6663918],[121.419932,23.6630124],[121.4196949,23.6621427],[121.41966,23.6620046],[121.4194691,23.6614549],[121.4192923,23.6608182],[121.4190256,23.6598444],[121.418635,23.6583318],[121.4181859,23.656558],[121.417695,23.6546063],[121.4166927,23.6511355],[121.4157608,23.6476952],[121.4151505,23.6457331],[121.4151041,23.6455838],[121.414422,23.6430562],[121.413696,23.6405324],[121.413171,23.6387158],[121.412796,23.6376325],[121.412621,23.6371491],[121.4120793,23.6361825],[121.4115793,23.6354491],[121.410696,23.6345825],[121.409571,23.6336325],[121.4070377,23.6315575],[121.4062557,23.6308956],[121.4060787,23.6307535],[121.4058076,23.6305359],[121.4030294,23.6283409],[121.4010461,23.6266742],[121.4002545,23.6259242],[121.3995545,23.6252659],[121.3985211,23.6241659],[121.3981045,23.6236659],[121.3971462,23.6224493],[121.3964045,23.6214409],[121.3957545,23.6204326],[121.3951878,23.619441],[121.3924024,23.613956],[121.3915288,23.6122651],[121.3908462,23.611016],[121.3903296,23.6099827],[121.3899462,23.6090161],[121.3897046,23.6081161],[121.3895462,23.6070578],[121.3894712,23.6060497],[121.3892859,23.6033494],[121.3892129,23.6023328],[121.3889871,23.5996822],[121.3889745,23.5995542],[121.3888962,23.5987578],[121.3887296,23.5979745],[121.3885373,23.5973319],[121.3882476,23.5965994],[121.3879546,23.5959745],[121.3875546,23.5952745],[121.3870379,23.5944495],[121.3865344,23.5936466],[121.3845629,23.5905496],[121.3826923,23.587634],[121.3826064,23.5874983],[121.3825662,23.5874321],[121.3823269,23.5870598],[121.3819863,23.5864773],[121.3816486,23.5857911],[121.3814231,23.5852556],[121.3811591,23.5844672],[121.3809883,23.5838964],[121.3807818,23.5829043],[121.3806388,23.5822133],[121.380542,23.5817998],[121.3805144,23.581682],[121.3802459,23.5803255],[121.3797408,23.5776984],[121.3796937,23.5774968],[121.3784126,23.5711978],[121.3780455,23.5692561],[121.3779906,23.5684252],[121.3779836,23.5675733],[121.3779837,23.5668414],[121.3779688,23.5634529],[121.3779645,23.563209],[121.3779557,23.5615017],[121.3779157,23.5597228],[121.3778866,23.5580028],[121.3777392,23.556503],[121.3774574,23.5545477],[121.3772991,23.5533847],[121.377165,23.5524184],[121.3769612,23.551012],[121.3768754,23.5503039],[121.3768056,23.5494359],[121.3767976,23.5482803],[121.3768378,23.5472082],[121.3768673,23.5463132],[121.3768941,23.5451993],[121.3769424,23.5439133],[121.3769485,23.5434248],[121.3774732,23.5283879],[121.3774857,23.5264788],[121.3773879,23.5252494],[121.3760866,23.5159419],[121.3757154,23.5132529],[121.3755703,23.5119813],[121.3755587,23.5108209],[121.3755969,23.5101483],[121.3756022,23.5100543],[121.3756585,23.5090634],[121.3758877,23.505998],[121.3761492,23.5029136],[121.3763561,23.500707],[121.3763771,23.5004446],[121.3763924,23.5002537],[121.376603,23.4976179],[121.3766711,23.4968585],[121.3767632,23.4958317],[121.376777,23.4956781],[121.3767813,23.4956155],[121.3767878,23.495522],[121.3767942,23.4954286],[121.3768181,23.4951302],[121.3768282,23.4949922],[121.3768486,23.4947114],[121.3768511,23.494314],[121.3768027,23.4936358],[121.3767308,23.49329],[121.3766374,23.4929951],[121.3764723,23.4925251],[121.3761876,23.4920153],[121.3730107,23.4871573],[121.3721398,23.4858139],[121.3717067,23.4853335],[121.3712514,23.4848716],[121.3703466,23.4841304],[121.3699293,23.483831],[121.3689595,23.4832509],[121.3682083,23.4828939],[121.3633414,23.4809247],[121.3613393,23.480054],[121.3602086,23.4794233],[121.3596869,23.4790895],[121.3592282,23.4787271],[121.358924,23.4784993],[121.3586491,23.478256],[121.3582082,23.4778658],[121.3576975,23.4773563],[121.3573223,23.4769316],[121.3569463,23.4764701],[121.3566775,23.476104],[121.35567,23.474544],[121.3552633,23.4739141],[121.3549393,23.4734473],[121.3548657,23.4733302],[121.3532888,23.4708126],[121.3523049,23.4692323],[121.3519079,23.4684267],[121.3516257,23.4677796],[121.3514209,23.4672467],[121.3511682,23.4665314],[121.3508104,23.4650571],[121.3506583,23.4639719],[121.3505725,23.461914],[121.3503123,23.4481391],[121.3502158,23.4431431],[121.3500726,23.4414671],[121.3499583,23.4408569],[121.3496316,23.4394542],[121.3488534,23.4358767],[121.3484969,23.4343269],[121.3481796,23.432979],[121.3480272,23.4321377],[121.3479435,23.431676],[121.3478464,23.4312971],[121.3477271,23.4307376],[121.347568,23.4302056],[121.3475249,23.4301037],[121.3472561,23.4294682],[121.3467535,23.4282679],[121.3465074,23.4276775],[121.3463925,23.4274017],[121.3458972,23.4261734],[121.3452628,23.4246755],[121.343906,23.4214124],[121.3438197,23.4212049],[121.3436021,23.4206817],[121.3411845,23.4148735],[121.3398726,23.4116532],[121.3390367,23.4094065],[121.3379753,23.4067035],[121.3372651,23.40483],[121.3371074,23.4044142],[121.3369293,23.4039442],[121.3360264,23.4015704],[121.3353857,23.3998643],[121.3349739,23.3987596],[121.3338204,23.3956771],[121.3332788,23.3941932],[121.3322005,23.3914459],[121.3316613,23.3904516],[121.331133,23.3896217],[121.3304758,23.3888024],[121.3296309,23.3878861],[121.328727,23.3867936],[121.328137,23.3858285],[121.3278538,23.3852825],[121.3275517,23.3845873],[121.3273323,23.3837923],[121.3266999,23.3805617],[121.3262841,23.378451],[121.3260753,23.377342],[121.3245541,23.3692053],[121.3234322,23.3632359],[121.3233114,23.3625567],[121.323272,23.3623359],[121.3230143,23.3609549],[121.3220029,23.355749],[121.3218423,23.3552975],[121.3217185,23.3549494],[121.3212529,23.3540369],[121.3208681,23.3534938],[121.3204739,23.3529915],[121.3187088,23.3508408],[121.3186018,23.3507059],[121.3180746,23.3500562],[121.3176068,23.3493143],[121.3169814,23.3479035],[121.3166852,23.347208],[121.3150846,23.3437016],[121.3149385,23.3434128],[121.3136883,23.3406368],[121.3132275,23.339584],[121.3130621,23.339225],[121.3129187,23.338891],[121.3127755,23.3385524],[121.3124295,23.3375518],[121.312264,23.3366604],[121.3120693,23.3353195],[121.3120008,23.3347877],[121.3119957,23.3347484],[121.3118994,23.3343361],[121.31182,23.3339517],[121.3117024,23.3333191],[121.3114471,23.3316035],[121.3113925,23.3311935],[121.3113154,23.3307176],[121.3112359,23.3299105],[121.3112253,23.3297517],[121.3112225,23.3295176],[121.3111232,23.3288039],[121.3110453,23.3282592],[121.310766,23.3260547],[121.3105506,23.3245491],[121.3104895,23.3235573],[121.3104542,23.3229482],[121.3104962,23.3220482],[121.3106107,23.3212142],[121.3106452,23.320866],[121.3120996,23.3084667],[121.3121991,23.3075378],[121.3122658,23.3062113],[121.3122671,23.3054245],[121.3122057,23.3045297],[121.3119468,23.3029118],[121.3107553,23.2969844],[121.3106348,23.2963846],[121.3076302,23.2815568],[121.307301,23.2800706],[121.3069576,23.2788917],[121.3067604,23.2783556],[121.3063957,23.2775107],[121.3049599,23.2745043],[121.3033734,23.2711823],[121.3032755,23.2709867],[121.3032158,23.2708674],[121.3029899,23.270416],[121.302833,23.2700291],[121.3027386,23.2698061],[121.3014807,23.2671304],[121.2977722,23.2594386],[121.2973542,23.2585605],[121.2931234,23.2499249],[121.2926218,23.2491585],[121.2921658,23.2485498],[121.2917286,23.248084],[121.2913102,23.2477217],[121.2908623,23.2473324],[121.2896016,23.2464624],[121.2859289,23.2441482],[121.2850208,23.2435342],[121.2847742,23.2433594],[121.2845338,23.2431774],[121.2842998,23.2429885],[121.2840725,23.2427928],[121.2838521,23.2425906],[121.2836389,23.2423819],[121.2834331,23.2421672],[121.2832348,23.2419464],[121.2830443,23.24172],[121.2828617,23.2414881],[121.2826873,23.241251],[121.2825213,23.2410089],[121.2823637,23.240762],[121.2822148,23.2405106],[121.2820745,23.2402547],[121.2819433,23.2399947],[121.2818211,23.239731],[121.2817082,23.2394639],[121.2816046,23.2391936],[121.2815105,23.2389204],[121.281426,23.2386446],[121.2813511,23.2383664],[121.2812814,23.2381003],[121.2811453,23.237514],[121.2807392,23.235299],[121.279553,23.2295367],[121.2794732,23.2292135],[121.2793331,23.2285601],[121.2788585,23.22734],[121.2787745,23.2271418],[121.2785053,23.2266374],[121.2783625,23.2263534],[121.2782026,23.2259719],[121.2779233,23.2253052],[121.2777033,23.2247574],[121.2775219,23.2242084],[121.2773076,23.2234064],[121.2772045,23.2228687],[121.277177,23.2227224],[121.2770951,23.2223269],[121.2766226,23.2205237],[121.2764251,23.2195582],[121.2763909,23.2193913],[121.2763568,23.2191838],[121.2763279,23.2190082],[121.2762887,23.2187701],[121.2758959,23.2165345],[121.2755555,23.2154292],[121.2754998,23.2152808],[121.2751205,23.2143883],[121.2742412,23.2122398],[121.272988,23.209186],[121.2726441,23.2083271],[121.2701799,23.2023618],[121.2701331,23.2022485],[121.2697015,23.2012038],[121.2695447,23.200837],[121.2692811,23.2002144],[121.2692137,23.2000529],[121.2688112,23.1990589],[121.2684656,23.1984311],[121.268166,23.1979296],[121.2679129,23.1975441],[121.2673639,23.1968729],[121.2668193,23.1963226],[121.2664477,23.1960022],[121.2656692,23.1954379],[121.2654821,23.1953023],[121.2643932,23.1945131],[121.2620756,23.1927745],[121.2608094,23.1918932],[121.260233,23.1914694],[121.2593671,23.1907705],[121.2578791,23.1895],[121.2546144,23.1866483],[121.2534043,23.1856057],[121.252475,23.1848574],[121.2522222,23.1846359],[121.2519724,23.1844198],[121.251707,23.1841644],[121.2512754,23.1837089],[121.2507268,23.1830591],[121.2504806,23.1827207],[121.2501674,23.1821921],[121.2498011,23.1815479],[121.2497026,23.1813703],[121.2495447,23.1810792],[121.2495319,23.1810571],[121.2484325,23.1791613],[121.2469995,23.1766526],[121.2468821,23.1764412],[121.246786,23.1762913],[121.2454601,23.1739571],[121.2451917,23.1734957],[121.2445117,23.1723255],[121.2428809,23.1694464],[121.2420266,23.1679359],[121.2419458,23.1678012],[121.2397918,23.164096],[121.2394005,23.1633347],[121.2392122,23.1629731],[121.2390485,23.1626197],[121.238942,23.1623512],[121.2388456,23.1620887],[121.2388076,23.161976],[121.2387247,23.1617287],[121.2386515,23.1614583],[121.2385772,23.1611538],[121.238451,23.1605583],[121.2383678,23.1596294],[121.238357,23.1588175],[121.2384774,23.157894],[121.2385498,23.1574971],[121.2386165,23.1570528],[121.238743,23.1563076],[121.2387641,23.1561598],[121.2388514,23.1555055],[121.2388971,23.1545386],[121.2388569,23.1537026],[121.2387798,23.1527853],[121.2386851,23.1523147],[121.238375,23.1511466],[121.2365601,23.1437932],[121.2360807,23.141849],[121.2359024,23.1412229],[121.235709,23.1407328],[121.2355509,23.1403634],[121.2349135,23.1389938],[121.2348806,23.1389187],[121.2343669,23.1377998],[121.2339633,23.13709],[121.2335035,23.1364683],[121.2333955,23.136343],[121.2332165,23.1361353],[121.2330099,23.1358867],[121.2322463,23.1352247],[121.2272697,23.1317683],[121.2237588,23.1293247],[121.2233856,23.1290665],[121.223107,23.1288733],[121.2227272,23.1286099],[121.2225537,23.1284896],[121.2195279,23.1263914],[121.2186775,23.1258005],[121.2184863,23.1256676],[121.2184191,23.1256209],[121.2182935,23.1255336],[121.2182146,23.1254724],[121.2181755,23.1254422],[121.2178305,23.1252123],[121.2168485,23.1245391],[121.2143377,23.1227931],[121.2141706,23.1226963],[121.2139994,23.1226055],[121.2138988,23.1225569],[121.2138246,23.122521],[121.2136462,23.1224428],[121.2134647,23.1223712],[121.2132802,23.1223061],[121.2130903,23.1222469],[121.2128979,23.1221946],[121.2127034,23.1221495],[121.2126055,23.1221305],[121.2125172,23.1221134],[121.2125071,23.1221115],[121.2123093,23.1220807],[121.2120251,23.1220523],[121.2084212,23.1218902],[121.2061411,23.1217675],[121.2034603,23.1216417],[121.202614,23.121606],[121.202036,23.1215677],[121.2013212,23.1214937],[121.2007083,23.1214123],[121.2002671,23.1213531],[121.1994303,23.1212002],[121.1986269,23.1210263],[121.1978974,23.1208413],[121.1973615,23.1206865],[121.1967017,23.1204793],[121.1960284,23.120261],[121.195272,23.119981],[121.1933002,23.1192692],[121.1931165,23.1192104],[121.192424,23.1189636],[121.1914785,23.1186133],[121.1909241,23.1183659],[121.1904883,23.1181303],[121.1898848,23.1177516],[121.1895625,23.1175246],[121.1893349,23.1173643],[121.1885396,23.1168278],[121.1876089,23.116195],[121.1874531,23.1160879],[121.186953,23.1157524],[121.1864529,23.1154168],[121.1858413,23.1150048],[121.18527,23.1146039],[121.1846773,23.114171],[121.183709,23.1135172],[121.1828131,23.1128944],[121.1819951,23.112327],[121.1813594,23.111878],[121.1807308,23.1114325],[121.1806282,23.1113646],[121.1803978,23.1111864],[121.1801732,23.111002],[121.1799547,23.1108116],[121.1797424,23.1106153],[121.1795365,23.1104132],[121.1793373,23.1102057],[121.1791448,23.1099928],[121.1789828,23.1098032],[121.1788263,23.1096098],[121.1786752,23.1094128],[121.1785297,23.1092122],[121.1781768,23.1086334],[121.178103,23.1085042],[121.1777936,23.1078362],[121.177621,23.1073719],[121.1775119,23.1070244],[121.1773865,23.1065452],[121.1772741,23.1059026],[121.1772399,23.1056256],[121.1772074,23.1050414],[121.1772139,23.1046775],[121.1772421,23.1041174],[121.1772872,23.1036306],[121.1773596,23.1021654],[121.1773645,23.1019382],[121.177389,23.1014362],[121.177444,23.1005529],[121.177478,23.1000565],[121.1775423,23.0989759],[121.1776228,23.0979113],[121.1776639,23.0975969],[121.177781,23.0958006],[121.1778384,23.0946078],[121.1779091,23.0933114],[121.1779489,23.09246],[121.177929,23.0916838],[121.1779317,23.0910001],[121.1778022,23.0903436],[121.1777746,23.090204],[121.1777455,23.0900608],[121.1776486,23.0895828],[121.1775993,23.0892792],[121.1774284,23.0882278],[121.1772592,23.087227],[121.177009,23.0858914],[121.176879,23.0849992],[121.1767315,23.083422],[121.1765535,23.0825078],[121.1763856,23.0809507],[121.1762321,23.0798005],[121.1761383,23.0793412],[121.1759202,23.0787117],[121.1753841,23.0772527],[121.1746254,23.0752693],[121.1744507,23.0748338],[121.1730352,23.0711156],[121.172496,23.0697331],[121.1714377,23.0669348],[121.1713124,23.0666002],[121.170853,23.0652268],[121.1705246,23.0642028],[121.170419,23.0638731],[121.1702757,23.0634299],[121.1685752,23.0581718],[121.1656925,23.0491997],[121.1653584,23.0481896],[121.1653233,23.0480786],[121.1653015,23.0480098],[121.1651945,23.0476718],[121.1650436,23.0472292],[121.1647082,23.0462457],[121.1645868,23.0458735],[121.1644987,23.0456036],[121.1643205,23.0450663],[121.1641984,23.0446876],[121.1641675,23.0445877],[121.1641365,23.0444878],[121.1640984,23.0443648],[121.1637554,23.0432587],[121.1637237,23.0431563],[121.163601,23.0427761],[121.1635881,23.0427361],[121.1635288,23.0425525],[121.1634528,23.0423171],[121.163328,23.0418692],[121.1629979,23.0409079],[121.1626676,23.0398756],[121.1624629,23.0392546],[121.1623151,23.0387021],[121.1622039,23.0383097],[121.1619534,23.0376078],[121.1618966,23.0374438],[121.1616418,23.036597],[121.1612485,23.0353723],[121.1607718,23.033963],[121.1606911,23.0337097],[121.1605657,23.0333162],[121.1605234,23.0331836],[121.1603676,23.0326625],[121.1601553,23.0318938],[121.1599393,23.0312576],[121.1588746,23.0281289],[121.1586971,23.0276074],[121.158275,23.0262153],[121.1574317,23.0233833],[121.1570697,23.0222569],[121.1563623,23.0199232],[121.1552671,23.0164671],[121.1547429,23.0149179],[121.1545726,23.0144144],[121.1542087,23.0132456],[121.1539467,23.0124217],[121.15339,23.010717],[121.1529097,23.0091361],[121.1518108,23.0055926],[121.1517773,23.0054774],[121.1515452,23.0046783],[121.151447,23.0042362],[121.1514033,23.0039381],[121.1513559,23.0035428],[121.1513205,23.0030405],[121.1513029,23.0027436],[121.1513133,23.0023977],[121.1514526,23.0011221],[121.151552,23.0002497],[121.1517066,22.9988873],[121.1517547,22.9983001],[121.151748,22.9981124],[121.1516841,22.9972342],[121.151542,22.9959884],[121.1514539,22.9951746],[121.1514365,22.9943916],[121.1514229,22.9935361],[121.1514704,22.9926369],[121.1515654,22.991694],[121.1516875,22.9908635],[121.1518887,22.9898694],[121.1521148,22.9889214],[121.1523568,22.9881607],[121.1528744,22.986743],[121.1531148,22.9862578],[121.153936,22.9844921],[121.1544661,22.983348],[121.1557065,22.9807414],[121.1560981,22.9799315],[121.156465,22.9791723],[121.1567271,22.978526],[121.1569417,22.9779334],[121.1571583,22.9772227],[121.1572555,22.9768925],[121.1574634,22.9759983],[121.1579634,22.9736887],[121.1585802,22.9708931],[121.1593115,22.9675261],[121.1598033,22.9652996],[121.1599055,22.9646905],[121.1599929,22.9637072],[121.1599892,22.9628914],[121.1599225,22.9619729],[121.1598351,22.9612946],[121.159556,22.9588575],[121.1595487,22.9588026],[121.159502,22.9584514],[121.1594579,22.9579565],[121.1592339,22.956077],[121.1590676,22.9547025],[121.158958,22.953734],[121.1589023,22.953297],[121.1588494,22.9530643],[121.1586564,22.9510142],[121.158643,22.9503019],[121.1586473,22.9477247],[121.1586301,22.9452029],[121.1585793,22.944556],[121.1584467,22.9437118],[121.1582258,22.9428005],[121.1579541,22.9420762],[121.1576669,22.9413846],[121.1573313,22.9407039],[121.1569904,22.9402135],[121.1565986,22.9396107],[121.1557711,22.9385737],[121.1545433,22.9370557],[121.1524838,22.934473],[121.1520091,22.9338897],[121.1495733,22.9308967],[121.1480651,22.9289155],[121.1464976,22.9268988],[121.1456828,22.9258505],[121.1455454,22.9256736],[121.1446208,22.9245188],[121.1440338,22.9239107],[121.1432675,22.9231607],[121.1417419,22.9216648],[121.1409697,22.9208873],[121.1402574,22.9201438],[121.1397554,22.9194565],[121.1392195,22.9186443],[121.1379833,22.9162372],[121.1377734,22.9158858],[121.1374885,22.915355],[121.1372906,22.9148624],[121.1372302,22.9146203],[121.1371725,22.914356],[121.1371442,22.914197],[121.1370945,22.9137377],[121.1370849,22.9134691],[121.1371568,22.9123987],[121.1372616,22.9112176],[121.137284,22.9108766],[121.1374553,22.9086435],[121.1375874,22.9069091],[121.1376008,22.9066941],[121.137713,22.9053256],[121.1378351,22.9038821],[121.1379233,22.9026762],[121.1379911,22.9018513],[121.1380522,22.9009515],[121.13812,22.9002329],[121.1382693,22.8994768],[121.1384524,22.8986832],[121.1386424,22.8980521],[121.138934,22.8973897],[121.1397006,22.8958337],[121.1402325,22.8946228],[121.1402529,22.8945724],[121.1405242,22.8939042],[121.140782,22.8931793],[121.1410088,22.8924682],[121.1413576,22.8909542],[121.1417603,22.8889614],[121.1421437,22.8870786],[121.1428167,22.8838803],[121.1430966,22.8828402],[121.1433326,22.8822249],[121.1435634,22.8818003],[121.1439058,22.8812008],[121.1443244,22.8805892],[121.1452086,22.8792797],[121.1460435,22.8780343],[121.1465079,22.8773244],[121.1468393,22.8767733],[121.1470701,22.8760389],[121.1471498,22.8756231],[121.1471855,22.8750076],[121.1471452,22.874458],[121.1469648,22.8736904],[121.1465182,22.8724075],[121.146103,22.8711076],[121.1457539,22.8703235],[121.1441199,22.867368],[121.1436164,22.8666081],[121.1429332,22.8657477],[121.1423885,22.8651505],[121.1407489,22.8638719],[121.1405733,22.8637445],[121.140459,22.8636699],[121.1402259,22.8634965],[121.1400063,22.8633415],[121.139703,22.8631296],[121.1379576,22.8618384],[121.1378882,22.8617875],[121.1362505,22.8605939],[121.1360693,22.8604618],[121.1357014,22.8601935],[121.1353462,22.8599344],[121.1350517,22.859712],[121.133853,22.8588166],[121.1333726,22.8584412],[121.1329828,22.8580962],[121.1325272,22.8576653],[121.1321299,22.8572722],[121.1315463,22.8566192],[121.1312638,22.8562733],[121.1308269,22.8556775],[121.1306473,22.8553923],[121.130486,22.8550958],[121.1299058,22.8535011],[121.1265264,22.8433259],[121.1197821,22.8238821],[121.1196579,22.8232509],[121.1196571,22.8223777],[121.1197801,22.8216146],[121.1200224,22.8206905],[121.1206967,22.8186674],[121.120968,22.8177276],[121.1227505,22.8093351],[121.1233589,22.8066596],[121.1234809,22.805982],[121.1235844,22.8052831],[121.1236292,22.8047931],[121.1236212,22.8042157],[121.1235701,22.8035177],[121.1231646,22.8004015],[121.1230876,22.7994514],[121.1230422,22.7990912],[121.1226556,22.7960214],[121.1223349,22.7935038]]}}]}
