{"type":"FeatureCollection","metadata":{"name":"El Chepe Express — Los Mochis to Creel","preparedFor":"Rallii","source":"OpenStreetMap","sourceUrl":"https://www.openstreetmap.org/relation/5977762","license":"ODbL","relationIds":[5977762],"contributingWayIds":[398022837,152895799,152895791,177913276,1381507450,1381507460,60902867,60893546,700024751,269678335,700024747,103706674,631070817,327655248,327669165,269678340,1274299029,269678347,270359335,60902866,270406922,270406920,60902862,60902861,103701579,60902869,103701586,103701587,172340906,103701589,241950076,241949061,103701590,103690119,103690090,241952688,103690133,103690103,103690099,103690109,103679141,60893549,103679136,258484652,103679122,258507164,258485572,103678180,256370493,270570974,270448955,103678149,270457380,257335805,172332785,256387591,256387597,172332780,172332783,257333998,270576939,288444855,1423700527,257333113,257330743,257329796,1194854430,288444852,172330576,172327068,172326216,270968135,60882531,257327119,103635476,103635478],"preparedConnectorCount":1,"maximumPreparedConnectorKm":0.5,"coordinateCount":3664,"calculatedDistanceKm":344.51,"orientation":"Los Mochis to Creel","endpointSnapKm":[4.097,0.181]},"features":[{"type":"Feature","properties":{"name":"El Chepe Express — Los Mochis to Creel"},"geometry":{"type":"LineString","coordinates":[[-108.9601679,25.7724106],[-108.9540942,25.7829492],[-108.9489776,25.7918256],[-108.9455038,25.7978512],[-108.9436351,25.8011015],[-108.9435948,25.8011708],[-108.9425661,25.8029435],[-108.941238,25.8052465],[-108.9390174,25.8090915],[-108.9385379,25.8099227],[-108.9379388,25.8109453],[-108.9351,25.8157016],[-108.9318894,25.8214373],[-108.9180155,25.8453267],[-108.9096477,25.8598155],[-108.9041255,25.8693861],[-108.899133,25.8780291],[-108.8957435,25.8839025],[-108.8888152,25.8958566],[-108.8814654,25.9086215],[-108.8813166,25.908876],[-108.872119,25.9247107],[-108.8663598,25.9346726],[-108.8452363,25.9711687],[-108.8391364,25.9817058],[-108.8365211,25.9861728],[-108.8355603,25.9879575],[-108.8355139,25.9880325],[-108.8353247,25.9884554],[-108.8258939,26.004703],[-108.8222276,26.0111918],[-108.820976,26.013407],[-108.81945,26.0152],[-108.8177339,26.0161439],[-108.816017,26.016453],[-108.794128,26.016106],[-108.7926939,26.016376],[-108.7915088,26.0167957],[-108.7890613,26.0179187],[-108.7889456,26.01798],[-108.7883636,26.0182861],[-108.787851,26.0186799],[-108.7873349,26.0191704],[-108.7869884,26.0195699],[-108.7867129,26.0200951],[-108.7865003,26.0206513],[-108.7863745,26.0213043],[-108.7863483,26.0219073],[-108.7863762,26.0223907],[-108.7879239,26.0334382],[-108.7879991,26.0341447],[-108.7879882,26.0350944],[-108.7879581,26.0356991],[-108.7879155,26.0366287],[-108.7879007,26.0369501],[-108.7878922,26.0370876],[-108.7878253,26.037476],[-108.7877433,26.03796],[-108.7876708,26.0384112],[-108.7876484,26.0386484],[-108.7869942,26.0501535],[-108.7869319,26.0512639],[-108.786827,26.05351],[-108.7867729,26.05414],[-108.7867657,26.0545134],[-108.7868051,26.0559472],[-108.7868041,26.056316],[-108.7865795,26.0606641],[-108.7863269,26.0653185],[-108.7863111,26.0655527],[-108.7862905,26.0657755],[-108.7862654,26.0659879],[-108.786236,26.0661902],[-108.7862028,26.0663829],[-108.786166,26.0665663],[-108.7861259,26.066741],[-108.786083,26.0669071],[-108.7860374,26.0670653],[-108.7859896,26.0672159],[-108.7859398,26.0673594],[-108.7858883,26.067496],[-108.7858355,26.0676263],[-108.7857818,26.0677507],[-108.7857273,26.0678696],[-108.7856724,26.0679833],[-108.7856174,26.0680924],[-108.7855626,26.0681971],[-108.7855084,26.0682981],[-108.7854552,26.0683953],[-108.7853982,26.0684946],[-108.7853323,26.0686015],[-108.7852579,26.0687156],[-108.7851752,26.068836],[-108.7850849,26.0689619],[-108.7849873,26.0690927],[-108.7848827,26.0692275],[-108.7847718,26.0693656],[-108.7846548,26.0695062],[-108.7845322,26.0696487],[-108.7844044,26.0697921],[-108.7842718,26.0699359],[-108.7841349,26.0700791],[-108.7839941,26.0702212],[-108.7838498,26.0703613],[-108.7837025,26.0704987],[-108.7835525,26.0706326],[-108.7834002,26.0707623],[-108.7832463,26.0708871],[-108.7830908,26.0710062],[-108.7829357,26.0711194],[-108.7827826,26.0712267],[-108.7826313,26.0713282],[-108.7824815,26.071424],[-108.782333,26.0715145],[-108.7821856,26.0715996],[-108.782039,26.0716797],[-108.781893,26.0717548],[-108.7817473,26.0718251],[-108.7816017,26.0718908],[-108.781456,26.071952],[-108.7813098,26.072009],[-108.7812944,26.0720146],[-108.781163,26.0720619],[-108.7810153,26.0721108],[-108.7808664,26.0721559],[-108.7807161,26.0721975],[-108.7805641,26.0722355],[-108.7804102,26.0722703],[-108.7802541,26.0723019],[-108.7800952,26.0723306],[-108.7792862,26.0724612],[-108.7789252,26.0725194],[-108.77682,26.0728909],[-108.7765686,26.0729329],[-108.7763248,26.0729696],[-108.7760772,26.0730089],[-108.7758301,26.0730536],[-108.775584,26.0731015],[-108.7753397,26.0731579],[-108.7750941,26.0732205],[-108.7748653,26.0732844],[-108.7746221,26.0733568],[-108.7743245,26.0734449],[-108.7740315,26.0735365],[-108.773542,26.0736946],[-108.7733093,26.0737765],[-108.7729948,26.0739011],[-108.7723236,26.0741595],[-108.7720902,26.0742448],[-108.7718643,26.074339],[-108.7716463,26.074439],[-108.7714331,26.0745468],[-108.7712165,26.0746625],[-108.7708068,26.0749137],[-108.7689574,26.0760951],[-108.7671638,26.0772281],[-108.7666456,26.0775691],[-108.7650771,26.078572],[-108.765028,26.0786038],[-108.7649787,26.0786366],[-108.7649293,26.0786702],[-108.7648799,26.0787047],[-108.7648305,26.0787401],[-108.7647811,26.0787763],[-108.7647317,26.0788132],[-108.7646825,26.0788508],[-108.7646334,26.0788892],[-108.7645845,26.0789283],[-108.7645358,26.078968],[-108.7644873,26.0790083],[-108.7644391,26.0790491],[-108.7643913,26.0790906],[-108.7643438,26.0791325],[-108.7642968,26.079175],[-108.7642501,26.0792178],[-108.764204,26.0792612],[-108.7641584,26.0793049],[-108.7641133,26.0793489],[-108.7640681,26.0793943],[-108.764022,26.0794421],[-108.7639752,26.079492],[-108.7639277,26.0795439],[-108.7638797,26.0795978],[-108.7638312,26.0796534],[-108.7637825,26.0797106],[-108.7637336,26.0797692],[-108.7636846,26.0798292],[-108.7636356,26.0798904],[-108.7635867,26.0799526],[-108.7635381,26.0800157],[-108.7634899,26.0800795],[-108.7634422,26.080144],[-108.763395,26.080209],[-108.7633485,26.0802743],[-108.7633029,26.0803397],[-108.7632581,26.0804053],[-108.7632144,26.0804707],[-108.7631719,26.0805359],[-108.7621012,26.0821959],[-108.7617625,26.0827274],[-108.7606743,26.0844132],[-108.7606128,26.0845087],[-108.7586735,26.0875219],[-108.7580374,26.0885261],[-108.7579962,26.0885917],[-108.7579907,26.0886004],[-108.7579463,26.0886725],[-108.7579041,26.0887424],[-108.7578639,26.0888107],[-108.7578256,26.0888776],[-108.7577889,26.0889434],[-108.7577538,26.0890084],[-108.7577201,26.0890729],[-108.7576876,26.0891373],[-108.7576561,26.0892018],[-108.7576256,26.0892667],[-108.7575958,26.0893325],[-108.7575666,26.0893993],[-108.7575377,26.0894675],[-108.7575092,26.0895374],[-108.7574808,26.0896093],[-108.7574523,26.0896836],[-108.7574236,26.0897604],[-108.7573945,26.0898402],[-108.7573649,26.0899233],[-108.7569096,26.0912098],[-108.7557687,26.094452],[-108.7557507,26.0945032],[-108.7557333,26.0945525],[-108.7557164,26.0946001],[-108.7556998,26.0946462],[-108.7556833,26.0946912],[-108.7556669,26.0947351],[-108.7556504,26.0947785],[-108.7556335,26.0948213],[-108.7556161,26.094864],[-108.7555982,26.0949069],[-108.7555794,26.0949501],[-108.7555598,26.0949939],[-108.755539,26.0950386],[-108.7555169,26.0950845],[-108.7554934,26.0951319],[-108.7554683,26.0951809],[-108.7554415,26.0952319],[-108.7554127,26.0952851],[-108.7553819,26.0953407],[-108.7553489,26.095399],[-108.7553145,26.0954578],[-108.7552792,26.0955153],[-108.7552431,26.0955718],[-108.7552061,26.0956272],[-108.7551683,26.0956817],[-108.7551297,26.0957354],[-108.7550903,26.0957884],[-108.7550502,26.0958407],[-108.7550094,26.0958925],[-108.7549679,26.0959439],[-108.7549258,26.0959949],[-108.7548829,26.0960457],[-108.7548395,26.0960963],[-108.7547955,26.0961468],[-108.754751,26.0961973],[-108.7547059,26.0962479],[-108.7546603,26.0962987],[-108.7546142,26.0963498],[-108.7545677,26.0964013],[-108.7545208,26.0964532],[-108.7528772,26.0982722],[-108.7513675,26.0999102],[-108.750783,26.1005698],[-108.7502979,26.1011229],[-108.7495243,26.1019613],[-108.7490218,26.1025827],[-108.7484631,26.1035966],[-108.7483308,26.1038323],[-108.7475983,26.1051375],[-108.7463958,26.1072187],[-108.7452651,26.1094863],[-108.7448054,26.1107555],[-108.7445857,26.1115239],[-108.7443044,26.1127904],[-108.7440868,26.1139203],[-108.7434728,26.1172114],[-108.7423376,26.1233135],[-108.7417338,26.1265594],[-108.7415249,26.1273948],[-108.7410472,26.1285456],[-108.7390009,26.1330759],[-108.7374809,26.1364939],[-108.7362703,26.1392158],[-108.7355836,26.140715],[-108.7351686,26.1419037],[-108.7349739,26.1427711],[-108.734836,26.1437189],[-108.734785,26.1448322],[-108.7347709,26.1466705],[-108.7347482,26.1492853],[-108.7347298,26.1532381],[-108.7347333,26.1545962],[-108.7346314,26.1627496],[-108.7345635,26.1705757],[-108.7345104,26.1766933],[-108.7343838,26.1785824],[-108.7338237,26.1814689],[-108.7323231,26.1863359],[-108.7282929,26.1994068],[-108.7208897,26.2234135],[-108.7080452,26.2650527],[-108.7062541,26.2708579],[-108.7048686,26.2751342],[-108.7046851,26.2755765],[-108.7044758,26.276012],[-108.7042377,26.2764365],[-108.7038873,26.2769895],[-108.7035333,26.2774786],[-108.7031451,26.2779726],[-108.7028024,26.2783255],[-108.7022271,26.2789058],[-108.7011914,26.2797436],[-108.6958994,26.2838547],[-108.6957765,26.2839456],[-108.6838062,26.2932136],[-108.6835402,26.2934195],[-108.6815238,26.2949618],[-108.6804567,26.2958735],[-108.6799749,26.296345],[-108.679468,26.2969566],[-108.679026,26.2975248],[-108.6786016,26.2981706],[-108.6752023,26.3043615],[-108.6741757,26.3062203],[-108.6737181,26.3068844],[-108.6731441,26.3075971],[-108.6724581,26.3082971],[-108.6643796,26.3159101],[-108.6599375,26.3200959],[-108.6582391,26.3215759],[-108.6574357,26.322134],[-108.6563886,26.3227163],[-108.6550502,26.323302],[-108.6532976,26.3237794],[-108.6437951,26.3256462],[-108.6420785,26.3261077],[-108.6415279,26.3263783],[-108.6411084,26.3267543],[-108.6408187,26.3273351],[-108.6407157,26.3279313],[-108.6407331,26.3285668],[-108.6413173,26.3312424],[-108.6413924,26.331838],[-108.6412899,26.3323185],[-108.6410501,26.3329236],[-108.6407508,26.3333717],[-108.6402855,26.3337497],[-108.6396396,26.3340449],[-108.6387244,26.3341555],[-108.6351862,26.3345092],[-108.6334407,26.3347996],[-108.6316734,26.3353084],[-108.6295367,26.3361808],[-108.6269377,26.3377545],[-108.6255483,26.3391429],[-108.6239948,26.3409707],[-108.6226489,26.3430536],[-108.6226107,26.3431107],[-108.6217224,26.3443965],[-108.6207708,26.3454136],[-108.6195595,26.3461376],[-108.609895,26.3494613],[-108.6086268,26.3498814],[-108.6074029,26.3505685],[-108.6058062,26.3518282],[-108.5939269,26.3630747],[-108.5932661,26.3636568],[-108.5931217,26.3637828],[-108.592959,26.3639291],[-108.5926195,26.3642452],[-108.5910661,26.3657142],[-108.5905205,26.3662334],[-108.5900326,26.3666902],[-108.5898148,26.3668941],[-108.5890135,26.3675728],[-108.5885815,26.3678799],[-108.5878682,26.3683526],[-108.5703241,26.3779461],[-108.5692772,26.3785348],[-108.5684377,26.3791421],[-108.5677751,26.379772],[-108.5673049,26.3803545],[-108.5668677,26.3810079],[-108.5652225,26.3839737],[-108.5646592,26.3848664],[-108.5642732,26.3853892],[-108.5637782,26.3859305],[-108.5630604,26.3865121],[-108.5617,26.3873156],[-108.5513657,26.3931394],[-108.545743,26.3963601],[-108.5444361,26.3972985],[-108.5326656,26.4070991],[-108.5290648,26.409456],[-108.5287529,26.4096622],[-108.5255512,26.4117676],[-108.5246323,26.4123629],[-108.5222543,26.4139774],[-108.5206381,26.4152066],[-108.5193667,26.4162938],[-108.5186868,26.4169886],[-108.5180547,26.4177231],[-108.5173007,26.4187893],[-108.5167507,26.4196933],[-108.5163712,26.4204443],[-108.5160802,26.4211625],[-108.5157835,26.421899],[-108.5155451,26.4227694],[-108.5153481,26.4236768],[-108.5152085,26.4246855],[-108.5151413,26.4258803],[-108.5151872,26.4271396],[-108.5153339,26.4280606],[-108.5155348,26.429091],[-108.5168974,26.4332461],[-108.5177334,26.4358497],[-108.5178602,26.4366871],[-108.5178823,26.4372492],[-108.5177978,26.4380572],[-108.5173684,26.4400516],[-108.5172744,26.4406884],[-108.5173093,26.4415124],[-108.5175153,26.4423736],[-108.5177879,26.4432871],[-108.520278,26.4513598],[-108.5204526,26.4520088],[-108.5205454,26.4525843],[-108.5206044,26.4532248],[-108.5205624,26.4539842],[-108.5204336,26.4546127],[-108.5201672,26.4564382],[-108.5195222,26.4600644],[-108.5192663,26.4609719],[-108.5190673,26.4613791],[-108.5187526,26.4618287],[-108.5182106,26.4623867],[-108.5173899,26.4629054],[-108.5167997,26.4632198],[-108.5159092,26.4634919],[-108.5152205,26.4636641],[-108.5144469,26.4639277],[-108.5136259,26.4644036],[-108.5119772,26.4654381],[-108.5108055,26.4662431],[-108.5104842,26.4664327],[-108.5008877,26.4726038],[-108.4969803,26.4751164],[-108.4967669,26.4752536],[-108.4943926,26.4766978],[-108.493489,26.4773411],[-108.4927285,26.4779205],[-108.4922543,26.4784438],[-108.4919652,26.478931],[-108.4917441,26.4793944],[-108.491571,26.4801137],[-108.4914915,26.4807149],[-108.4916146,26.4833663],[-108.491646,26.4839667],[-108.491557,26.4845446],[-108.4913555,26.4851612],[-108.4911579,26.4857661],[-108.4906732,26.4864697],[-108.4902834,26.4868627],[-108.4896421,26.4873802],[-108.4890201,26.4878421],[-108.4735785,26.4958354],[-108.473486,26.4958833],[-108.470195,26.4975881],[-108.4695588,26.498146],[-108.4689653,26.4988108],[-108.4686552,26.4996596],[-108.4686305,26.5006889],[-108.4690457,26.5041474],[-108.4691103,26.5046438],[-108.4690205,26.5051606],[-108.4688456,26.505561],[-108.4684977,26.5060021],[-108.4680911,26.5063386],[-108.4675158,26.5065581],[-108.4655428,26.506923],[-108.4648057,26.5072907],[-108.4641587,26.5079157],[-108.4638487,26.5085542],[-108.463265,26.5107735],[-108.4631553,26.5115853],[-108.4631136,26.5123325],[-108.4631534,26.5130854],[-108.463295,26.5137222],[-108.4635211,26.514325],[-108.4638213,26.5149152],[-108.4642405,26.5155231],[-108.4647748,26.5160564],[-108.4656492,26.5167781],[-108.4687067,26.51917],[-108.4694188,26.5198799],[-108.4700419,26.520501],[-108.4708696,26.5216903],[-108.4717397,26.5234609],[-108.4722451,26.5244736],[-108.4724379,26.5252128],[-108.4724599,26.5257957],[-108.4722638,26.5267638],[-108.4720189,26.5277384],[-108.4717312,26.5288899],[-108.4716407,26.5292992],[-108.4716228,26.5298537],[-108.4716759,26.5303239],[-108.4718234,26.5307915],[-108.4732396,26.533101],[-108.4734292,26.5334628],[-108.4735561,26.53389],[-108.4735963,26.5344332],[-108.4735197,26.5350716],[-108.4733815,26.5355498],[-108.4730392,26.5361212],[-108.4726345,26.5365447],[-108.4721517,26.5368983],[-108.4712248,26.5373043],[-108.4706157,26.5374211],[-108.4657179,26.5383602],[-108.4649553,26.5385784],[-108.4640901,26.5388765],[-108.4630788,26.5394221],[-108.4620344,26.5401678],[-108.4611515,26.5409085],[-108.4604028,26.5418559],[-108.4597009,26.5429116],[-108.4592138,26.5442227],[-108.4589864,26.5451316],[-108.4589267,26.5458487],[-108.4588922,26.5462638],[-108.4573108,26.5584309],[-108.4572257,26.5592812],[-108.4572193,26.5598978],[-108.4572391,26.5606072],[-108.4573732,26.5615349],[-108.4582343,26.5656307],[-108.4584207,26.566632],[-108.4584848,26.5675647],[-108.4584139,26.5682858],[-108.45822,26.5689808],[-108.4579822,26.569518],[-108.4576822,26.570038],[-108.4559667,26.5727934],[-108.4554606,26.5736135],[-108.4550596,26.5742752],[-108.4541452,26.5758004],[-108.4539172,26.5763031],[-108.4537898,26.5766416],[-108.453671,26.5770346],[-108.4535045,26.5778703],[-108.4533237,26.5787949],[-108.452326,26.5837615],[-108.4504942,26.5929268],[-108.4504768,26.5930137],[-108.44931,26.598839],[-108.4489828,26.5999269],[-108.4484385,26.6007801],[-108.4479742,26.6014218],[-108.4475504,26.6018815],[-108.4470046,26.6023855],[-108.4465757,26.6027362],[-108.4440579,26.6042096],[-108.4437726,26.6044523],[-108.4434392,26.6048011],[-108.4431636,26.6052235],[-108.443014,26.6056641],[-108.4429435,26.6062045],[-108.4430032,26.6066826],[-108.4430927,26.6070918],[-108.4466643,26.6165776],[-108.4469711,26.6176298],[-108.4470044,26.6185171],[-108.4468995,26.6194481],[-108.4467133,26.6199355],[-108.4464676,26.6205112],[-108.4461465,26.6210594],[-108.4456281,26.6216999],[-108.445083,26.6221842],[-108.4421216,26.624689],[-108.4417426,26.6251376],[-108.4415248,26.6254521],[-108.4413269,26.6259138],[-108.4411314,26.6266035],[-108.4409911,26.6291246],[-108.4408826,26.6296893],[-108.4406821,26.6302196],[-108.4404184,26.6306598],[-108.4399195,26.6312161],[-108.4362373,26.6346152],[-108.4358088,26.6350973],[-108.4355126,26.6355994],[-108.4353262,26.6361981],[-108.4352364,26.6368485],[-108.4352704,26.6375294],[-108.4363511,26.6499038],[-108.436355,26.6505335],[-108.4361908,26.6515844],[-108.4349746,26.655887],[-108.4348632,26.6564259],[-108.4348059,26.6569997],[-108.4348027,26.6576714],[-108.435169,26.6623008],[-108.4354301,26.6656044],[-108.4354456,26.6662124],[-108.4353883,26.6667895],[-108.435315,26.6673056],[-108.4351741,26.6679084],[-108.4348657,26.6686961],[-108.4345631,26.6692461],[-108.4342193,26.6698077],[-108.4338081,26.6703132],[-108.4332786,26.6708559],[-108.4306501,26.673332],[-108.4303019,26.6737699],[-108.4299224,26.6743499],[-108.4296312,26.6750585],[-108.429466,26.6758696],[-108.4295147,26.6765714],[-108.429633,26.6771394],[-108.4304326,26.6797857],[-108.4306097,26.680474],[-108.4306869,26.681333],[-108.4305258,26.6871435],[-108.4305894,26.6878806],[-108.4306951,26.6886772],[-108.4308917,26.6894189],[-108.4352632,26.7004968],[-108.4381109,26.7077125],[-108.4391715,26.7104383],[-108.440072,26.712657],[-108.4403669,26.7132662],[-108.440686,26.7138217],[-108.4410951,26.7144522],[-108.4415209,26.7149991],[-108.4418382,26.7153675],[-108.4422796,26.7158408],[-108.4434748,26.7170543],[-108.4451582,26.718789],[-108.4454295,26.719083],[-108.4461216,26.719856],[-108.4463297,26.7202254],[-108.4464739,26.7205483],[-108.446592,26.7209196],[-108.4466776,26.7212708],[-108.446719,26.7216721],[-108.446715,26.7220291],[-108.446689,26.7223679],[-108.4466087,26.7228042],[-108.4464265,26.7233634],[-108.4461628,26.7238952],[-108.4459385,26.7242358],[-108.4455521,26.7247194],[-108.442302,26.72878],[-108.4365524,26.7359776],[-108.4359716,26.7365803],[-108.4352712,26.7371777],[-108.4292667,26.741633],[-108.4287802,26.7419942],[-108.4283624,26.7423446],[-108.4279877,26.7427638],[-108.4279121,26.7428669],[-108.4276366,26.743346],[-108.427479,26.7437452],[-108.4273615,26.7442101],[-108.4273248,26.7446392],[-108.4273511,26.7450852],[-108.4274691,26.7456284],[-108.4289133,26.7511523],[-108.4289804,26.7517013],[-108.4289883,26.7521561],[-108.4285189,26.7587142],[-108.4281627,26.76378],[-108.4281612,26.7638103],[-108.4281225,26.7646358],[-108.4281288,26.76522],[-108.4282316,26.7658821],[-108.4283816,26.7663778],[-108.4285648,26.7668557],[-108.4288288,26.7673594],[-108.4292297,26.767926],[-108.4307914,26.7700997],[-108.4312054,26.7706233],[-108.4316279,26.7710099],[-108.4321145,26.7713222],[-108.4337404,26.7723005],[-108.4342288,26.7726376],[-108.4346893,26.7730294],[-108.4350221,26.7733673],[-108.4355635,26.7741597],[-108.435798,26.7746075],[-108.4360256,26.7752513],[-108.4364455,26.7769924],[-108.4365187,26.7776035],[-108.4365095,26.7782437],[-108.4364556,26.7788167],[-108.4362889,26.7794225],[-108.4361215,26.779863],[-108.4358751,26.7803521],[-108.4355683,26.7808001],[-108.4345582,26.782122],[-108.4321406,26.7853013],[-108.4314374,26.7861966],[-108.4311886,26.7866633],[-108.4309922,26.7872089],[-108.4307301,26.788443],[-108.4305734,26.7888492],[-108.4303877,26.7892353],[-108.4300767,26.7896679],[-108.4288748,26.7908672],[-108.4286171,26.7912072],[-108.4283549,26.7916769],[-108.4281907,26.7920994],[-108.4281159,26.7925204],[-108.4280875,26.7928739],[-108.4281024,26.793321],[-108.4281832,26.7937401],[-108.4283782,26.7942989],[-108.4286208,26.79473],[-108.4291133,26.7954544],[-108.4292836,26.7958602],[-108.4293904,26.7962942],[-108.4294179,26.7967173],[-108.4293936,26.7971314],[-108.4293491,26.7974797],[-108.4291606,26.797921],[-108.4287014,26.7985707],[-108.4258824,26.802235],[-108.4254494,26.8025886],[-108.42358,26.8038117],[-108.4202042,26.8059959],[-108.419705,26.8063357],[-108.4193334,26.8066283],[-108.4190582,26.8069319],[-108.4188513,26.8073016],[-108.4186851,26.8076399],[-108.4179687,26.8091816],[-108.4165921,26.8122214],[-108.4164547,26.812749],[-108.416403,26.8131307],[-108.4154336,26.8251963],[-108.4151926,26.8281504],[-108.4151327,26.828581],[-108.4150501,26.8289762],[-108.4149349,26.8293398],[-108.4147876,26.8296883],[-108.4145871,26.8300557],[-108.4143461,26.8304381],[-108.4140939,26.8307888],[-108.4137733,26.8311401],[-108.4129634,26.8320642],[-108.4127235,26.8323665],[-108.412557,26.8326277],[-108.4124164,26.832908],[-108.412289,26.833226],[-108.4121684,26.833638],[-108.411139,26.8382663],[-108.4104908,26.8412188],[-108.4104143,26.8416009],[-108.4103802,26.8419199],[-108.4103888,26.8422267],[-108.4104395,26.8424363],[-108.4105653,26.8427199],[-108.4118979,26.8449084],[-108.4120307,26.8452404],[-108.4120743,26.8455265],[-108.4120834,26.8458309],[-108.4120391,26.8461132],[-108.4113741,26.8488573],[-108.4113666,26.8488938],[-108.4105467,26.852316],[-108.4103239,26.8531674],[-108.4101884,26.8535116],[-108.4100219,26.8537815],[-108.4098302,26.8540067],[-108.4095884,26.8542367],[-108.4093093,26.85441],[-108.4090007,26.8545323],[-108.408661,26.8546563],[-108.4082925,26.8547102],[-108.4078942,26.8547057],[-108.4046874,26.8543053],[-108.4043969,26.8542351],[-108.4041229,26.8541249],[-108.4038408,26.8539685],[-108.4035994,26.853754],[-108.4033744,26.8534935],[-108.4032498,26.8532727],[-108.4031325,26.8529119],[-108.402999,26.8517464],[-108.4029245,26.8514243],[-108.4028109,26.8511808],[-108.4026365,26.8509401],[-108.4024806,26.8507619],[-108.4022256,26.8505589],[-108.4019418,26.8504128],[-108.400331,26.849785],[-108.3999795,26.8496903],[-108.3996388,26.8496627],[-108.399278,26.8496924],[-108.3989327,26.8497737],[-108.3986083,26.8499184],[-108.398317,26.8501065],[-108.3980874,26.8503569],[-108.3978228,26.8507988],[-108.3977081,26.8511739],[-108.3971234,26.855691],[-108.3970632,26.8560124],[-108.3969591,26.8563304],[-108.396805,26.856601],[-108.3962542,26.8573988],[-108.3961269,26.8576679],[-108.3960498,26.8579224],[-108.3960188,26.8582007],[-108.3960437,26.8585199],[-108.3964727,26.8616387],[-108.3964952,26.8623154],[-108.3964009,26.8644359],[-108.3964369,26.8648212],[-108.396523,26.8651554],[-108.3966663,26.8654532],[-108.3968372,26.865693],[-108.397053,26.865914],[-108.3973798,26.8661351],[-108.3988369,26.8670143],[-108.3991253,26.8672316],[-108.3993233,26.8674588],[-108.3994726,26.8677496],[-108.3995885,26.8681206],[-108.3997117,26.8687872],[-108.3998343,26.8690678],[-108.4000305,26.8693627],[-108.4003001,26.8696446],[-108.400676,26.8698756],[-108.4016214,26.8703147],[-108.4018878,26.8705153],[-108.4021001,26.8707382],[-108.4022559,26.8709787],[-108.4023789,26.8712572],[-108.4024375,26.8716121],[-108.4024189,26.8719074],[-108.4023261,26.8722184],[-108.4019139,26.8732857],[-108.4018435,26.8735743],[-108.4018134,26.8739514],[-108.4018532,26.8742892],[-108.4019821,26.8746722],[-108.4021622,26.8749993],[-108.4024139,26.8753204],[-108.4026975,26.8756214],[-108.4054398,26.8775248],[-108.4057649,26.8778378],[-108.4059074,26.8780794],[-108.4060569,26.8784415],[-108.4060885,26.8787973],[-108.4060743,26.8791064],[-108.4059977,26.8795326],[-108.4059666,26.8803737],[-108.4060071,26.8806333],[-108.4060814,26.880902],[-108.4062704,26.881215],[-108.4064623,26.8814321],[-108.4067804,26.8816648],[-108.4071286,26.8818179],[-108.410491,26.8828206],[-108.4108424,26.8829178],[-108.4111529,26.8830465],[-108.4115242,26.8832501],[-108.4118218,26.8834807],[-108.4120799,26.883827],[-108.4137981,26.8864921],[-108.4140449,26.8869155],[-108.4143079,26.887516],[-108.4147542,26.8888051],[-108.4149286,26.8891766],[-108.4176258,26.8935656],[-108.4178589,26.8938676],[-108.4181705,26.8941343],[-108.4197826,26.8950961],[-108.4201217,26.8953415],[-108.4203934,26.8955928],[-108.4206637,26.8959371],[-108.420833,26.8962664],[-108.4209623,26.8966211],[-108.4210246,26.8969833],[-108.4210259,26.8973313],[-108.4208456,26.8987716],[-108.420865,26.8990487],[-108.4209598,26.899388],[-108.4211322,26.8997312],[-108.421349,26.9000218],[-108.4229041,26.9016245],[-108.4232578,26.9019402],[-108.4235871,26.9021642],[-108.4246316,26.9027003],[-108.4249285,26.9029141],[-108.4251633,26.9031209],[-108.4253633,26.9034156],[-108.4261132,26.9050128],[-108.4262365,26.9053794],[-108.4262935,26.9057147],[-108.4262507,26.9061073],[-108.4261574,26.9063978],[-108.4260235,26.9066368],[-108.4257933,26.9069103],[-108.4231358,26.9094488],[-108.4228598,26.9097449],[-108.4226768,26.9099806],[-108.4224996,26.9102454],[-108.4223568,26.9104755],[-108.422226,26.9107217],[-108.4221207,26.9109462],[-108.4219802,26.9112984],[-108.4206138,26.914706],[-108.4205026,26.9149475],[-108.4203798,26.9151177],[-108.4202275,26.9152569],[-108.4200108,26.9154117],[-108.4197789,26.9155311],[-108.419538,26.9156016],[-108.4193128,26.9156328],[-108.4190522,26.9156328],[-108.4188058,26.9155978],[-108.4185486,26.915508],[-108.4179423,26.9152168],[-108.4176546,26.9150909],[-108.41738,26.9149814],[-108.4171524,26.914939],[-108.4168801,26.9149201],[-108.41656,26.9149441],[-108.4161842,26.9150399],[-108.4158738,26.9152139],[-108.4155822,26.9155012],[-108.4143688,26.9174182],[-108.4138967,26.9182753],[-108.4137694,26.9186476],[-108.4137186,26.9189779],[-108.4137383,26.9194004],[-108.4138047,26.9204661],[-108.4137669,26.920852],[-108.4133109,26.9236965],[-108.4132317,26.9240387],[-108.4131039,26.9244408],[-108.4123877,26.9261093],[-108.4122464,26.926407],[-108.4120791,26.9266988],[-108.4118593,26.9269423],[-108.4116072,26.9271705],[-108.4112374,26.9274573],[-108.4069531,26.9302284],[-108.4055619,26.9310196],[-108.405319,26.931189],[-108.405116,26.93136],[-108.4049524,26.9315666],[-108.4048011,26.9318088],[-108.4046849,26.9320754],[-108.4041693,26.9332942],[-108.4040088,26.933614],[-108.4037586,26.9339672],[-108.4029103,26.9351577],[-108.4023888,26.9359606],[-108.4017856,26.9368473],[-108.4012485,26.9376812],[-108.4010593,26.9379425],[-108.4008771,26.9381683],[-108.4006634,26.938377],[-108.399791,26.9390261],[-108.3991156,26.9395045],[-108.3986814,26.9398214],[-108.3984166,26.9400197],[-108.3982301,26.9401708],[-108.3980271,26.9403758],[-108.3978558,26.9406136],[-108.3977077,26.9408916],[-108.3976594,26.9410969],[-108.3976128,26.9413924],[-108.3976261,26.9416526],[-108.3976652,26.9419232],[-108.397804,26.9422381],[-108.3979765,26.9424815],[-108.3981933,26.9427701],[-108.3983271,26.9429523],[-108.3984,26.9431751],[-108.3984113,26.943287],[-108.39842,26.9433725],[-108.3984432,26.943531],[-108.3984549,26.9437529],[-108.3984056,26.9439986],[-108.3982853,26.9442374],[-108.3981614,26.9444463],[-108.3980086,26.9446188],[-108.3977749,26.9447763],[-108.3974795,26.9448805],[-108.3972394,26.9449343],[-108.3967245,26.9449941],[-108.3963203,26.94509],[-108.3959965,26.9452135],[-108.3954296,26.9454782],[-108.3933087,26.946492],[-108.393107,26.9466326],[-108.3929602,26.9467804],[-108.3928255,26.9469494],[-108.3926948,26.9471802],[-108.3921958,26.9486211],[-108.3919357,26.9493525],[-108.3917492,26.9497656],[-108.3911065,26.9509285],[-108.3909899,26.9511321],[-108.3905742,26.9518579],[-108.3898884,26.9527611],[-108.3888357,26.9540514],[-108.3886474,26.9543318],[-108.3885097,26.9546368],[-108.3883924,26.9550156],[-108.3883454,26.9553712],[-108.3883511,26.9557528],[-108.3884287,26.956201],[-108.3887281,26.9569135],[-108.3890474,26.9578656],[-108.3892528,26.9583856],[-108.3893912,26.9587541],[-108.3894484,26.9590414],[-108.3894697,26.9592791],[-108.3891729,26.9605899],[-108.388688,26.9617842],[-108.3876215,26.9637384],[-108.3839351,26.9697225],[-108.3829851,26.9718055],[-108.3826568,26.9733125],[-108.382579,26.9744783],[-108.3825701,26.9747483],[-108.3825991,26.9750796],[-108.3826814,26.9755508],[-108.3827064,26.9759704],[-108.3826454,26.9762592],[-108.3825418,26.9764953],[-108.3823247,26.9767569],[-108.3820168,26.9770017],[-108.381213,26.9775445],[-108.3806431,26.9779624],[-108.3803298,26.9782088],[-108.3800877,26.9785039],[-108.3800976,26.9796559],[-108.3843117,26.9819152],[-108.3853556,26.9821721],[-108.3862203,26.9822204],[-108.3866632,26.9822577],[-108.3870261,26.9823323],[-108.3873323,26.9824428],[-108.3889436,26.9831593],[-108.3892473,26.9832169],[-108.3895688,26.9832334],[-108.3898818,26.9831942],[-108.3901875,26.983065],[-108.3905681,26.9827662],[-108.3909452,26.9822827],[-108.391329,26.9819503],[-108.3916568,26.9818083],[-108.3919907,26.9817307],[-108.3923519,26.981731],[-108.3926966,26.9818105],[-108.3931148,26.9820593],[-108.3934156,26.9823553],[-108.3941107,26.9830749],[-108.3944039,26.9832951],[-108.3947095,26.9834782],[-108.3952446,26.9836634],[-108.3970141,26.9842104],[-108.3973437,26.9843934],[-108.3976487,26.9846367],[-108.3978385,26.9848985],[-108.3979454,26.985179],[-108.3980852,26.9856946],[-108.3984587,26.9874166],[-108.3985028,26.9876972],[-108.3984864,26.9879468],[-108.3984032,26.9882555],[-108.398233,26.9885155],[-108.3979636,26.9887672],[-108.3976022,26.9889726],[-108.3958212,26.9894048],[-108.3948188,26.9897167],[-108.394381,26.9898725],[-108.394006,26.9900827],[-108.3937044,26.9904323],[-108.3935743,26.9907294],[-108.3935267,26.9910729],[-108.3935231,26.991476],[-108.3935968,26.9917158],[-108.3941863,26.9939198],[-108.3946879,26.9957904],[-108.3948697,26.9960959],[-108.3951373,26.9963817],[-108.395434,26.9965391],[-108.395829,26.9966834],[-108.3962658,26.9967826],[-108.3965802,26.996916],[-108.3968572,26.9971026],[-108.3970793,26.9973997],[-108.3981308,26.9993187],[-108.3984196,26.9997209],[-108.3986362,26.9999255],[-108.3990185,27.0001962],[-108.3998535,27.0007225],[-108.4001107,27.0009221],[-108.4003158,27.0011475],[-108.4004205,27.0013427],[-108.4006945,27.0017765],[-108.4008822,27.0020459],[-108.4011657,27.002367],[-108.4014627,27.002588],[-108.4018328,27.0028013],[-108.4022317,27.0029833],[-108.4027111,27.0032835],[-108.4034872,27.0041099],[-108.4056994,27.0073391],[-108.4041193,27.0096894],[-108.4041121,27.0099059],[-108.4041381,27.0101068],[-108.4042096,27.0103166],[-108.4043388,27.0105927],[-108.4047154,27.0110829],[-108.40596,27.0127205],[-108.4063361,27.0132159],[-108.4069654,27.0140595],[-108.407271,27.0144237],[-108.4076598,27.014835],[-108.4079582,27.0151376],[-108.4081239,27.0153144],[-108.4082846,27.0155382],[-108.4084362,27.015815],[-108.408568,27.0161203],[-108.4086506,27.0164416],[-108.4086651,27.0167196],[-108.4086158,27.0170528],[-108.4084624,27.0173929],[-108.4082388,27.0176766],[-108.407821,27.0179838],[-108.4071355,27.0184839],[-108.406846,27.0187514],[-108.4066883,27.0189902],[-108.4065923,27.0193413],[-108.4065813,27.0196232],[-108.4066696,27.0199639],[-108.4069236,27.020429],[-108.4071554,27.0208904],[-108.4072312,27.0211773],[-108.4072274,27.0214882],[-108.4071709,27.0217675],[-108.4070205,27.0220407],[-108.4068222,27.0222783],[-108.4051884,27.0241196],[-108.404925,27.0243246],[-108.4046338,27.0244966],[-108.4042699,27.0246177],[-108.4038958,27.0246628],[-108.4035466,27.0246249],[-108.4031423,27.0245363],[-108.4027012,27.0243432],[-108.4015205,27.0236568],[-108.4012402,27.0235737],[-108.4009246,27.0235385],[-108.4005533,27.0235759],[-108.4002475,27.0236392],[-108.399659,27.0237482],[-108.39933,27.0237586],[-108.3989992,27.0237135],[-108.3982874,27.0234592],[-108.3977317,27.0232888],[-108.3974089,27.023294],[-108.3970884,27.0233479],[-108.3967325,27.0235049],[-108.3964249,27.0237086],[-108.3961257,27.0239981],[-108.3958944,27.0243442],[-108.3956836,27.0250656],[-108.395525,27.0255042],[-108.3952997,27.0259582],[-108.3951111,27.0262063],[-108.3948626,27.0264441],[-108.3936293,27.0275707],[-108.3932523,27.027836],[-108.3929032,27.0280356],[-108.3911645,27.0289045],[-108.3908962,27.0289734],[-108.390589,27.0289985],[-108.3902994,27.0289609],[-108.3900114,27.0288968],[-108.3894119,27.0287584],[-108.3890515,27.0287384],[-108.388736,27.0287807],[-108.3884733,27.0288476],[-108.3881474,27.0290213],[-108.3876854,27.0294009],[-108.3856108,27.0312967],[-108.3853787,27.0315323],[-108.3851636,27.0318384],[-108.3847401,27.0326581],[-108.3845805,27.0329825],[-108.3844176,27.0332449],[-108.3842309,27.0334158],[-108.3836323,27.0337912],[-108.3833811,27.0339862],[-108.3831711,27.0342046],[-108.3830437,27.0344343],[-108.3829816,27.034629],[-108.3829472,27.0349188],[-108.3829671,27.0352755],[-108.3830193,27.035689],[-108.3830191,27.0358881],[-108.3829828,27.036142],[-108.3827398,27.0368406],[-108.382629,27.0372283],[-108.3825871,27.0375512],[-108.3826172,27.0385187],[-108.3825885,27.038826],[-108.3825104,27.0391932],[-108.3820896,27.0400657],[-108.381998,27.0403298],[-108.3820062,27.0406623],[-108.3820772,27.0409287],[-108.3821915,27.0411797],[-108.38234,27.0413835],[-108.3830738,27.0422128],[-108.3833059,27.0423605],[-108.3835942,27.0424992],[-108.3840915,27.0426027],[-108.3844147,27.0426595],[-108.3847073,27.0427713],[-108.3849034,27.0428924],[-108.3853013,27.0432296],[-108.3855324,27.0434401],[-108.385994,27.0438834],[-108.386329,27.0441656],[-108.3876908,27.04505],[-108.3879799,27.0453073],[-108.3881787,27.0455847],[-108.3882669,27.0458383],[-108.388307,27.046107],[-108.3882779,27.0469688],[-108.3882476,27.0477451],[-108.3881659,27.0481096],[-108.3880534,27.0483203],[-108.3878928,27.0485313],[-108.3877236,27.0486998],[-108.3874378,27.0488913],[-108.387132,27.0489768],[-108.3868395,27.0490161],[-108.3861034,27.0490574],[-108.3858389,27.049073],[-108.385514,27.0491692],[-108.3852116,27.0493286],[-108.3849606,27.0495392],[-108.3842887,27.0503381],[-108.3840921,27.0504941],[-108.3837972,27.0506453],[-108.3832495,27.0509632],[-108.3830028,27.0511854],[-108.3828134,27.0514388],[-108.3825141,27.0519712],[-108.382351,27.0521528],[-108.3821406,27.0523535],[-108.3814924,27.0527904],[-108.3810942,27.0530983],[-108.3808774,27.053328],[-108.3778034,27.0553923],[-108.3775389,27.0556073],[-108.3770977,27.055991],[-108.3768767,27.0562175],[-108.3763554,27.057011],[-108.3759114,27.0575071],[-108.3752156,27.0582346],[-108.3748777,27.0585008],[-108.3745283,27.0587191],[-108.3734537,27.059308],[-108.373156,27.0595432],[-108.372097,27.0615229],[-108.3720754,27.0618651],[-108.3721407,27.0625988],[-108.3721751,27.0633902],[-108.3721575,27.0637325],[-108.3721087,27.0641079],[-108.3718316,27.0650849],[-108.3717356,27.0653829],[-108.3716023,27.0656383],[-108.3711931,27.0662288],[-108.3710525,27.0665598],[-108.3709772,27.0668208],[-108.3709477,27.0671668],[-108.3708934,27.0676401],[-108.3707889,27.0679222],[-108.370603,27.0682772],[-108.3703661,27.0686639],[-108.3702573,27.0689897],[-108.3702348,27.0693044],[-108.370298,27.069676],[-108.3703578,27.0700471],[-108.3703469,27.0703962],[-108.3702702,27.0707302],[-108.3701503,27.07117],[-108.3701213,27.0715093],[-108.3701759,27.0718674],[-108.3708183,27.0736773],[-108.3709736,27.0740277],[-108.3721771,27.0761039],[-108.3723481,27.076446],[-108.3724948,27.0768186],[-108.3725751,27.077072],[-108.3726265,27.0774106],[-108.3726458,27.0777544],[-108.3725216,27.0794568],[-108.3725067,27.0797674],[-108.3725443,27.0801858],[-108.3726237,27.0806114],[-108.3727656,27.0811338],[-108.373685,27.0838984],[-108.3737414,27.084145],[-108.3737454,27.084408],[-108.3737117,27.0846439],[-108.3736252,27.0849334],[-108.3722222,27.0878796],[-108.3720867,27.0882562],[-108.3718791,27.0889064],[-108.3717469,27.0894681],[-108.3716401,27.090032],[-108.3715431,27.0909261],[-108.3715231,27.0912279],[-108.3715208,27.0915448],[-108.3715488,27.091808],[-108.3716238,27.0921322],[-108.3718857,27.0931191],[-108.3719798,27.0937093],[-108.3720495,27.0942637],[-108.372102,27.0945879],[-108.3721904,27.0949266],[-108.372352,27.0954352],[-108.3724523,27.0957846],[-108.3725174,27.0961162],[-108.3725221,27.0964339],[-108.3724668,27.0967249],[-108.3723008,27.0971264],[-108.3720892,27.0974817],[-108.3718386,27.0978743],[-108.3715082,27.0984104],[-108.3712317,27.0989637],[-108.3710354,27.0993971],[-108.3708321,27.1000683],[-108.3703991,27.1017071],[-108.3701314,27.1026084],[-108.369982,27.1034388],[-108.3699866,27.1038234],[-108.3701189,27.1055936],[-108.3701151,27.1058699],[-108.3700829,27.1067322],[-108.370065,27.1071224],[-108.3702345,27.109916],[-108.3702264,27.1103023],[-108.370187,27.1107273],[-108.3700279,27.1117662],[-108.3699097,27.1122176],[-108.3697693,27.1126207],[-108.3695071,27.1130971],[-108.3689803,27.1136842],[-108.3669912,27.1153812],[-108.3654559,27.1164993],[-108.3648617,27.1168513],[-108.3629769,27.1177362],[-108.3627377,27.1178673],[-108.3625253,27.1180472],[-108.3623583,27.1182486],[-108.3622506,27.1184295],[-108.3621533,27.1186876],[-108.3620942,27.1190188],[-108.3620341,27.1193761],[-108.3619231,27.1196497],[-108.3618117,27.1198669],[-108.3615712,27.1201085],[-108.3614188,27.12023],[-108.3612557,27.1203176],[-108.3609157,27.1204184],[-108.3605841,27.1204461],[-108.3587088,27.1205658],[-108.3584468,27.1205978],[-108.3581891,27.120679],[-108.3579453,27.1208085],[-108.3573678,27.1213106],[-108.3567981,27.1218745],[-108.3566624,27.1220776],[-108.3565988,27.122261],[-108.3565496,27.1225798],[-108.3565555,27.1230336],[-108.3565859,27.1234588],[-108.3566145,27.1237607],[-108.3565989,27.1240684],[-108.3564098,27.1252024],[-108.3564177,27.1254277],[-108.3565394,27.126064],[-108.3565541,27.126238],[-108.3565615,27.1264453],[-108.3565286,27.1266634],[-108.3564717,27.1268848],[-108.3563605,27.1270629],[-108.3562048,27.1272665],[-108.3559939,27.1274531],[-108.3556079,27.1277151],[-108.3552364,27.1280947],[-108.354745,27.1286461],[-108.3544709,27.128925],[-108.3541604,27.1291527],[-108.3535725,27.1295031],[-108.3532955,27.12976],[-108.3531357,27.1299638],[-108.3528668,27.130452],[-108.352129,27.1321244],[-108.3519485,27.1325178],[-108.3518576,27.1327048],[-108.3517598,27.1328657],[-108.351325,27.1333568],[-108.3510572,27.1336274],[-108.3507748,27.133874],[-108.3494942,27.1346997],[-108.3491552,27.1349382],[-108.3489703,27.1351108],[-108.3488731,27.1352717],[-108.3486234,27.1358538],[-108.3481244,27.1372798],[-108.3480688,27.1374735],[-108.3480417,27.1377822],[-108.3480641,27.1381403],[-108.3481322,27.1388807],[-108.3481396,27.1391525],[-108.3481145,27.1393801],[-108.3479936,27.1397867],[-108.347773,27.1401424],[-108.3475584,27.1404104],[-108.347334,27.1405924],[-108.3471195,27.1407377],[-108.3456662,27.1414682],[-108.3443839,27.1420574],[-108.3428713,27.1425455],[-108.3419857,27.1428035],[-108.3416099,27.1429399],[-108.3411797,27.1431519],[-108.3408518,27.1433738],[-108.3405586,27.1435992],[-108.340198,27.1439931],[-108.3399741,27.144291],[-108.3397026,27.1448],[-108.3389445,27.1462949],[-108.3380082,27.1480606],[-108.337596,27.1487244],[-108.3363579,27.1503296],[-108.3354995,27.1514204],[-108.3348925,27.152212],[-108.3346263,27.1524998],[-108.3342213,27.1529113],[-108.3327037,27.1540314],[-108.3321342,27.154078],[-108.331871,27.1540941],[-108.3316103,27.1541151],[-108.331299,27.1542049],[-108.3310011,27.1543561],[-108.3307967,27.154529],[-108.3305493,27.1548663],[-108.3304221,27.1551535],[-108.3303722,27.1561285],[-108.3303247,27.1570016],[-108.3302661,27.1572774],[-108.3301663,27.1575462],[-108.3298397,27.1583807],[-108.3297829,27.158669],[-108.3297124,27.1591712],[-108.3296347,27.1594151],[-108.3294748,27.1596749],[-108.3287497,27.1604367],[-108.3282404,27.1609147],[-108.3279141,27.1611314],[-108.3276217,27.1612436],[-108.3272997,27.1613272],[-108.326955,27.1613804],[-108.3266196,27.1613852],[-108.3262619,27.1613436],[-108.3259154,27.1612584],[-108.3254471,27.1610485],[-108.3244437,27.1605439],[-108.3241758,27.160446],[-108.32213,27.1608066],[-108.3181145,27.1625177],[-108.3168282,27.1634453],[-108.3164744,27.1637106],[-108.316209,27.1639451],[-108.3155697,27.1645294],[-108.3153273,27.1648706],[-108.3152108,27.1651722],[-108.3151526,27.1654572],[-108.3151424,27.1657108],[-108.3151722,27.1659838],[-108.3153585,27.1665692],[-108.3154703,27.1669678],[-108.31567,27.1681098],[-108.3156766,27.1682405],[-108.3156462,27.1684585],[-108.3155771,27.168704],[-108.315475,27.1688748],[-108.3152628,27.1691622],[-108.3149992,27.1694194],[-108.3133961,27.1724885],[-108.3088061,27.1743358],[-108.306639,27.1734797],[-108.3023536,27.1731491],[-108.3006857,27.1733196],[-108.3004788,27.1735102],[-108.3002847,27.1737586],[-108.3000537,27.1741559],[-108.299801,27.1746092],[-108.299312,27.1754405],[-108.2991852,27.1756246],[-108.2989116,27.1758992],[-108.2985515,27.176189],[-108.2982169,27.1764311],[-108.2977859,27.1766551],[-108.297251,27.1768373],[-108.2965427,27.1770045],[-108.2959917,27.1771289],[-108.29537,27.1772742],[-108.2950858,27.1773517],[-108.2948135,27.1774676],[-108.2946063,27.1776087],[-108.2944621,27.1777426],[-108.2943098,27.1779632],[-108.2942226,27.1781636],[-108.294154,27.1783908],[-108.2940978,27.1786374],[-108.293318,27.1815752],[-108.2930966,27.1819272],[-108.2929183,27.1821504],[-108.2916216,27.1833443],[-108.290582,27.1841783],[-108.2899914,27.1845511],[-108.2891328,27.1850541],[-108.2887461,27.1851894],[-108.288368,27.1852707],[-108.2879485,27.1853177],[-108.28752,27.1852791],[-108.2869552,27.1851269],[-108.2865691,27.1850174],[-108.2861606,27.184957],[-108.2857462,27.1849997],[-108.2854079,27.1849824],[-108.2850809,27.1849134],[-108.2847247,27.184745],[-108.2841555,27.1844065],[-108.2838991,27.1843149],[-108.283582,27.1842454],[-108.2831832,27.1842396],[-108.2808561,27.1845287],[-108.2796873,27.1846051],[-108.2785698,27.1846444],[-108.2776478,27.1846912],[-108.2770871,27.1847471],[-108.2759017,27.1849679],[-108.2744576,27.1852699],[-108.2741498,27.185287],[-108.2738258,27.1852729],[-108.2735108,27.1852196],[-108.2716231,27.1845122],[-108.2711511,27.184291],[-108.2675271,27.1854599],[-108.2645278,27.1865672],[-108.2640973,27.1867121],[-108.2628523,27.187214],[-108.2623397,27.1874297],[-108.2618228,27.1875788],[-108.2612971,27.1876325],[-108.2605182,27.1876878],[-108.2592535,27.1879927],[-108.2559382,27.1855671],[-108.2556096,27.1853484],[-108.255371,27.1852509],[-108.2551436,27.1852265],[-108.2549224,27.1852665],[-108.2546897,27.1853514],[-108.2543405,27.1855459],[-108.2534852,27.1861001],[-108.2529602,27.1864535],[-108.2526634,27.1865909],[-108.2524473,27.1866454],[-108.2522164,27.1866591],[-108.2519283,27.1866378],[-108.2516473,27.186542],[-108.2514035,27.1863939],[-108.2510106,27.1862132],[-108.250795,27.1861574],[-108.2505802,27.1861551],[-108.2494044,27.1894372],[-108.249164,27.1932925],[-108.249578,27.1950178],[-108.2510745,27.1991126],[-108.2515957,27.2005698],[-108.2512406,27.2039567],[-108.2511516,27.2042345],[-108.2511148,27.2045901],[-108.2512078,27.2049951],[-108.2513937,27.2054246],[-108.251474,27.2057612],[-108.2515587,27.2078501],[-108.2517594,27.2083091],[-108.2519551,27.2085767],[-108.2521853,27.2087384],[-108.25262,27.2107637],[-108.2533139,27.2142157],[-108.2533721,27.2146775],[-108.2534541,27.2149855],[-108.2535775,27.2152009],[-108.254041,27.2160741],[-108.2542819,27.216549],[-108.2543138,27.2167961],[-108.2542811,27.2173628],[-108.2545037,27.2180364],[-108.2545533,27.2184746],[-108.2545088,27.2187484],[-108.2542943,27.2192941],[-108.2540686,27.2196257],[-108.2539383,27.219987],[-108.2539439,27.2203195],[-108.2539734,27.2209573],[-108.2539345,27.2216642],[-108.2536909,27.2228764],[-108.2536636,27.2233133],[-108.2538292,27.2239492],[-108.2540419,27.2244937],[-108.2541542,27.2247912],[-108.2542542,27.2252586],[-108.254279,27.2257144],[-108.2543451,27.2259976],[-108.2544937,27.2264227],[-108.2557613,27.2299566],[-108.2535279,27.2331053],[-108.251126,27.2365988],[-108.2499748,27.2404731],[-108.2508871,27.2428305],[-108.2513211,27.2434305],[-108.2515738,27.2438136],[-108.2518076,27.2443057],[-108.2527734,27.2464125],[-108.2529727,27.2468212],[-108.2531477,27.2470615],[-108.2534614,27.2473179],[-108.2540083,27.2477881],[-108.2542577,27.2480535],[-108.2544612,27.2482774],[-108.2546259,27.2485265],[-108.254782,27.2489001],[-108.2548891,27.2491753],[-108.2550157,27.249463],[-108.2551987,27.2497605],[-108.2554317,27.2499556],[-108.2567931,27.2509048],[-108.2569398,27.2510071],[-108.2572882,27.2513263],[-108.2575232,27.2515872],[-108.2576957,27.2518539],[-108.2577969,27.2521298],[-108.2579134,27.2524792],[-108.2579456,27.252844],[-108.2579299,27.2531696],[-108.2578663,27.2535659],[-108.2575957,27.2541037],[-108.2568769,27.2551433],[-108.2581957,27.259183],[-108.2574127,27.2594687],[-108.2555044,27.2599616],[-108.2533876,27.2601523],[-108.2513575,27.2603211],[-108.2500613,27.2605667],[-108.2469839,27.2620697],[-108.2451774,27.2635298],[-108.2414372,27.2663447],[-108.2414531,27.2665733],[-108.2423189,27.2725207],[-108.2425304,27.2734726],[-108.2426387,27.2737864],[-108.2426854,27.2741964],[-108.2425896,27.2745555],[-108.2424617,27.2747605],[-108.2422165,27.2753941],[-108.2420384,27.2766017],[-108.2419308,27.2769809],[-108.2413952,27.2781276],[-108.2411173,27.2784442],[-108.240906,27.2785834],[-108.2404392,27.2787676],[-108.240112,27.2789559],[-108.2391561,27.2793259],[-108.2385797,27.2795234],[-108.2378492,27.2796349],[-108.2374538,27.2796228],[-108.2349403,27.2794506],[-108.2344661,27.2794435],[-108.234212,27.2794715],[-108.2339549,27.279545],[-108.233721,27.2796653],[-108.2334819,27.2798679],[-108.2333264,27.2800757],[-108.2330373,27.2808471],[-108.2329155,27.2810935],[-108.2327512,27.2813356],[-108.2325297,27.2815396],[-108.2322628,27.2816972],[-108.2320291,27.2817508],[-108.2316234,27.2818108],[-108.2296758,27.2822973],[-108.2292611,27.2824986],[-108.2290565,27.2826403],[-108.2286252,27.2831151],[-108.228357,27.2837525],[-108.2281163,27.284531],[-108.22777,27.2856839],[-108.2277365,27.2859262],[-108.2276573,27.2861866],[-108.2275475,27.2863833],[-108.2274207,27.2865694],[-108.2272385,27.2867284],[-108.2269986,27.2868917],[-108.2266872,27.2870219],[-108.226343,27.2870941],[-108.2259021,27.2870791],[-108.2253851,27.2870058],[-108.2248558,27.2868991],[-108.2246829,27.2868268],[-108.2244351,27.2867232],[-108.2240124,27.2863933],[-108.2194601,27.286028],[-108.2181587,27.2872242],[-108.2172451,27.2881739],[-108.2167441,27.2885548],[-108.2149683,27.2895729],[-108.2145778,27.2897889],[-108.2139775,27.2902196],[-108.2135572,27.2905664],[-108.2133558,27.2907454],[-108.213149,27.2909225],[-108.2129622,27.2911586],[-108.2128778,27.2912911],[-108.2127448,27.2916586],[-108.2127051,27.2920705],[-108.2126508,27.2926138],[-108.2126328,27.2929855],[-108.212638,27.2933338],[-108.2127316,27.2940377],[-108.2130377,27.295147],[-108.2131407,27.2954965],[-108.2131514,27.2957753],[-108.2130454,27.296119],[-108.2129182,27.2963031],[-108.2127475,27.2964835],[-108.2122542,27.296816],[-108.2116984,27.2971559],[-108.2114321,27.2973238],[-108.2110946,27.2974596],[-108.2105412,27.2975762],[-108.2092543,27.2978041],[-108.2074391,27.2983252],[-108.2036884,27.3013022],[-108.2028,27.3028651],[-108.2004436,27.3054593],[-108.1979932,27.3088935],[-108.1974526,27.3096195],[-108.1971986,27.309839],[-108.1966958,27.3101463],[-108.1963968,27.3103573],[-108.1961896,27.3105915],[-108.1960343,27.310845],[-108.1959433,27.311105],[-108.1958013,27.3116832],[-108.1956214,27.3124034],[-108.1954624,27.3127817],[-108.195335,27.3129553],[-108.1951551,27.3132002],[-108.1944336,27.3139307],[-108.1939933,27.3144533],[-108.1937778,27.3147615],[-108.1936444,27.3150386],[-108.1934673,27.3155062],[-108.1933532,27.3158193],[-108.1932658,27.3162261],[-108.1932635,27.3166963],[-108.1932656,27.3170295],[-108.1932247,27.317478],[-108.1931792,27.3177623],[-108.193109,27.3181294],[-108.1929065,27.3185691],[-108.1926914,27.3189019],[-108.1924044,27.3192765],[-108.1908592,27.3212833],[-108.1901039,27.3220957],[-108.1899377,27.3223857],[-108.1898741,27.3226855],[-108.1898999,27.3229638],[-108.1900165,27.3232786],[-108.1902443,27.3236958],[-108.1908192,27.3244209],[-108.1910992,27.3248111],[-108.1913927,27.3252812],[-108.1914872,27.3256401],[-108.1915714,27.3264598],[-108.1917118,27.3274947],[-108.1916917,27.327917],[-108.1916204,27.328294],[-108.1915148,27.3286166],[-108.191111,27.3297691],[-108.1910507,27.330143],[-108.1909691,27.331729],[-108.191004,27.3322391],[-108.1910725,27.3324532],[-108.1911913,27.3326479],[-108.1915818,27.3330401],[-108.1921189,27.3338743],[-108.1922459,27.3340861],[-108.1926052,27.3348314],[-108.1926967,27.3351179],[-108.1927685,27.3354816],[-108.1927814,27.3357477],[-108.1927599,27.3359936],[-108.1927288,27.3361778],[-108.1926313,27.3364908],[-108.1920553,27.3378941],[-108.1917287,27.3387866],[-108.1916042,27.3392865],[-108.1915878,27.3398189],[-108.1916335,27.3406204],[-108.1916319,27.3408561],[-108.1915839,27.3411705],[-108.1914749,27.3415999],[-108.1913831,27.3422316],[-108.1913668,27.3424674],[-108.1913615,27.3427916],[-108.1914231,27.34357],[-108.1914101,27.3439003],[-108.1913387,27.3442199],[-108.1912785,27.3444483],[-108.1910264,27.3453179],[-108.1909654,27.3455102],[-108.1908959,27.3456947],[-108.1907894,27.3458983],[-108.1905604,27.3461662],[-108.1902247,27.3465107],[-108.1897975,27.3469275],[-108.189613,27.347145],[-108.1894684,27.3473949],[-108.1893712,27.3476696],[-108.1893216,27.3479695],[-108.1892831,27.3483007],[-108.1892938,27.3486629],[-108.1893578,27.3490039],[-108.1894698,27.3493562],[-108.1898926,27.3501488],[-108.1902465,27.3510112],[-108.1903518,27.351359],[-108.1903955,27.3515851],[-108.1903876,27.351843],[-108.1903439,27.3520854],[-108.1902145,27.3523946],[-108.1899617,27.3527312],[-108.1892067,27.3534425],[-108.1889661,27.3537172],[-108.1888074,27.3539605],[-108.1885928,27.3543887],[-108.1883838,27.3547126],[-108.1882252,27.3548999],[-108.1880389,27.3550692],[-108.1877939,27.3552252],[-108.1875413,27.3553234],[-108.1872855,27.3553895],[-108.1869496,27.3554397],[-108.1836239,27.3556968],[-108.1833262,27.3556945],[-108.1829366,27.3556496],[-108.1825595,27.3555665],[-108.1814752,27.355194],[-108.1807628,27.3549323],[-108.1804468,27.3548764],[-108.1801342,27.3548462],[-108.1786169,27.3549592],[-108.1781942,27.3549573],[-108.1770562,27.354788],[-108.1767746,27.3547623],[-108.1764054,27.3547706],[-108.1760377,27.3548262],[-108.1757574,27.354897],[-108.1754354,27.3550152],[-108.1750923,27.3551936],[-108.1740224,27.3559345],[-108.1735668,27.3562267],[-108.1728465,27.3565803],[-108.1725862,27.3567507],[-108.1721148,27.3571611],[-108.1718006,27.3574489],[-108.1716139,27.3575822],[-108.171365,27.357728],[-108.1710362,27.3578741],[-108.1699524,27.3582209],[-108.1694723,27.3583091],[-108.1691114,27.3583355],[-108.1687527,27.3582789],[-108.1683384,27.3581769],[-108.1675655,27.3580638],[-108.1663842,27.3578416],[-108.1650843,27.3575073],[-108.1647265,27.3573831],[-108.1644383,27.3573386],[-108.1641617,27.3573452],[-108.1638725,27.3574019],[-108.1636091,27.3575216],[-108.163352,27.3576921],[-108.1626847,27.3581643],[-108.1620028,27.3588078],[-108.1618071,27.3589289],[-108.1615759,27.3590386],[-108.1608034,27.3593249],[-108.1604262,27.3595864],[-108.1598586,27.3602914],[-108.1596285,27.3606311],[-108.1592916,27.3609751],[-108.1578865,27.3620514],[-108.1574609,27.3622604],[-108.1571608,27.3623401],[-108.1568163,27.3623932],[-108.1564301,27.3623787],[-108.1560838,27.3623141],[-108.1557739,27.3621818],[-108.1555188,27.362006],[-108.1549224,27.3614703],[-108.15464,27.3612634],[-108.1541465,27.3610694],[-108.153705,27.3609867],[-108.1532612,27.3609892],[-108.1529046,27.3610439],[-108.1528237,27.3610563],[-108.1511961,27.361637],[-108.1508849,27.361734],[-108.1505861,27.3617788],[-108.1502859,27.3617521],[-108.1500243,27.3616843],[-108.1497217,27.3615486],[-108.1495342,27.3614086],[-108.1493289,27.3611892],[-108.1491762,27.36093],[-108.1490776,27.3606134],[-108.1490862,27.3603332],[-108.1494587,27.359367],[-108.1495144,27.3592232],[-108.1495935,27.3589142],[-108.1496513,27.3586731],[-108.1496924,27.3583511],[-108.1496736,27.3580103],[-108.1496187,27.357725],[-108.1495186,27.3574058],[-108.1493875,27.3571619],[-108.1492813,27.3569804],[-108.1491387,27.356784],[-108.148861,27.3564929],[-108.1485715,27.3562621],[-108.1482507,27.356066],[-108.1481354,27.3560204],[-108.1479438,27.3559446],[-108.147474,27.3558117],[-108.1463482,27.3556531],[-108.1459752,27.355568],[-108.1457848,27.3554982],[-108.1456507,27.3554086],[-108.1452884,27.3552085],[-108.1450233,27.3550808],[-108.144702,27.3549583],[-108.1444359,27.354919],[-108.1441952,27.354921],[-108.1439204,27.3549688],[-108.1437019,27.3550563],[-108.1434275,27.3552064],[-108.1431754,27.355439],[-108.1430377,27.3556371],[-108.1429522,27.3558459],[-108.1427313,27.3567453],[-108.1425782,27.3570375],[-108.1423912,27.3572604],[-108.1421284,27.3574864],[-108.1406778,27.3585309],[-108.1401477,27.358807],[-108.1398273,27.3589246],[-108.1394274,27.3590169],[-108.1390098,27.3590548],[-108.1386398,27.3590137],[-108.1383186,27.3589106],[-108.138049,27.3587996],[-108.1373719,27.3584349],[-108.1370735,27.3583549],[-108.1368289,27.3583344],[-108.1365721,27.3583583],[-108.1362523,27.3584262],[-108.1360239,27.3585167],[-108.1357424,27.3587118],[-108.1347124,27.3597832],[-108.1344314,27.3601262],[-108.1341765,27.3605374],[-108.1340937,27.360818],[-108.1340893,27.3611207],[-108.1341303,27.36141],[-108.1343406,27.36335],[-108.1343379,27.3637436],[-108.134273,27.3640296],[-108.1342069,27.3642202],[-108.1340708,27.364419],[-108.133897,27.3646205],[-108.1336661,27.3647833],[-108.1326177,27.365354],[-108.1323925,27.3655248],[-108.1322081,27.3657138],[-108.1320549,27.3659128],[-108.1315882,27.3668854],[-108.1289816,27.3729025],[-108.1285075,27.37376],[-108.1283343,27.3740122],[-108.1281012,27.3743324],[-108.1274319,27.3749976],[-108.1268525,27.375581],[-108.1265645,27.3758752],[-108.1263472,27.3762291],[-108.1261868,27.3765563],[-108.126092,27.3769072],[-108.1257619,27.3788456],[-108.1256571,27.3791588],[-108.1254814,27.3794918],[-108.1252704,27.3797265],[-108.1249596,27.3799717],[-108.1247398,27.3800977],[-108.1245191,27.3801809],[-108.124238,27.3802492],[-108.1238793,27.3802717],[-108.1227288,27.3801894],[-108.1223977,27.3801874],[-108.1221253,27.3802181],[-108.1219085,27.3802869],[-108.1216788,27.3803885],[-108.1214521,27.3805633],[-108.1212183,27.3808377],[-108.1210391,27.3811787],[-108.1197887,27.3846675],[-108.1196076,27.3850322],[-108.1194142,27.3853047],[-108.1191977,27.3855273],[-108.1188582,27.3857912],[-108.1184965,27.3860082],[-108.1181453,27.3861667],[-108.1176787,27.3862941],[-108.1171966,27.3863347],[-108.1145181,27.3865491],[-108.1139018,27.3866357],[-108.1133353,27.3867626],[-108.1128501,27.3869432],[-108.112283,27.3871977],[-108.1118206,27.3874588],[-108.108547,27.3896921],[-108.107162,27.3906093],[-108.1057911,27.3916047],[-108.1054859,27.3918304],[-108.1052793,27.3920664],[-108.1050317,27.3924428],[-108.104859,27.3928481],[-108.1046701,27.393532],[-108.1041959,27.3952012],[-108.1037024,27.396324],[-108.1026912,27.3979723],[-108.101986,27.3989028],[-108.1016993,27.3992252],[-108.1014109,27.3994977],[-108.1009514,27.3998103],[-108.1005181,27.4000464],[-108.099023,27.4006364],[-108.098731,27.4008193],[-108.0985225,27.4010504],[-108.0982795,27.4014667],[-108.0980804,27.4021463],[-108.0979414,27.4024214],[-108.097766,27.4026718],[-108.0975156,27.4028808],[-108.0972585,27.4030254],[-108.0969774,27.4031503],[-108.0966125,27.4032211],[-108.0962268,27.4032102],[-108.0955087,27.4030833],[-108.094691,27.4028825],[-108.0942328,27.402818],[-108.0938785,27.4028099],[-108.0935176,27.4028436],[-108.0931054,27.4029309],[-108.0925881,27.4031084],[-108.0922907,27.4032818],[-108.0920533,27.4034598],[-108.0907088,27.4046765],[-108.0904431,27.4048566],[-108.0902402,27.4049494],[-108.0900022,27.4050479],[-108.0896405,27.4051154],[-108.089337,27.4051169],[-108.0890185,27.4050948],[-108.0875111,27.4048307],[-108.0871128,27.4047841],[-108.086848,27.4047738],[-108.0864877,27.4048087],[-108.0861276,27.4048626],[-108.0857085,27.4049809],[-108.0848796,27.4053247],[-108.0845079,27.4054372],[-108.0842109,27.4054845],[-108.0839497,27.405487],[-108.0836664,27.4054432],[-108.0834421,27.4053937],[-108.0831481,27.4052855],[-108.0828131,27.4051138],[-108.080503,27.4037501],[-108.0802239,27.4036484],[-108.079941,27.4035785],[-108.0797476,27.4035433],[-108.0795061,27.4035236],[-108.0785683,27.4035161],[-108.078224,27.4035069],[-108.0779517,27.4034696],[-108.0776658,27.4034035],[-108.0773425,27.4032537],[-108.0770377,27.403082],[-108.0768743,27.4029418],[-108.076731,27.4027879],[-108.0762612,27.4022506],[-108.0758192,27.4018996],[-108.075517,27.4017101],[-108.0750821,27.4016058],[-108.0747933,27.4015894],[-108.0744502,27.4016334],[-108.0741269,27.4017208],[-108.0732677,27.4020347],[-108.0727136,27.4022666],[-108.072472,27.4024051],[-108.0722953,27.402573],[-108.0721424,27.402737],[-108.0720473,27.4028843],[-108.0719056,27.403216],[-108.0718672,27.4035674],[-108.0718714,27.4038276],[-108.0722211,27.4051881],[-108.0723646,27.4057822],[-108.0723903,27.4059251],[-108.0724046,27.4060265],[-108.0723981,27.406181],[-108.0723472,27.4065874],[-108.0722676,27.4068669],[-108.0721233,27.4071766],[-108.0719487,27.4074291],[-108.0717614,27.4076324],[-108.0714335,27.4079035],[-108.0704955,27.4084093],[-108.0700031,27.4086561],[-108.069628,27.4088864],[-108.0690103,27.4094141],[-108.0687085,27.4097828],[-108.0684608,27.4102112],[-108.0683479,27.4105169],[-108.0682464,27.4108842],[-108.0682145,27.4110078],[-108.0681787,27.4111667],[-108.0680084,27.4119417],[-108.0677867,27.4126669],[-108.0675467,27.4132911],[-108.0673749,27.4135443],[-108.0669928,27.4140186],[-108.06668,27.4142603],[-108.0660412,27.4147156],[-108.06569,27.4151108],[-108.0655608,27.4153101],[-108.0645848,27.4170815],[-108.0638709,27.4184221],[-108.0635394,27.4190012],[-108.0634129,27.4191639],[-108.0632287,27.4193424],[-108.0628204,27.4196679],[-108.0625907,27.419814],[-108.0623022,27.4199619],[-108.0617217,27.4201081],[-108.0611489,27.42028],[-108.0608151,27.420446],[-108.0604992,27.4206612],[-108.0602021,27.4210451],[-108.0598972,27.4216504],[-108.0596857,27.4220271],[-108.0595601,27.4222266],[-108.0594426,27.422367],[-108.0592204,27.4225375],[-108.0589788,27.4226738],[-108.0581224,27.4230952],[-108.057827,27.4232268],[-108.0575404,27.4232781],[-108.0572788,27.4233168],[-108.0569283,27.4233099],[-108.0565688,27.4232395],[-108.0563078,27.4231575],[-108.0560755,27.4230444],[-108.0557128,27.4228349],[-108.0553104,27.4226003],[-108.0550778,27.4225019],[-108.054771,27.4224281],[-108.0544597,27.4224396],[-108.0542184,27.4224709],[-108.0539827,27.4225383],[-108.0537362,27.4226616],[-108.0534948,27.4228593],[-108.0529721,27.423505],[-108.0528256,27.423655],[-108.0525871,27.4238558],[-108.0522682,27.4240038],[-108.0515242,27.4241676],[-108.0508649,27.424344],[-108.0506341,27.4243803],[-108.0504428,27.4243514],[-108.0501443,27.4242612],[-108.0497586,27.4240605],[-108.0495007,27.4239215],[-108.0491599,27.4237085],[-108.0488715,27.4235785],[-108.0485476,27.4234878],[-108.0464919,27.4230766],[-108.0461492,27.423033],[-108.0457763,27.4230141],[-108.0453328,27.4230302],[-108.0448872,27.4230661],[-108.0443861,27.4231398],[-108.0437412,27.4232854],[-108.0431042,27.4235217],[-108.0426719,27.4237326],[-108.0423666,27.423922],[-108.0399504,27.4255083],[-108.038908,27.4261821],[-108.0387182,27.4263453],[-108.0385114,27.4265733],[-108.0384024,27.426803],[-108.0383572,27.4270139],[-108.0383336,27.4276157],[-108.0383022,27.42785],[-108.0382171,27.4280944],[-108.0380241,27.4283986],[-108.0377272,27.428807],[-108.0375326,27.4291634],[-108.0372961,27.4297511],[-108.0371395,27.4301031],[-108.0369674,27.4303063],[-108.034103,27.4326988],[-108.0305885,27.4354679],[-108.0280036,27.4379661],[-108.0270206,27.4388279],[-108.0268953,27.4388733],[-108.0266601,27.4389107],[-108.0263239,27.438915],[-108.0258509,27.438872],[-108.025428,27.4388094],[-108.0250808,27.4387911],[-108.024791,27.4388292],[-108.0244373,27.4389385],[-108.0239259,27.439196],[-108.0228968,27.4396545],[-108.0225835,27.4397755],[-108.0222825,27.4398663],[-108.0220065,27.4398988],[-108.0217357,27.4398857],[-108.0214642,27.4398374],[-108.0211714,27.4397412],[-108.020894,27.4395771],[-108.020655,27.4393277],[-108.020471,27.4390751],[-108.020342,27.4387477],[-108.0203141,27.4380249],[-108.020296,27.437742],[-108.0202168,27.4375014],[-108.0200944,27.4372686],[-108.0198796,27.4370368],[-108.0196331,27.4368413],[-108.0193104,27.4367135],[-108.0189925,27.4366636],[-108.0186554,27.4366866],[-108.0182979,27.4367648],[-108.0172404,27.4371197],[-108.0163521,27.43742],[-108.0156112,27.4376705],[-108.0151913,27.4378554],[-108.0143497,27.4384034],[-108.0140942,27.4385269],[-108.0138241,27.4386481],[-108.0136188,27.4386958],[-108.0133472,27.4387311],[-108.0131834,27.4387257],[-108.0128833,27.4386762],[-108.0110763,27.438248],[-108.0106443,27.438182],[-108.0099392,27.4381311],[-108.0085884,27.4380699],[-108.0070459,27.4380068],[-108.0056442,27.4379689],[-108.0052008,27.438009],[-108.0048305,27.4381258],[-108.0042635,27.4383716],[-108.0040583,27.4384358],[-108.0037489,27.438479],[-108.0026306,27.4384811],[-108.0023431,27.4385171],[-108.0020538,27.4385859],[-108.0018026,27.4386961],[-108.001514,27.4388934],[-108.0012688,27.4391221],[-107.9994188,27.4416005],[-107.9988314,27.4426306],[-107.9986699,27.4428777],[-107.9984333,27.4431193],[-107.9977829,27.4436523],[-107.9975849,27.4438639],[-107.9974598,27.4440926],[-107.9973256,27.4448292],[-107.9972621,27.4450859],[-107.9971296,27.4453522],[-107.9969603,27.4455649],[-107.9959469,27.4466626],[-107.9956922,27.4468527],[-107.9950004,27.4472834],[-107.9938977,27.4479709],[-107.9935493,27.4482058],[-107.9933349,27.448392],[-107.9931326,27.448628],[-107.992769,27.4492229],[-107.9917348,27.4508172],[-107.9915395,27.4511811],[-107.9914242,27.4516457],[-107.9914108,27.4519765],[-107.9914495,27.4522621],[-107.9915095,27.452464],[-107.99186,27.4533409],[-107.991927,27.4535742],[-107.9919461,27.4537619],[-107.9919517,27.4539824],[-107.9919031,27.4541762],[-107.9918124,27.4544078],[-107.991514,27.4548094],[-107.9903074,27.4561556],[-107.989925,27.4565989],[-107.9897859,27.4567958],[-107.9896205,27.4570707],[-107.9894316,27.4574792],[-107.9891679,27.4580537],[-107.9888922,27.4585302],[-107.9886789,27.4587148],[-107.9884788,27.4588308],[-107.9881154,27.4589486],[-107.987858,27.4589656],[-107.9872796,27.4566802],[-107.983671,27.4539141],[-107.982923,27.454101],[-107.9790603,27.4513897],[-107.9762303,27.4516642],[-107.9757857,27.4529643],[-107.9756891,27.4533636],[-107.9756595,27.4537005],[-107.9757234,27.4541731],[-107.9757008,27.4544542],[-107.9756087,27.4547375],[-107.9754947,27.4549176],[-107.97524,27.4551605],[-107.9748786,27.4554603],[-107.9745992,27.4557058],[-107.9743887,27.4559454],[-107.9741919,27.4562876],[-107.9740427,27.4565002],[-107.9738522,27.4566858],[-107.9735351,27.4568931],[-107.9732762,27.4569798],[-107.9729776,27.4569984],[-107.9726991,27.4569851],[-107.9724449,27.4569063],[-107.9722087,27.4567812],[-107.9720365,27.4566432],[-107.9718129,27.4564162],[-107.9716544,27.4562509],[-107.9697804,27.4555471],[-107.9695076,27.4556313],[-107.968553,27.4559832],[-107.9683443,27.4560768],[-107.9680082,27.4563434],[-107.9675677,27.4567387],[-107.9673642,27.4568707],[-107.9670803,27.4569972],[-107.9666337,27.4571254],[-107.9660266,27.4572846],[-107.9657573,27.4574025],[-107.9655344,27.4575494],[-107.9650586,27.4578493],[-107.9646088,27.4580628],[-107.9632107,27.4583811],[-107.9621591,27.4585977],[-107.9619398,27.4586238],[-107.9616974,27.4586244],[-107.9614289,27.4585886],[-107.9611986,27.4585183],[-107.9609307,27.4583938],[-107.9606407,27.4582009],[-107.9570453,27.4586857],[-107.9539165,27.4614144],[-107.9507051,27.4618661],[-107.9491979,27.4636004],[-107.9493524,27.4639726],[-107.9494895,27.4642992],[-107.9495718,27.4646523],[-107.9495622,27.4650079],[-107.9494879,27.4652661],[-107.9485671,27.4676251],[-107.9484453,27.4678925],[-107.9483225,27.4680767],[-107.9481618,27.4682719],[-107.9479612,27.4684206],[-107.9476726,27.4685791],[-107.9437088,27.4696277],[-107.9393684,27.4674211],[-107.9390621,27.467239],[-107.9387858,27.4671632],[-107.9385636,27.4671436],[-107.938293,27.4671642],[-107.937335,27.4673602],[-107.9370291,27.4673931],[-107.9367671,27.467376],[-107.936505,27.467309],[-107.9335142,27.4660142],[-107.9333084,27.4658649],[-107.9331594,27.4657171],[-107.9330177,27.4655328],[-107.9328483,27.465259],[-107.932689,27.4649667],[-107.9325292,27.4647955],[-107.932449,27.4647222],[-107.9322911,27.4646098],[-107.9320994,27.4645029],[-107.9316601,27.4643282],[-107.9313292,27.4641617],[-107.9310928,27.4639995],[-107.9308728,27.4637861],[-107.9302691,27.4631294],[-107.9300341,27.4629578],[-107.9297415,27.4627467],[-107.9289854,27.4622612],[-107.9287547,27.4620677],[-107.9282636,27.4615544],[-107.9280407,27.4613473],[-107.9277947,27.4612021],[-107.9258684,27.460138],[-107.9245832,27.4593126],[-107.9242496,27.4591467],[-107.9235263,27.4588433],[-107.9232234,27.4586767],[-107.9229453,27.4584377],[-107.9225985,27.4579827],[-107.922399,27.4577928],[-107.9221891,27.4576508],[-107.9219399,27.4575444],[-107.9216452,27.4574645],[-107.9213267,27.4574634],[-107.9210766,27.4574971],[-107.9205128,27.4576778],[-107.9197537,27.4579877],[-107.918768,27.4583944],[-107.9183772,27.4584951],[-107.9179733,27.458518],[-107.9176273,27.4584499],[-107.9170207,27.4583591],[-107.9165494,27.4582912],[-107.9163727,27.4582657],[-107.9151101,27.4580837],[-107.9116293,27.4575821],[-107.9106999,27.4573639],[-107.9084367,27.4566746],[-107.9081135,27.4565389],[-107.907926,27.4564283],[-107.907705,27.4562421],[-107.9074993,27.4559777],[-107.9073005,27.4556602],[-107.9071573,27.4554279],[-107.9069746,27.4551835],[-107.9067584,27.4549947],[-107.9064712,27.4548374],[-107.9049664,27.4541819],[-107.9047181,27.4540588],[-107.9044456,27.453857],[-107.9038879,27.4532974],[-107.9037066,27.4531687],[-107.9034413,27.4530299],[-107.903046,27.4529523],[-107.90303,27.4529528],[-107.902936,27.4529558],[-107.9025889,27.4529668],[-107.9022593,27.4530813],[-107.9019189,27.4532724],[-107.9016574,27.4535121],[-107.9015356,27.453753],[-107.901468,27.4539891],[-107.9014458,27.454235],[-107.9014683,27.4545451],[-107.9016099,27.4548533],[-107.9018106,27.4551137],[-107.9020879,27.4553317],[-107.902366,27.4554398],[-107.902814,27.4555826],[-107.9049683,27.4561548],[-107.9055756,27.4563504],[-107.906016,27.4565506],[-107.9078117,27.4575098],[-107.9080513,27.4577118],[-107.908294,27.4579991],[-107.9084563,27.4582533],[-107.9086824,27.4586086],[-107.908875,27.4588262],[-107.9090863,27.459004],[-107.9093819,27.459161],[-107.9097864,27.4593072],[-107.9101361,27.4594521],[-107.9104263,27.4596608],[-107.9106377,27.4599162],[-107.9107361,27.4601626],[-107.9107976,27.4604332],[-107.9107968,27.4607321],[-107.9107182,27.4610277],[-107.9106098,27.4612321],[-107.9103899,27.4614178],[-107.910108,27.4615996],[-107.909711,27.4618445],[-107.9095265,27.4620194],[-107.9093567,27.4622422],[-107.9092872,27.4624233],[-107.9092161,27.4626615],[-107.9092132,27.4629674],[-107.9093151,27.4632327],[-107.9097445,27.4641514],[-107.9098081,27.4643677],[-107.9098145,27.4646157],[-107.9097547,27.4648651],[-107.909674,27.4650605],[-107.9094785,27.4653178],[-107.9092254,27.46548],[-107.9089522,27.4656191],[-107.9085535,27.4656768],[-107.9081874,27.4656325],[-107.9072823,27.4654575],[-107.9070331,27.4654634],[-107.9066973,27.4655643],[-107.9064063,27.4657162],[-107.9062054,27.4659254],[-107.9060613,27.466121],[-107.9059546,27.4664604],[-107.905964,27.466779],[-107.9060619,27.4670844],[-107.9062805,27.4673961],[-107.9069263,27.4682276],[-107.907113,27.4685202],[-107.9072089,27.4688131],[-107.9072458,27.4690791],[-107.9072058,27.4705936],[-107.907208,27.4739598],[-107.9072289,27.4742801],[-107.9073356,27.4745792],[-107.9080445,27.4755636],[-107.9082322,27.4759221],[-107.9082641,27.4761263],[-107.9082631,27.4763128],[-107.9081749,27.4766864],[-107.9080998,27.4771514],[-107.9081411,27.4775786],[-107.9082552,27.4778538],[-107.9084315,27.4780853],[-107.9086172,27.4782451],[-107.9090372,27.4784927],[-107.9103486,27.4792842],[-107.9105326,27.4794686],[-107.9106577,27.4796584],[-107.9107449,27.4798865],[-107.9110109,27.4810351],[-107.9112184,27.4816082],[-107.9117124,27.4826083],[-107.9119804,27.4832671],[-107.9120642,27.4836115],[-107.912066,27.4838535],[-107.9120457,27.4841197],[-107.9119659,27.4843387],[-107.9118067,27.4845961],[-107.911625,27.484795],[-107.911397,27.4849727],[-107.9110775,27.4851568],[-107.9078589,27.4861418],[-107.9033828,27.4875399],[-107.9010426,27.486448],[-107.9007197,27.4862218],[-107.9002466,27.485871],[-107.8998957,27.485531],[-107.899668,27.4852098],[-107.8994644,27.4847817],[-107.8992238,27.4840519],[-107.8990058,27.4835594],[-107.8985409,27.4829202],[-107.8983173,27.4826908],[-107.8980077,27.482436],[-107.8973294,27.4820374],[-107.8965848,27.4817662],[-107.8961192,27.4816862],[-107.8955605,27.4815839],[-107.8950838,27.4814168],[-107.8947207,27.4810737],[-107.8943121,27.4805853],[-107.8941622,27.4804329],[-107.8938429,27.4802333],[-107.8927584,27.4797845],[-107.892551,27.4797187],[-107.8922603,27.4796489],[-107.8918994,27.4796533],[-107.8916104,27.4796912],[-107.8913408,27.4798044],[-107.8911013,27.4799558],[-107.8907965,27.4803775],[-107.8907287,27.4805336],[-107.8901474,27.4819132],[-107.8896924,27.4829926],[-107.8896744,27.4830359],[-107.8896576,27.4830788],[-107.889642,27.4831214],[-107.8896276,27.4831636],[-107.8896142,27.4832056],[-107.889602,27.4832476],[-107.8895907,27.4832895],[-107.8895805,27.4833315],[-107.8895713,27.4833737],[-107.889563,27.4834161],[-107.8895557,27.4834588],[-107.8895492,27.483502],[-107.8895436,27.4835458],[-107.8895388,27.4835901],[-107.8895348,27.4836351],[-107.8895315,27.483681],[-107.889529,27.4837277],[-107.8895272,27.4837754],[-107.889526,27.4838242],[-107.8895254,27.4838742],[-107.8895207,27.484792],[-107.8895003,27.4887261],[-107.889502,27.4897324],[-107.8895026,27.4914913],[-107.8895345,27.4932666],[-107.8895555,27.4933837],[-107.8896363,27.493835],[-107.8901738,27.4952426],[-107.8903599,27.4959197],[-107.890387,27.4963196],[-107.8903712,27.4967215],[-107.8900786,27.4975301],[-107.8895081,27.4991616],[-107.8885992,27.5016225],[-107.8879202,27.5034607],[-107.8875694,27.5042191],[-107.887026,27.5049138],[-107.88646,27.5054415],[-107.8857197,27.5059715],[-107.8851027,27.5063052],[-107.8849966,27.5063626],[-107.883796,27.5069969],[-107.883303,27.5074517],[-107.883096,27.5079123],[-107.8830423,27.5082301],[-107.8834664,27.5101482],[-107.8805353,27.5114621],[-107.8801582,27.5112157],[-107.8796668,27.510693],[-107.8793366,27.5103845],[-107.8788828,27.5100322],[-107.8782562,27.5097296],[-107.8773684,27.5093463],[-107.8769229,27.5090844],[-107.8765278,27.5085746],[-107.8761432,27.5080824],[-107.8757054,27.507614],[-107.875346,27.5071591],[-107.8752044,27.5066281],[-107.8752572,27.5063291],[-107.8753983,27.5058623],[-107.8755021,27.5053592],[-107.8753935,27.5048372],[-107.8751293,27.5044066],[-107.8744917,27.5033707],[-107.8742114,27.5029175],[-107.8715149,27.5021489],[-107.8713637,27.5021464],[-107.870786,27.5023346],[-107.8685445,27.5032139],[-107.8670507,27.5035877],[-107.8663432,27.5039253],[-107.8659422,27.5044101],[-107.8657732,27.5048943],[-107.8657292,27.5053387],[-107.8658086,27.5057407],[-107.8659843,27.5060904],[-107.8664304,27.5066722],[-107.8674968,27.5081195],[-107.8678631,27.5086327],[-107.8680241,27.5090285],[-107.8680711,27.5094153],[-107.8678696,27.5106397],[-107.8678065,27.5109521],[-107.8675386,27.5126257],[-107.8673302,27.5139723],[-107.8672307,27.5141795],[-107.8668936,27.5145218],[-107.8664156,27.5147561],[-107.8657335,27.5148494],[-107.8620138,27.5149795],[-107.8590315,27.5151037],[-107.8580417,27.5151142],[-107.8571014,27.5150271],[-107.8561311,27.5148927],[-107.8559503,27.5148603],[-107.8551953,27.5147249],[-107.8541595,27.5142656],[-107.8525175,27.5129789],[-107.8513487,27.5120912],[-107.8507496,27.5116405],[-107.850255,27.5110932],[-107.8497594,27.5103238],[-107.8488238,27.5084575],[-107.8484577,27.5077534],[-107.848024,27.507226],[-107.8476573,27.5069243],[-107.8471646,27.5066828],[-107.8468061,27.5066056],[-107.8459866,27.5064291],[-107.8448354,27.5063819],[-107.844528,27.5063349],[-107.8441694,27.5062027],[-107.84375,27.5059932],[-107.8433602,27.5057986],[-107.8429047,27.505466],[-107.8423822,27.5052852],[-107.8416393,27.5052553],[-107.8410138,27.5054228],[-107.8404387,27.5058534],[-107.8401072,27.5064652],[-107.8400259,27.5068115],[-107.8400386,27.5071904],[-107.8401037,27.5074422],[-107.8403054,27.5082232],[-107.8403767,27.5085277],[-107.8403432,27.5088927],[-107.8401511,27.5100699],[-107.8401506,27.5101117],[-107.8401442,27.5106341],[-107.8403849,27.5126177],[-107.8403432,27.5129997],[-107.8403036,27.5132567],[-107.8401634,27.513746],[-107.8400218,27.5140344],[-107.8397316,27.5147608],[-107.8396606,27.5149292],[-107.8396105,27.5151713],[-107.839605,27.5154892],[-107.8396713,27.5158382],[-107.8399205,27.5164025],[-107.8402206,27.5171193],[-107.8403823,27.5176482],[-107.8405292,27.5190289],[-107.8406544,27.5198835],[-107.8406428,27.520362],[-107.8404747,27.5208504],[-107.840241,27.5212131],[-107.8399384,27.5215357],[-107.8395105,27.5218235],[-107.83609,27.5234252],[-107.8353334,27.5237534],[-107.8346334,27.5242286],[-107.8344514,27.5244014],[-107.8340484,27.5247841],[-107.8335564,27.5254579],[-107.833252,27.5263453],[-107.8330616,27.5271102],[-107.8330993,27.5278444],[-107.8332203,27.5283996],[-107.8342055,27.5316224],[-107.8342353,27.532056],[-107.8341215,27.5325486],[-107.8333354,27.5334056],[-107.8311931,27.534346],[-107.8306652,27.5344442],[-107.8302093,27.5344109],[-107.8295929,27.5341964],[-107.8285546,27.5333858],[-107.8280691,27.5331979],[-107.8275861,27.5330899],[-107.8270413,27.5331337],[-107.8265599,27.5332942],[-107.824786,27.5342759],[-107.8236817,27.5349756],[-107.8233815,27.5352157],[-107.8231787,27.5354853],[-107.8230553,27.5359976],[-107.8230872,27.5363443],[-107.8232969,27.5367372],[-107.823551,27.5370081],[-107.8240172,27.5373214],[-107.824527,27.537601],[-107.8247364,27.537905],[-107.8251058,27.5388216],[-107.8253451,27.5392216],[-107.825716,27.53955],[-107.8261487,27.5397929],[-107.8278288,27.5404783],[-107.8282403,27.5407722],[-107.8285747,27.5411166],[-107.8311582,27.5443807],[-107.8317354,27.5450906],[-107.8323309,27.545819],[-107.8325959,27.5460816],[-107.8328003,27.5462338],[-107.8337468,27.5466233],[-107.8340883,27.5468326],[-107.8343471,27.5471296],[-107.8344821,27.5474775],[-107.8344996,27.5479441],[-107.8343814,27.548879],[-107.8345106,27.5492948],[-107.8346633,27.5495612],[-107.8349139,27.5498014],[-107.8352805,27.5499726],[-107.8361882,27.5501971],[-107.8365921,27.5504076],[-107.8377326,27.5513667],[-107.838335,27.5519317],[-107.8385037,27.5523479],[-107.8385498,27.5527563],[-107.8384699,27.553627],[-107.8385536,27.554006],[-107.8390919,27.5548873],[-107.8391873,27.5552829],[-107.8391506,27.5556429],[-107.8390138,27.555987],[-107.8388175,27.5562189],[-107.8383736,27.5565057],[-107.8362579,27.5574276],[-107.8351349,27.5579543],[-107.8342448,27.5584153],[-107.8338581,27.5586193],[-107.8336244,27.5588595],[-107.8334388,27.5591282],[-107.833357,27.5594509],[-107.8333792,27.5605415],[-107.8333026,27.5607861],[-107.8328651,27.5615648],[-107.8327844,27.5618604],[-107.8327136,27.5630293],[-107.8325624,27.5634778],[-107.8322762,27.5638483],[-107.8319666,27.564131],[-107.8308846,27.5648462],[-107.8307022,27.5650499],[-107.8304694,27.565378],[-107.8303505,27.5657922],[-107.8303538,27.5661063],[-107.8311094,27.5689525],[-107.8310598,27.5693672],[-107.8309579,27.569633],[-107.8307857,27.56991],[-107.8305215,27.5701344],[-107.8300475,27.5703448],[-107.8289054,27.5706121],[-107.8284841,27.570837],[-107.8281857,27.5711936],[-107.828031,27.5714986],[-107.8279822,27.5719935],[-107.828019,27.5721708],[-107.8282863,27.5734107],[-107.8282683,27.5737289],[-107.8281501,27.5740635],[-107.8278301,27.5743677],[-107.8275322,27.5745446],[-107.827187,27.5746473],[-107.8268184,27.574693],[-107.826356,27.5746426],[-107.8237256,27.5739633],[-107.823117,27.5739148],[-107.8227002,27.573978],[-107.8222796,27.5741965],[-107.8219816,27.5744533],[-107.8217184,27.5750265],[-107.8217375,27.5754607],[-107.8218799,27.5759197],[-107.82308,27.5778077],[-107.8235391,27.5782808],[-107.8239895,27.5786429],[-107.824409,27.5789049],[-107.8254714,27.5793761],[-107.8258204,27.5796051],[-107.8260529,27.579893],[-107.8262069,27.5802455],[-107.8262227,27.5806687],[-107.8261173,27.5810508],[-107.8258169,27.5815895],[-107.8257234,27.5818413],[-107.825668,27.5825294],[-107.8261558,27.5847884],[-107.8262065,27.5856637],[-107.8260676,27.5862048],[-107.8259045,27.5865968],[-107.8256535,27.5869769],[-107.825293,27.5873354],[-107.8240932,27.5882823],[-107.8238625,27.588588],[-107.8237118,27.5892334],[-107.823788,27.5901888],[-107.8237003,27.5908059],[-107.8236022,27.5914168],[-107.8220334,27.598399],[-107.8220389,27.5992172],[-107.8221199,27.5998117],[-107.823274,27.6051546],[-107.8238751,27.6063387],[-107.824056,27.6068227],[-107.8240066,27.607298],[-107.8237518,27.6077641],[-107.8234508,27.608111],[-107.8232837,27.6087075],[-107.8232316,27.6097807],[-107.8231663,27.6099799],[-107.8230134,27.6102224],[-107.8227508,27.610558],[-107.8207536,27.6120668],[-107.8204695,27.6124067],[-107.82027,27.6128601],[-107.8202011,27.6133431],[-107.8201488,27.6182948],[-107.8200951,27.6187202],[-107.8199575,27.6190123],[-107.8196386,27.6193388],[-107.8193181,27.6195618],[-107.81886,27.6196877],[-107.8174531,27.6196191],[-107.816927,27.6197139],[-107.816607,27.6198605],[-107.8163517,27.6200558],[-107.8162129,27.6202014],[-107.8160566,27.6204167],[-107.8159472,27.62066],[-107.8158823,27.6208546],[-107.8153149,27.6244138],[-107.8152282,27.6248193],[-107.815121,27.6251052],[-107.8150162,27.6252385],[-107.8148522,27.6254469],[-107.8147123,27.6255334],[-107.8144882,27.625672],[-107.8142058,27.625774],[-107.8139122,27.6258145],[-107.8125231,27.6258499],[-107.8113861,27.6259001],[-107.8106129,27.6259574],[-107.8091086,27.6260331],[-107.8087479,27.6260939],[-107.8083368,27.626172],[-107.8078047,27.6263158],[-107.8067594,27.6267129],[-107.806409,27.6268111],[-107.8061343,27.6268353],[-107.8058869,27.626832],[-107.8056093,27.6267676],[-107.8053687,27.6266516],[-107.804623,27.6261018],[-107.8041176,27.6256859],[-107.8037895,27.6254151],[-107.8036249,27.6251798],[-107.8035154,27.6249642],[-107.8032318,27.6239899],[-107.8026751,27.6220838],[-107.8026193,27.621846],[-107.802587,27.6215064],[-107.8026598,27.620865],[-107.8026538,27.6205745],[-107.8026023,27.6203472],[-107.8018984,27.6187813],[-107.8016996,27.6182514],[-107.8016458,27.6179775],[-107.8015782,27.6170435],[-107.801541,27.6168015],[-107.8014299,27.6165656],[-107.8012827,27.6163375],[-107.8010873,27.616153],[-107.8008883,27.6160066],[-107.8006263,27.6159014],[-107.8003181,27.6158406],[-107.7989016,27.6158757],[-107.7968438,27.6159406],[-107.7963752,27.6158925],[-107.7953791,27.6156469],[-107.7949105,27.6155606],[-107.794649,27.6155449],[-107.7943621,27.615567],[-107.7939366,27.6156892],[-107.7936269,27.6158452],[-107.7933817,27.6160122],[-107.7927426,27.6165893],[-107.792513,27.6167436],[-107.7922456,27.6168579],[-107.7919584,27.6169187],[-107.7916883,27.6169185],[-107.7903894,27.6167578],[-107.7900366,27.6167677],[-107.7897142,27.6168644],[-107.7894054,27.6170241],[-107.7884257,27.6179659],[-107.7882252,27.6181546],[-107.7880784,27.618422],[-107.7880267,27.6186398],[-107.78801,27.6188932],[-107.7881607,27.6193852],[-107.7883302,27.6199227],[-107.7883583,27.6201781],[-107.7883077,27.6204436],[-107.7882311,27.6206834],[-107.7880657,27.6208989],[-107.7879611,27.6210162],[-107.7864422,27.622108],[-107.7859412,27.6224547],[-107.7856484,27.6227447],[-107.7854786,27.6230001],[-107.7854049,27.6231336],[-107.7850275,27.62378],[-107.7848454,27.623985],[-107.7846046,27.6241489],[-107.7843638,27.62428],[-107.7840235,27.6243769],[-107.7836963,27.624408],[-107.782546,27.6244822],[-107.7820818,27.6245405],[-107.7817383,27.6246148],[-107.7813966,27.6247218],[-107.7811158,27.62484],[-107.7807912,27.6250213],[-107.7804345,27.6252412],[-107.7772437,27.6273489],[-107.7769068,27.6274699],[-107.7766286,27.6275247],[-107.7762571,27.6275564],[-107.7759313,27.6275284],[-107.7746927,27.6271686],[-107.7744286,27.6271189],[-107.7741012,27.627102],[-107.7738026,27.6271087],[-107.7734398,27.6271852],[-107.7730485,27.6273143],[-107.7727497,27.6274832],[-107.7724541,27.6277024],[-107.7722674,27.627896],[-107.7720212,27.6282022],[-107.7718528,27.6286011],[-107.7717691,27.6289734],[-107.7717583,27.629232],[-107.7717852,27.6295495],[-107.771886,27.6298945],[-107.7724662,27.6315838],[-107.7725079,27.6319133],[-107.7724738,27.6322426],[-107.7723275,27.6325886],[-107.7722258,27.6327285],[-107.7720496,27.6329083],[-107.7719884,27.6329407],[-107.771754,27.6330672],[-107.7715731,27.6331487],[-107.7713125,27.6332112],[-107.7710199,27.6332411],[-107.7707757,27.6332004],[-107.7704758,27.633111],[-107.7701135,27.6329086],[-107.7698114,27.6326707],[-107.769599,27.6324541],[-107.769382,27.6322025],[-107.7692545,27.6319798],[-107.7691007,27.6317498],[-107.7689624,27.6314574],[-107.7688456,27.6310998],[-107.7687606,27.6308076],[-107.7687148,27.630491],[-107.7687168,27.6290965],[-107.7686884,27.6289178],[-107.7686553,27.6287018],[-107.768568,27.6284832],[-107.7683272,27.6281132],[-107.7678304,27.6275905],[-107.767647,27.6274029],[-107.7674358,27.6271646],[-107.7672145,27.6268368],[-107.7670686,27.6264809],[-107.7670259,27.6258459],[-107.7671804,27.6246615],[-107.7671845,27.6243093],[-107.7670466,27.623949],[-107.7669144,27.6236954],[-107.7666268,27.6234229],[-107.7663758,27.6232784],[-107.7660159,27.6231809],[-107.765607,27.6231503],[-107.7650505,27.6233026],[-107.7616205,27.6247387],[-107.7611203,27.6250215],[-107.7608397,27.6252789],[-107.7606313,27.6255473],[-107.7605039,27.6258896],[-107.7604379,27.6262477],[-107.7604541,27.6266419],[-107.7606624,27.6273608],[-107.7607204,27.6278173],[-107.7606189,27.6282439],[-107.7603998,27.6289019],[-107.7603349,27.6292044],[-107.7613854,27.6330003],[-107.7612218,27.6336963],[-107.761147,27.6340247],[-107.7611328,27.6343263],[-107.7612012,27.6346091],[-107.7613798,27.6349032],[-107.7616998,27.6353131],[-107.7618237,27.6355099],[-107.7619594,27.6358342],[-107.7620648,27.6363874],[-107.7621756,27.636722],[-107.762406,27.6370273],[-107.7628263,27.6373056],[-107.7631353,27.6374759],[-107.7634628,27.6376763],[-107.7637219,27.6379783],[-107.7638286,27.6383373],[-107.7638351,27.638697],[-107.7637712,27.639148],[-107.7638327,27.6395384],[-107.7639614,27.6398207],[-107.7641403,27.6400916],[-107.7643112,27.6404727],[-107.7643764,27.6408798],[-107.7644112,27.6413027],[-107.7645502,27.6417259],[-107.76479,27.64203],[-107.7650169,27.6422168],[-107.7652677,27.6425335],[-107.7654224,27.6428797],[-107.7654476,27.6431914],[-107.76539,27.6435478],[-107.7652454,27.6440397],[-107.765152,27.6444481],[-107.7652247,27.6448108],[-107.7657073,27.6456934],[-107.7658036,27.645921],[-107.765923,27.6462923],[-107.7659591,27.6464045],[-107.76645,27.6480216],[-107.7665511,27.648392],[-107.7665491,27.6487997],[-107.7664622,27.6490713],[-107.7663393,27.6492794],[-107.7661524,27.6494909],[-107.7659523,27.6496738],[-107.765628,27.6498392],[-107.7651648,27.6499337],[-107.7646444,27.6499045],[-107.7641506,27.6497056],[-107.763762,27.649349],[-107.76366,27.6491777],[-107.7634534,27.6488309],[-107.7630678,27.6478515],[-107.7626503,27.6472158],[-107.7620187,27.6464546],[-107.7612691,27.6455601],[-107.7608344,27.6452331],[-107.760247,27.6450381],[-107.7585601,27.6445357],[-107.7566676,27.6439732],[-107.7561011,27.6438194],[-107.7555214,27.6436473],[-107.7549869,27.6434869],[-107.7545498,27.6434267],[-107.754187,27.6434939],[-107.7539076,27.6435889],[-107.753646,27.6437595],[-107.753432,27.6439554],[-107.7534075,27.6439959],[-107.7532196,27.644307],[-107.7531336,27.6446009],[-107.753132,27.6449244],[-107.7532617,27.6456675],[-107.7532288,27.6459765],[-107.7531328,27.6463717],[-107.7530041,27.6470151],[-107.7530255,27.6473099],[-107.7531206,27.6475685],[-107.7540167,27.6492242],[-107.7546543,27.6504096],[-107.7547294,27.6506858],[-107.7547285,27.6509412],[-107.7546941,27.651173],[-107.7545929,27.6514319],[-107.7544467,27.6516389],[-107.7542343,27.651825],[-107.7539874,27.6519741],[-107.7532239,27.6522919],[-107.7529261,27.6524289],[-107.752615,27.6525796],[-107.7523579,27.6527772],[-107.7513378,27.6540833],[-107.7513304,27.6540928],[-107.7500488,27.6557873],[-107.7498204,27.65602],[-107.7495799,27.656184],[-107.7493135,27.656288],[-107.7489905,27.6563545],[-107.7484313,27.6563558],[-107.748059,27.656339],[-107.7476809,27.6562464],[-107.7473383,27.656108],[-107.7470169,27.6558865],[-107.7464109,27.6554688],[-107.7460123,27.6552688],[-107.745422,27.6550866],[-107.744798,27.6548538],[-107.7445082,27.6546891],[-107.7440069,27.6542684],[-107.7436607,27.6539746],[-107.7433065,27.6537181],[-107.7429719,27.6535703],[-107.7426603,27.6535202],[-107.7419649,27.6535348],[-107.7414618,27.6535278],[-107.7411752,27.65346],[-107.7408624,27.6533274],[-107.7406191,27.6531427],[-107.7404268,27.6529311],[-107.7401473,27.6523091],[-107.739909,27.6517933],[-107.7396947,27.6514871],[-107.7394517,27.6512809],[-107.7391403,27.6511286],[-107.7389152,27.6510611],[-107.7387204,27.6510317],[-107.7384764,27.6510304],[-107.7381993,27.6510761],[-107.73787,27.6512032],[-107.7376095,27.6513716],[-107.7374881,27.6514862],[-107.7373772,27.6516277],[-107.7373534,27.651671],[-107.737241,27.6518753],[-107.7370878,27.6521877],[-107.7368534,27.6527691],[-107.7365323,27.6535125],[-107.7364763,27.6539005],[-107.7364782,27.6543789],[-107.7365629,27.6548945],[-107.7367163,27.6553309],[-107.7368943,27.6556443],[-107.7370628,27.6558362],[-107.737238,27.6559909],[-107.7372851,27.6561247],[-107.7368861,27.6564077],[-107.7365464,27.6565129],[-107.7362221,27.6565645],[-107.7359026,27.6565827],[-107.7354827,27.6565681],[-107.7342218,27.6562904],[-107.7337748,27.6561983],[-107.7334396,27.6561598],[-107.7331133,27.6561962],[-107.7327099,27.6563451],[-107.7321644,27.6566988],[-107.7316712,27.6569773],[-107.7310916,27.6572356],[-107.7302296,27.6575379],[-107.7280051,27.658279],[-107.7277359,27.6584188],[-107.7274616,27.658654],[-107.7272858,27.6589211],[-107.7271694,27.6592559],[-107.727189,27.6595843],[-107.7272614,27.6599441],[-107.7272987,27.6603078],[-107.7272971,27.6605939],[-107.7271688,27.6609115],[-107.726966,27.6611671],[-107.7267304,27.6613554],[-107.7264758,27.6614727],[-107.726206,27.6615624],[-107.7259317,27.6616129],[-107.7257134,27.6616303],[-107.7254136,27.6615933],[-107.7250831,27.661453],[-107.7247619,27.6612372],[-107.7245297,27.6609616],[-107.7244305,27.6606756],[-107.7244019,27.6604071],[-107.724523,27.6590937],[-107.7244974,27.6586257],[-107.7244244,27.6582278],[-107.7240906,27.6568936],[-107.7239056,27.6562059],[-107.7237473,27.6556702],[-107.7236646,27.6554446],[-107.7235093,27.6551871],[-107.7232044,27.6548901],[-107.7228926,27.6547332],[-107.7227796,27.6546888],[-107.7225268,27.6546303],[-107.7221415,27.6546278],[-107.7218584,27.6546936],[-107.7215451,27.6548054],[-107.7212539,27.6549913],[-107.7209664,27.6553424],[-107.717785,27.6592751],[-107.7173354,27.6597738],[-107.7170138,27.6600354],[-107.7165573,27.6602915],[-107.716274,27.6603855],[-107.7158175,27.6604773],[-107.7152085,27.6606218],[-107.714954,27.6607526],[-107.7147386,27.6609383],[-107.7145097,27.6612036],[-107.7136565,27.6632251],[-107.713387,27.6637457],[-107.7132029,27.664019],[-107.7129551,27.664231],[-107.7127613,27.6643657],[-107.7124563,27.6645141],[-107.7122082,27.6646124],[-107.7120097,27.6646822],[-107.7112747,27.6648836],[-107.7109504,27.6649139],[-107.7106882,27.6649021],[-107.7103671,27.6648435],[-107.71011,27.6647563],[-107.709858,27.6646152],[-107.7095843,27.6644166],[-107.709406,27.6642137],[-107.7092182,27.663943],[-107.7086679,27.6631267],[-107.7080066,27.6620977],[-107.7078092,27.661904],[-107.7076095,27.661774],[-107.7074317,27.6616879],[-107.7072921,27.6616382],[-107.7068466,27.6614658],[-107.70667,27.661355],[-107.7063319,27.6610942],[-107.7061502,27.6608994],[-107.7060935,27.6608387],[-107.7056211,27.6604505],[-107.7052982,27.66032],[-107.7049454,27.6602739],[-107.7045563,27.6602744],[-107.7040394,27.6604821],[-107.7036011,27.6608351],[-107.7034179,27.6612088],[-107.7033504,27.661689],[-107.7033753,27.6622365],[-107.7033621,27.6625904],[-107.7031259,27.663444],[-107.7031849,27.6640968],[-107.7030636,27.664863],[-107.7029636,27.6655412],[-107.7030196,27.6659101],[-107.7032602,27.6662759],[-107.7038522,27.6668406],[-107.7041301,27.6671342],[-107.7043417,27.6675257],[-107.7043653,27.6678121],[-107.7043449,27.6681075],[-107.7041617,27.6684811],[-107.7031033,27.6699819],[-107.7029484,27.6702863],[-107.7028501,27.6706396],[-107.7028598,27.6709614],[-107.7029625,27.671435],[-107.7032999,27.6719436],[-107.7039681,27.6730489],[-107.7043047,27.6734474],[-107.7045528,27.6736418],[-107.7047561,27.6737797],[-107.7056895,27.6741875],[-107.7060164,27.6743978],[-107.706415,27.6748149],[-107.7065752,27.6750207],[-107.7068737,27.6753871],[-107.7071454,27.6756247],[-107.7074732,27.6757682],[-107.7079037,27.6758767],[-107.7088577,27.6760487],[-107.7093475,27.6762271],[-107.7098115,27.6765126],[-107.7101704,27.6767703],[-107.7106417,27.6769784],[-107.7110442,27.6770726],[-107.711534,27.6770679],[-107.7125667,27.6769135],[-107.7131586,27.6769304],[-107.7137098,27.677033],[-107.715622,27.6774463],[-107.7173314,27.6778361],[-107.7176791,27.6779178],[-107.7179805,27.6780398],[-107.7182739,27.6782268],[-107.7185566,27.6785304],[-107.7187422,27.6788197],[-107.7187999,27.6791432],[-107.7188227,27.679518],[-107.7187465,27.6801223],[-107.7184566,27.6816046],[-107.7183452,27.682659],[-107.7183605,27.6831048],[-107.7185325,27.6840758],[-107.7190383,27.6850548],[-107.7193476,27.6856745],[-107.7195699,27.6862162],[-107.7196973,27.6866925],[-107.7199457,27.6881316],[-107.7201187,27.6901136],[-107.7201307,27.6902423],[-107.7200745,27.6905864],[-107.7198494,27.6911799],[-107.7196056,27.691677],[-107.7191864,27.6921701],[-107.7185703,27.6926498],[-107.7181677,27.6928288],[-107.7170369,27.693198],[-107.7163502,27.6934051],[-107.7140972,27.6941935],[-107.7135779,27.6944405],[-107.7131125,27.6947473],[-107.7125501,27.6952043],[-107.7100998,27.6972609],[-107.7097774,27.6974858],[-107.7093612,27.6977259],[-107.7089481,27.6978565],[-107.707677,27.6981073],[-107.7070687,27.6982382],[-107.706702,27.6983951],[-107.7063316,27.6986713],[-107.7055347,27.6997167],[-107.7051262,27.700011],[-107.7046618,27.7001341],[-107.7041872,27.7001755],[-107.7036926,27.7001254],[-107.7032243,27.7000045],[-107.7027573,27.6997199],[-107.7023381,27.6990931],[-107.7016455,27.6980503],[-107.7008594,27.6969503],[-107.7006569,27.6966734],[-107.7003406,27.6964406],[-107.6999874,27.6962703],[-107.6996017,27.696148],[-107.6975015,27.6958235],[-107.6958117,27.6954451],[-107.6950956,27.6953154],[-107.6946741,27.6953105],[-107.6944961,27.6953356],[-107.6941265,27.6954593],[-107.6938436,27.6956819],[-107.6934779,27.6961358],[-107.6933537,27.6965318],[-107.6933918,27.6968531],[-107.6934719,27.6972308],[-107.6936253,27.697601],[-107.6937765,27.6978674],[-107.6939774,27.698678],[-107.6941458,27.7000015],[-107.694422,27.7016519],[-107.6944615,27.702328],[-107.6943164,27.7027463],[-107.6941242,27.7031884],[-107.6938878,27.7034777],[-107.6935462,27.7037362],[-107.6932872,27.7038719],[-107.6929552,27.7039667],[-107.6926868,27.7039972],[-107.6890787,27.7039699],[-107.6878938,27.7039342],[-107.6873062,27.7040692],[-107.6866026,27.7043358],[-107.6855949,27.7048479],[-107.6852788,27.7052705],[-107.6851595,27.7058971],[-107.6853036,27.7085839],[-107.6852788,27.7091694],[-107.6852385,27.7094596],[-107.6852055,27.7097052],[-107.6847216,27.7114827],[-107.6841881,27.7138068],[-107.684083,27.7142551],[-107.6838767,27.7146293],[-107.6836028,27.7149614],[-107.6832352,27.7152293],[-107.6828945,27.7153713],[-107.6825635,27.7154663],[-107.6819369,27.7155169],[-107.6801921,27.7156527],[-107.6798097,27.7156976],[-107.679527,27.7157847],[-107.6791559,27.7158824],[-107.678803,27.716138],[-107.6785548,27.7164247],[-107.6784293,27.7166614],[-107.6780091,27.7174587],[-107.6777432,27.7179168],[-107.6767021,27.7199276],[-107.6753593,27.7224497],[-107.6747815,27.7235101],[-107.6741413,27.7246192],[-107.6736374,27.7252765],[-107.6728204,27.7263421],[-107.6720809,27.7273711],[-107.6715047,27.7281512],[-107.6713331,27.7284629],[-107.6712896,27.7288074],[-107.6714415,27.7301981],[-107.6715399,27.7307839],[-107.671597,27.7311223],[-107.6718175,27.7322326],[-107.6718497,27.732681],[-107.6717647,27.733125],[-107.6715887,27.7334251],[-107.6713344,27.7336998],[-107.6709069,27.7339197],[-107.670477,27.7340225],[-107.6700173,27.7339676],[-107.6695949,27.7338301],[-107.6693055,27.7335993],[-107.6689735,27.7331267],[-107.6687029,27.7327445],[-107.6683402,27.7324556],[-107.668222,27.7323786],[-107.6679586,27.7322065],[-107.6674691,27.7320802],[-107.6669924,27.7320653],[-107.6663833,27.7321988],[-107.6658696,27.7324554],[-107.6649167,27.7328765],[-107.6644554,27.7330049],[-107.6639653,27.7329892],[-107.6634138,27.7328739],[-107.6628852,27.7326023],[-107.6621226,27.7321368],[-107.6615351,27.7318779],[-107.661253,27.7318619],[-107.660747,27.7318744],[-107.6598436,27.7320263],[-107.6584807,27.7322739],[-107.6578491,27.7324556],[-107.6574321,27.7328046],[-107.6572501,27.7331538],[-107.6571569,27.7334801],[-107.6571764,27.7338145],[-107.6572756,27.7341383],[-107.6574524,27.7344598],[-107.657694,27.7346528],[-107.6580052,27.7348203],[-107.6592312,27.7352157],[-107.659607,27.735452],[-107.659868,27.7357603],[-107.6600082,27.7360905],[-107.6600466,27.7364217],[-107.6600131,27.736727],[-107.6600238,27.7371398],[-107.6601244,27.7374738],[-107.660372,27.7377966],[-107.6606598,27.7380469],[-107.6612592,27.7383108],[-107.6620915,27.7386956],[-107.6625263,27.7389925],[-107.6629233,27.7392636],[-107.6632736,27.7395904],[-107.663678,27.7399162],[-107.6640257,27.7401457],[-107.6661341,27.7410922],[-107.667067,27.7415091],[-107.6678693,27.7418663],[-107.6682078,27.7420634],[-107.6684363,27.7422972],[-107.6685825,27.7425274],[-107.6686663,27.7427828],[-107.6687129,27.7432255],[-107.6685776,27.743669],[-107.6684334,27.7439072],[-107.6682405,27.7440717],[-107.6677315,27.7443195],[-107.6675104,27.7443473],[-107.6672049,27.7443858],[-107.6666644,27.7442673],[-107.6663282,27.7441002],[-107.6658275,27.7437192],[-107.6621556,27.7410794],[-107.6590019,27.7388651],[-107.6580479,27.7381953],[-107.6539638,27.7352612],[-107.6530214,27.734616],[-107.6526587,27.7344328],[-107.6524442,27.7343616],[-107.6522081,27.7343473],[-107.6519399,27.7343663],[-107.6516771,27.7344328],[-107.6504432,27.7347841],[-107.6497614,27.7348966],[-107.6492523,27.7348791],[-107.6487605,27.7348495],[-107.6475336,27.7347748],[-107.6471388,27.7347462],[-107.6466989,27.7347604],[-107.6461785,27.7348839],[-107.6457318,27.7351149],[-107.6455026,27.7353444],[-107.6453145,27.7355839],[-107.6448777,27.7362537],[-107.6442996,27.7372698],[-107.6441561,27.7376021],[-107.6440757,27.7379487],[-107.644022,27.7382811],[-107.6439818,27.738725],[-107.6439845,27.7391824],[-107.6439989,27.7396719],[-107.6440934,27.7403435],[-107.644268,27.7407212],[-107.6448076,27.7416149],[-107.6448927,27.7419618],[-107.6448666,27.742337],[-107.6447538,27.742706],[-107.6445967,27.7429253],[-107.644318,27.7431686],[-107.6438108,27.7433735],[-107.6435682,27.7434063],[-107.6434082,27.7433949],[-107.643133,27.7433576],[-107.6425156,27.7431452],[-107.6405092,27.7425369],[-107.6401457,27.7424556],[-107.6397662,27.7424674],[-107.6394564,27.7425102],[-107.6390876,27.7426087],[-107.6385913,27.7428716],[-107.6383177,27.7431992],[-107.6380184,27.7436797],[-107.6372795,27.7454205],[-107.635769,27.7486842],[-107.6352042,27.7499811]]}}]}
