{"type":"FeatureCollection","features":[{"type":"Feature","properties":{"routeId":"glacier-express","routeName":"Glacier Express","origin":"Zermatt","destination":"St. Moritz","source":"OpenStreetMap relation 301629 (directional relation 14616806)","sourceUrl":"https://www.openstreetmap.org/relation/301629","sourceSnapshot":"2026-06-01T08:52:28Z","license":"ODbL 1.0","geometryVersion":"2026-06-01.1"},"geometry":{"type":"LineString","coordinates":[[7.7480492,46.0242783],[7.7494408,46.02617],[7.7496317,46.0263806],[7.7512763,46.0277864],[7.751723,46.0281244],[7.7523481,46.0284699],[7.7532838,46.0288145],[7.7535743,46.028981],[7.7538073,46.0292905],[7.7538297,46.0298092],[7.7538789,46.0299858],[7.75398,46.030186],[7.7541767,46.0304231],[7.7562771,46.0319249],[7.7565271,46.0320713],[7.757017,46.0322453],[7.7573537,46.0324262],[7.7575263,46.0326042],[7.757732,46.0329563],[7.7583609,46.0335653],[7.7584595,46.0337826],[7.7584751,46.0339945],[7.7583483,46.0348261],[7.7584016,46.0350615],[7.7585236,46.0353161],[7.758637,46.0355168],[7.7588612,46.0357561],[7.759705,46.0363324],[7.7604962,46.0374263],[7.7605834,46.037653],[7.7605955,46.0378592],[7.7604526,46.038408],[7.7604447,46.0385735],[7.7606007,46.039157],[7.7607733,46.0396083],[7.7608822,46.0397271],[7.7615542,46.0401311],[7.7616691,46.0402714],[7.7618039,46.0405961],[7.7618787,46.0410901],[7.76201,46.0413417],[7.7623469,46.0415728],[7.7629058,46.0417792],[7.7631476,46.0419112],[7.7637184,46.042401],[7.7643817,46.0428048],[7.7645428,46.042954],[7.7647648,46.0433116],[7.7649401,46.0438598],[7.7653594,46.0443814],[7.765503,46.0444985],[7.7658016,46.0446493],[7.7665011,46.0448429],[7.7668379,46.0449947],[7.7672835,46.0452578],[7.7676301,46.0455752],[7.7681822,46.0466068],[7.7688092,46.0472596],[7.7688641,46.0473699],[7.7689067,46.0476691],[7.768877,46.0478167],[7.768482,46.0484082],[7.7684281,46.0485672],[7.7684179,46.0487606],[7.7684712,46.0491082],[7.7686303,46.0494757],[7.7693341,46.0505058],[7.7696399,46.051181],[7.7701581,46.0526834],[7.7703565,46.0529496],[7.770616,46.0531952],[7.7724694,46.0545775],[7.7729487,46.0550081],[7.7731771,46.0553452],[7.7735405,46.0562802],[7.7740325,46.0570051],[7.7742152,46.0573802],[7.7742871,46.0577813],[7.7742553,46.0581233],[7.7736039,46.060109],[7.7735609,46.0605296],[7.7735824,46.0609503],[7.7736589,46.0613606],[7.7738117,46.0617515],[7.7740142,46.0621042],[7.7754378,46.0642509],[7.7755711,46.064542],[7.7756424,46.0648837],[7.7756075,46.065296],[7.7754901,46.0656031],[7.7746556,46.0667325],[7.7745469,46.0669352],[7.7744688,46.0671991],[7.7744347,46.0691105],[7.7743223,46.0697688],[7.7740093,46.0710098],[7.7739469,46.0714337],[7.7740972,46.0731353],[7.7742926,46.0737208],[7.7780732,46.0808996],[7.7784381,46.0817573],[7.7785256,46.0820576],[7.7786375,46.0827245],[7.7784953,46.0858874],[7.7785147,46.0861884],[7.7788663,46.0875631],[7.7790146,46.0892481],[7.7791135,46.0909687],[7.7791731,46.0913821],[7.7794273,46.0921655],[7.7811338,46.0965134],[7.7819289,46.097629],[7.7820988,46.0979743],[7.7821678,46.0982497],[7.7821549,46.098679],[7.7819623,46.0991636],[7.7816479,46.0995713],[7.7808655,46.1004447],[7.7807236,46.1006615],[7.7801891,46.1023378],[7.7801643,46.1026621],[7.7802071,46.1029414],[7.7803144,46.1032329],[7.7806195,46.1036309],[7.7809414,46.1038982],[7.7818084,46.1044733],[7.7821947,46.1048397],[7.7834598,46.1067799],[7.7852901,46.109063],[7.7855423,46.1093234],[7.7875137,46.1110602],[7.7878785,46.1115864],[7.7881011,46.1126444],[7.7882003,46.1133659],[7.7882647,46.1136039],[7.7884954,46.1140575],[7.7885718,46.1143667],[7.7885496,46.1146875],[7.7884242,46.1149417],[7.7880614,46.1152746],[7.7869329,46.115765],[7.7865208,46.1160374],[7.7862915,46.1163277],[7.7861763,46.116794],[7.7861976,46.1170336],[7.7863183,46.1172939],[7.7867565,46.1179412],[7.7871954,46.1184745],[7.7877396,46.1192473],[7.7879435,46.1195597],[7.7881299,46.1199892],[7.7882813,46.120625],[7.7882921,46.1208973],[7.7880789,46.1230948],[7.7881057,46.1234109],[7.7881896,46.1236776],[7.7883497,46.1239509],[7.7893302,46.1253076],[7.7899492,46.1264356],[7.7909335,46.1275156],[7.7912264,46.1279929],[7.7917703,46.1289284],[7.7919634,46.1294597],[7.7921565,46.1302414],[7.7921693,46.1306122],[7.792108,46.1308776],[7.7916285,46.131807],[7.7915313,46.1320786],[7.7914954,46.1323691],[7.7915128,46.1331958],[7.7914452,46.1334703],[7.7911196,46.1343214],[7.7910432,46.1348619],[7.791178,46.1358135],[7.7912612,46.1360853],[7.7914402,46.1364529],[7.7919014,46.1371754],[7.792,46.1374067],[7.792067,46.1378669],[7.792041,46.1381685],[7.7918414,46.1387228],[7.791103,46.1397542],[7.790954,46.1401839],[7.79094,46.1404683],[7.7910645,46.1410075],[7.7912502,46.1414144],[7.7913946,46.1416266],[7.7922668,46.1425764],[7.7925698,46.1430451],[7.7926856,46.1433828],[7.7927249,46.1436513],[7.7926993,46.144529],[7.7924377,46.146318],[7.7922848,46.1468866],[7.7920569,46.1473196],[7.7910215,46.148429],[7.790812,46.1487663],[7.790352,46.1498374],[7.7901744,46.1505212],[7.790197,46.1511862],[7.7901643,46.1515299],[7.7899483,46.152667],[7.7898125,46.1529835],[7.7894445,46.1534447],[7.7893688,46.1536595],[7.7893728,46.1538667],[7.7895284,46.1542782],[7.7896866,46.1545676],[7.7899408,46.1548919],[7.7901929,46.1550763],[7.7910492,46.155387],[7.7913818,46.1556216],[7.7914904,46.1557651],[7.7916006,46.1561145],[7.7915865,46.1568257],[7.7917466,46.1574334],[7.7917159,46.1576361],[7.7913419,46.1581891],[7.7912662,46.1583763],[7.7912548,46.1586219],[7.7913004,46.158798],[7.7914253,46.158989],[7.7919558,46.1594062],[7.7923623,46.1598355],[7.793032,46.1601989],[7.7933553,46.1604826],[7.7937591,46.1611666],[7.7944458,46.1625199],[7.7951623,46.1641661],[7.7961685,46.166062],[7.7964356,46.1663098],[7.7966192,46.1664101],[7.797678,46.166685],[7.7979599,46.1668072],[7.7981385,46.1669192],[7.7984048,46.1672503],[7.7985257,46.1676257],[7.7986805,46.1684683],[7.7985772,46.1689565],[7.7981931,46.1700832],[7.7974382,46.1713602],[7.7973415,46.171594],[7.7973092,46.1717831],[7.7973292,46.1719969],[7.7974607,46.1723065],[7.7987135,46.1735037],[7.7997835,46.1742604],[7.800341,46.1748094],[7.8005147,46.175063],[7.8008219,46.1757018],[7.8009569,46.1765775],[7.8012062,46.1769574],[7.8032185,46.1784111],[7.8035394,46.178707],[7.8037102,46.178936],[7.8038737,46.1793104],[7.8039164,46.1796541],[7.8038656,46.1800444],[7.8037041,46.1807013],[7.8037107,46.1812005],[7.8038033,46.1815092],[7.8042808,46.1822204],[7.8044636,46.1826893],[7.8045444,46.1834865],[7.8046024,46.1836641],[7.8047821,46.1840031],[7.8050141,46.1843077],[7.8055088,46.1848623],[7.8059586,46.185219],[7.8065789,46.1855008],[7.8073919,46.1857397],[7.8079862,46.1860549],[7.8083641,46.1863786],[7.8085998,46.1867948],[7.8088164,46.1876359],[7.8092289,46.1886476],[7.8093606,46.1888192],[7.8100463,46.1893288],[7.810331,46.1897988],[7.8105193,46.1899886],[7.8116653,46.1905806],[7.8123714,46.1910145],[7.8131427,46.1916067],[7.8141544,46.192483],[7.8144439,46.1930929],[7.8152253,46.1939349],[7.8153134,46.1941161],[7.8153219,46.194613],[7.8153636,46.1948316],[7.8154491,46.1950127],[7.8157412,46.1953278],[7.8158617,46.1955468],[7.8161415,46.1958978],[7.8168412,46.1964562],[7.8169444,46.1966604],[7.8169757,46.1968822],[7.8169276,46.19738],[7.816954,46.1975072],[7.8170859,46.1977263],[7.8172433,46.1978799],[7.8177854,46.1982288],[7.8179596,46.1983914],[7.8180634,46.198555],[7.8182712,46.1992458],[7.8184636,46.1994992],[7.8188404,46.1997968],[7.8189774,46.1999519],[7.8191615,46.2003225],[7.8192997,46.2005002],[7.8201656,46.2010574],[7.8213376,46.2015919],[7.8215627,46.2017699],[7.8220522,46.2022748],[7.8226383,46.2027269],[7.8234483,46.2029868],[7.8238693,46.2032141],[7.8248939,46.2040876],[7.8250682,46.204288],[7.8253941,46.2049452],[7.8255882,46.2051298],[7.8258139,46.2052877],[7.827277,46.2060701],[7.8275399,46.206252],[7.8277437,46.2064636],[7.828248,46.20713],[7.8284331,46.2072878],[7.8297061,46.2081152],[7.8299525,46.2083272],[7.8301758,46.2087034],[7.830342,46.209588],[7.8304736,46.2098097],[7.830754,46.2100834],[7.8312618,46.2104279],[7.8315642,46.210577],[7.8334151,46.2112632],[7.8337374,46.2114073],[7.8339871,46.2115722],[7.8342494,46.2118292],[7.8353453,46.2131025],[7.8356946,46.2134286],[7.8359501,46.2135961],[7.8365037,46.2138427],[7.8370509,46.2141851],[7.8376282,46.2147902],[7.8390212,46.2158316],[7.8394016,46.2163406],[7.8400272,46.2167679],[7.840506,46.2173686],[7.8412493,46.2178551],[7.8420933,46.2185382],[7.8422561,46.2186225],[7.8431392,46.2188339],[7.8433291,46.2189147],[7.8435276,46.2190373],[7.8439976,46.2195544],[7.8444916,46.2199439],[7.8448215,46.2200868],[7.8454378,46.2202292],[7.8458332,46.2203903],[7.8461735,46.2206679],[7.8463978,46.221066],[7.8465388,46.221227],[7.8467497,46.2213778],[7.8472617,46.2215538],[7.8480667,46.22164],[7.8485159,46.2217521],[7.8488475,46.2219505],[7.8492874,46.222391],[7.8495918,46.2225625],[7.8510008,46.222974],[7.8518247,46.2234219],[7.852943,46.2236801],[7.8533002,46.2238564],[7.8534777,46.22405],[7.853541,46.2242017],[7.8535896,46.2247436],[7.8537585,46.2249676],[7.8542789,46.2255242],[7.8549423,46.2259224],[7.8550859,46.2260462],[7.8554652,46.2265621],[7.8561103,46.2269695],[7.8565492,46.2271095],[7.8578405,46.2272374],[7.8587821,46.2272348],[7.8593079,46.2273589],[7.8594958,46.2274491],[7.8600841,46.2279574],[7.860341,46.2281042],[7.8616629,46.2284819],[7.8624427,46.2289708],[7.8634281,46.2292848],[7.8635898,46.2293803],[7.8641133,46.2298678],[7.864646,46.2300805],[7.8649586,46.2301201],[7.8658513,46.2300956],[7.8668523,46.2301873],[7.8673667,46.2301593],[7.8678352,46.2302238],[7.8680773,46.2303188],[7.8686333,46.2306548],[7.8693142,46.231325],[7.8697493,46.2316228],[7.870305,46.2318256],[7.8715079,46.2320337],[7.8717995,46.2321654],[7.8720664,46.2324018],[7.8722407,46.2327461],[7.872423,46.2335165],[7.8723936,46.2336905],[7.8722605,46.2339368],[7.871867,46.2345201],[7.8717856,46.2348523],[7.8718845,46.2353073],[7.8720068,46.2355667],[7.8726173,46.2363066],[7.8727575,46.2365175],[7.872793,46.236668],[7.8727788,46.2370171],[7.8725322,46.2374584],[7.8725063,46.2376457],[7.8725493,46.2378221],[7.8727161,46.238169],[7.8727678,46.2384389],[7.8726301,46.2391033],[7.8726913,46.239442],[7.8730629,46.2403781],[7.8732317,46.2406538],[7.8743605,46.2416362],[7.8746808,46.2420385],[7.875751,46.2448905],[7.8761604,46.2463488],[7.876564,46.2474591],[7.8766337,46.2482954],[7.8766173,46.2489905],[7.8767017,46.2495015],[7.8769348,46.2499883],[7.8774592,46.2507024],[7.8775727,46.2509347],[7.8776187,46.2511318],[7.8776006,46.2515209],[7.8772099,46.2525259],[7.8771556,46.252798],[7.8771794,46.2531249],[7.8772551,46.2533716],[7.8774103,46.2536262],[7.8776764,46.2539249],[7.8787028,46.2547425],[7.8790344,46.2550517],[7.879283,46.2553685],[7.8794718,46.2557353],[7.8795442,46.25598],[7.8797089,46.2571235],[7.8796477,46.2578454],[7.879575,46.2581654],[7.8790904,46.2594352],[7.8789749,46.260037],[7.8790223,46.2606307],[7.8793545,46.2616814],[7.8794363,46.2620226],[7.8794721,46.2624358],[7.8794865,46.2631932],[7.8794148,46.2637316],[7.8791946,46.2647367],[7.879212,46.2653532],[7.8794182,46.2659912],[7.8801858,46.2672685],[7.8803549,46.2676911],[7.8806052,46.2685935],[7.8810888,46.2697945],[7.8818011,46.2727786],[7.8819259,46.2735169],[7.8820989,46.2751002],[7.88262,46.2768163],[7.8826822,46.27713],[7.8827129,46.2775478],[7.8826559,46.2780031],[7.8823745,46.2790773],[7.8816146,46.2817826],[7.8809844,46.2834523],[7.8807375,46.2843835],[7.8792597,46.2921065],[7.8791904,46.2924003],[7.8789422,46.2929748],[7.8789528,46.2931923],[7.8790567,46.2934242],[7.8793839,46.2937048],[7.8797056,46.2938578],[7.8799382,46.293922],[7.880575,46.2939795],[7.8859736,46.2938898],[7.8880696,46.2939788],[7.8916348,46.2944191],[7.8936821,46.2946244],[7.9005168,46.2954248],[7.9054334,46.2959046],[7.9075504,46.2960529],[7.9163106,46.2968262],[7.9261627,46.2977438],[7.9279588,46.2979661],[7.9299346,46.2983724],[7.9310771,46.2986987],[7.9321817,46.2990845],[7.9330388,46.2994362],[7.934047,46.2999181],[7.9350296,46.3004622],[7.9394369,46.3032708],[7.9400248,46.3035827],[7.9418002,46.3043739],[7.9427865,46.3047564],[7.944049,46.3051682],[7.9461995,46.3057768],[7.9515037,46.3076631],[7.9541892,46.3088607],[7.9602274,46.31133],[7.966498,46.313636],[7.9748632,46.3166038],[7.9782531,46.3176386],[7.9801445,46.3179856],[7.9834566,46.3187957],[7.9842776,46.3189523],[7.9892643,46.3189855],[7.9906978,46.3190981],[7.9913863,46.3191917],[7.9941233,46.3197975],[7.9949102,46.3199316],[7.9956861,46.3199506],[7.9969835,46.3197823],[7.9973849,46.3198012],[7.9977818,46.3198768],[7.9983491,46.3200995],[7.9990191,46.3205612],[8.0000109,46.3210802],[8.0014923,46.3220108],[8.0019655,46.3222665],[8.0034385,46.3229212],[8.0058066,46.3243576],[8.0064189,46.3246787],[8.0071364,46.3249359],[8.0091194,46.3253529],[8.0095694,46.325491],[8.0104501,46.3258832],[8.0115221,46.3265023],[8.0119949,46.3268625],[8.0124207,46.327308],[8.012687,46.3276969],[8.0129997,46.3283807],[8.013181,46.329022],[8.0132056,46.3293938],[8.0131104,46.3305016],[8.013142,46.330888],[8.0132008,46.3311144],[8.0139218,46.3329584],[8.0141997,46.3334268],[8.0145514,46.3338626],[8.0151517,46.334416],[8.0180563,46.336642],[8.0194294,46.3376451],[8.0198394,46.3379007],[8.0206948,46.3383129],[8.0242199,46.3395549],[8.0246267,46.339762],[8.0248697,46.339938],[8.0251974,46.3402941],[8.0254077,46.3407169],[8.0258186,46.3427529],[8.0260336,46.3433526],[8.0262365,46.34371],[8.0265438,46.3440871],[8.026815,46.3443385],[8.0275243,46.3448386],[8.0285797,46.345388],[8.0295614,46.3457676],[8.0317617,46.3464226],[8.0324517,46.3467199],[8.0365867,46.3491732],[8.0371974,46.3495646],[8.0380376,46.3502506],[8.0392946,46.3514422],[8.0402395,46.3524918],[8.0415965,46.353475],[8.0423224,46.3537829],[8.0449805,46.3545924],[8.045618,46.3549253],[8.0486426,46.3573097],[8.0508827,46.3596653],[8.0511025,46.3597976],[8.0524541,46.3603059],[8.0528186,46.3605494],[8.0530182,46.360838],[8.0531212,46.3613147],[8.0532747,46.361576],[8.0539548,46.3620364],[8.0543024,46.3622211],[8.0588931,46.363979],[8.0592489,46.3641934],[8.0601527,46.3649047],[8.0604952,46.3650995],[8.062405,46.3658472],[8.0637214,46.3662344],[8.0642036,46.3665012],[8.0648938,46.3669613],[8.0655243,46.3672607],[8.0661952,46.36745],[8.0671859,46.367563],[8.067652,46.3677353],[8.0680084,46.3680214],[8.0685776,46.3691268],[8.0687942,46.3693216],[8.0690135,46.3694453],[8.069625,46.3696021],[8.0707886,46.3695848],[8.0723226,46.3699544],[8.0727266,46.3702209],[8.0731983,46.3707745],[8.0735737,46.3709727],[8.0739466,46.3710427],[8.0741548,46.3710377],[8.0750447,46.3708379],[8.0753498,46.3708309],[8.0756903,46.3708889],[8.0770549,46.3712753],[8.0774806,46.3713104],[8.0779723,46.3711915],[8.0785928,46.3708741],[8.079313,46.3706123],[8.0797711,46.3705095],[8.0800283,46.3705063],[8.0803393,46.3705599],[8.0811918,46.3708724],[8.0843464,46.3717911],[8.0848773,46.3720573],[8.0856996,46.3726703],[8.0860467,46.3727986],[8.086349,46.3728419],[8.0866614,46.3728319],[8.0874913,46.3726563],[8.0879584,46.3726249],[8.088292,46.3726645],[8.0887084,46.3727919],[8.0892904,46.3730796],[8.0895956,46.3733047],[8.0900038,46.3739246],[8.0904463,46.3743862],[8.0911227,46.3748456],[8.0927027,46.3760266],[8.0932827,46.3763828],[8.0936797,46.3765411],[8.0974552,46.3775763],[8.0978876,46.3777281],[8.0981884,46.3779467],[8.098313,46.3781134],[8.0983826,46.3782644],[8.0984105,46.3784586],[8.0983813,46.3786368],[8.0982811,46.378841],[8.0981284,46.3790167],[8.097956,46.3791352],[8.0974691,46.3793147],[8.0971466,46.3793608],[8.0966005,46.3792931],[8.0963364,46.3791764],[8.0961282,46.3790416],[8.0958848,46.3787586],[8.0958039,46.3784689],[8.0958356,46.3782954],[8.0959407,46.3780668],[8.0964542,46.3774234],[8.0967598,46.3771678],[8.0971703,46.3770376],[8.097876,46.3769735],[8.099622,46.3772647],[8.0999552,46.3773552],[8.1012172,46.3779111],[8.1016858,46.378176],[8.102373,46.3787626],[8.1043549,46.3802771],[8.1048004,46.3804281],[8.106176,46.3806923],[8.1073946,46.3812676],[8.1083313,46.3818093],[8.1091399,46.3824276],[8.11033,46.3831804],[8.1105114,46.3833609],[8.1108512,46.3838354],[8.1111102,46.384019],[8.1113271,46.3841018],[8.111616,46.3841493],[8.1125759,46.3840991],[8.1130889,46.3841632],[8.1134921,46.3843154],[8.1148918,46.3850132],[8.1151353,46.3852057],[8.1154265,46.3856325],[8.115678,46.3859031],[8.1180921,46.3875995],[8.1184584,46.3877453],[8.1188241,46.3878139],[8.1191727,46.3878008],[8.1200558,46.3876532],[8.1204031,46.3876886],[8.120702,46.3877962],[8.1209356,46.3879619],[8.1210463,46.388107],[8.1211204,46.388328],[8.1209856,46.3895993],[8.1211291,46.3901651],[8.1211233,46.390415],[8.1210262,46.3906935],[8.1207481,46.3911072],[8.1206801,46.3913311],[8.1207195,46.3915995],[8.1207881,46.3917358],[8.1209551,46.3919142],[8.1213683,46.3921273],[8.1225191,46.3923134],[8.1229602,46.3924912],[8.1231604,46.3926551],[8.1232958,46.39283],[8.1234734,46.39351],[8.1235522,46.3936548],[8.123808,46.3938693],[8.1242159,46.3940139],[8.1252417,46.3940191],[8.1255618,46.3940859],[8.1257704,46.394177],[8.1262931,46.3945326],[8.1270382,46.3952516],[8.1279185,46.3959202],[8.1283143,46.3961241],[8.1290774,46.3963544],[8.1295412,46.3965418],[8.1315863,46.3978338],[8.1319472,46.3981327],[8.1321502,46.3983629],[8.1324278,46.3988421],[8.1325455,46.3994141],[8.1322727,46.4014126],[8.132299,46.401693],[8.1325096,46.4023675],[8.1325737,46.4027393],[8.1325496,46.4031074],[8.1323702,46.4040511],[8.1324242,46.4044274],[8.1325354,46.4046571],[8.1327244,46.4048944],[8.134357,46.4065375],[8.1348014,46.4070363],[8.1354171,46.4076237],[8.1357287,46.407846],[8.1361409,46.4080498],[8.1365976,46.4081908],[8.1386012,46.4085118],[8.138951,46.4085175],[8.1392809,46.4084592],[8.1397715,46.4082259],[8.139953,46.4080445],[8.1400732,46.4078064],[8.1400937,46.4075432],[8.1400303,46.4073333],[8.1394774,46.4067011],[8.139198,46.4064547],[8.1380934,46.4056754],[8.1374926,46.4050838],[8.1372025,46.4045572],[8.1371797,46.4043282],[8.1372108,46.4041863],[8.1374312,46.4038954],[8.1377768,46.4037211],[8.1381317,46.4036525],[8.1388255,46.4036869],[8.1392425,46.4036328],[8.1400368,46.4032392],[8.1402151,46.4031961],[8.1407131,46.4031721],[8.1411531,46.4032859],[8.141403,46.4034126],[8.1420028,46.4039934],[8.1428051,46.4043975],[8.1430384,46.4045689],[8.1434613,46.4049874],[8.1444739,46.4057027],[8.1451322,46.4065107],[8.1465479,46.4080102],[8.1472744,46.4084823],[8.1483254,46.4088591],[8.148746,46.4091147],[8.1491941,46.4095136],[8.1496492,46.4102016],[8.1499716,46.4104848],[8.151807,46.4114794],[8.152146,46.4116976],[8.1528627,46.4122652],[8.1531669,46.4124391],[8.1563204,46.4132089],[8.1567933,46.413389],[8.1587064,46.4147082],[8.1592961,46.4154002],[8.159653,46.4156304],[8.1630602,46.4172881],[8.1638544,46.4177193],[8.1655305,46.4189326],[8.1659277,46.4191815],[8.1662962,46.4193317],[8.1673841,46.4196463],[8.1678401,46.4198744],[8.1686743,46.4205105],[8.1688418,46.4206784],[8.1699159,46.4221039],[8.1703613,46.4225312],[8.171513,46.4232191],[8.1723493,46.4238429],[8.1739494,46.4251731],[8.1749012,46.4261827],[8.175204,46.4263845],[8.1768702,46.4272714],[8.1785974,46.4284959],[8.1789104,46.4287737],[8.1793902,46.4293888],[8.1796512,46.4296377],[8.1813185,46.4308729],[8.1835833,46.4319032],[8.1838849,46.4321097],[8.1846603,46.4327773],[8.1850531,46.4330165],[8.1853936,46.4331459],[8.187037,46.4335491],[8.187333,46.433662],[8.1876203,46.433858],[8.1881551,46.4344855],[8.189317,46.4351214],[8.1895926,46.4352128],[8.1898888,46.4352564],[8.1908666,46.4352292],[8.191382,46.4352641],[8.1920302,46.4354141],[8.1926934,46.435718],[8.1937289,46.4365024],[8.1945418,46.4369081],[8.1950738,46.4370776],[8.1971635,46.4374899],[8.1985808,46.4379716],[8.1992224,46.4383106],[8.199925,46.43883],[8.2009015,46.4397469],[8.2027185,46.4408828],[8.2034381,46.4414937],[8.2036749,46.441783],[8.2038182,46.4420845],[8.2038467,46.4424453],[8.2037056,46.4430614],[8.2037042,46.4434173],[8.2038608,46.4438042],[8.2040837,46.4440578],[8.2044382,46.4443056],[8.2056458,46.4449537],[8.2061529,46.4451682],[8.2073957,46.4455873],[8.2077284,46.4457409],[8.2082323,46.4460659],[8.2087453,46.4465644],[8.2102759,46.4489679],[8.2104648,46.4491865],[8.2108842,46.4495483],[8.2115746,46.4499453],[8.2164461,46.4520185],[8.2171013,46.4523511],[8.2175644,46.4527253],[8.2177772,46.4529585],[8.2182917,46.4538116],[8.2185772,46.4541952],[8.2189346,46.4545178],[8.2197242,46.4550747],[8.2200911,46.4552762],[8.2205045,46.4554425],[8.2214018,46.4556388],[8.2220539,46.4556681],[8.2237596,46.4555776],[8.2246708,46.4556745],[8.2252537,46.4558386],[8.2280301,46.4568518],[8.2284978,46.4571219],[8.2288912,46.4574161],[8.2298181,46.4584067],[8.2302184,46.4587175],[8.230955,46.4591958],[8.2313539,46.4595548],[8.2321457,46.4606127],[8.2329886,46.4613488],[8.2333365,46.4617168],[8.2342773,46.4633201],[8.234467,46.4635814],[8.2349999,46.4640831],[8.2352958,46.4642856],[8.2360848,46.4646487],[8.2368245,46.4648408],[8.2410861,46.4654333],[8.2416813,46.4656147],[8.242331,46.4659535],[8.242936,46.4664516],[8.2432695,46.4668707],[8.2443535,46.4686311],[8.2445893,46.4691843],[8.2447787,46.4699133],[8.2449761,46.4702045],[8.245442,46.4705405],[8.2470294,46.4714617],[8.2474317,46.4716335],[8.2485098,46.4719949],[8.2491414,46.4722742],[8.2497295,46.4726514],[8.2500858,46.4729481],[8.2510189,46.4737983],[8.2513128,46.4741559],[8.2516306,46.4747129],[8.2520914,46.4758058],[8.2523975,46.4762828],[8.2526845,46.4766126],[8.253217,46.477076],[8.2547027,46.4779975],[8.255331,46.4784762],[8.259548,46.4828598],[8.2600046,46.4832433],[8.260459,46.4835509],[8.2611002,46.4838972],[8.2618807,46.4842177],[8.2650858,46.4852125],[8.2656241,46.4852913],[8.2677063,46.4853904],[8.2684613,46.4854733],[8.2738369,46.4865033],[8.2746606,46.4867479],[8.2751617,46.4870208],[8.2791469,46.4895544],[8.2819195,46.4914972],[8.2843909,46.4930062],[8.2859305,46.4938637],[8.2878798,46.49503],[8.2965554,46.4992326],[8.3019265,46.5015357],[8.3041981,46.5025935],[8.3072557,46.5039125],[8.3079516,46.5042601],[8.3083904,46.5045385],[8.30873,46.5048206],[8.3113394,46.5074739],[8.3117584,46.5078202],[8.3120678,46.5079925],[8.3124701,46.5081414],[8.3131244,46.5082811],[8.3195461,46.5090154],[8.3202773,46.5092032],[8.3206642,46.5093494],[8.3211984,46.5096322],[8.3216232,46.5099358],[8.3233484,46.5115646],[8.3238083,46.5119376],[8.325014,46.5127586],[8.3272425,46.5138169],[8.3280638,46.5143999],[8.3404434,46.5269981],[8.3408283,46.5275207],[8.341017,46.5279157],[8.3412096,46.528484],[8.3414316,46.5288693],[8.3435143,46.5312616],[8.3437137,46.5315387],[8.3442104,46.5327778],[8.3446479,46.533512],[8.346456,46.5353921],[8.3467715,46.5356303],[8.3473635,46.5359422],[8.3481046,46.5361934],[8.3485566,46.5362874],[8.3491803,46.5363478],[8.3498114,46.5363347],[8.3513814,46.5361162],[8.3520905,46.536087],[8.3527688,46.5361384],[8.3545669,46.5363947],[8.35575,46.5364235],[8.3566914,46.5363166],[8.3582572,46.5359593],[8.3592836,46.5358326],[8.4201674,46.5318351],[8.4392649,46.5304948],[8.4407075,46.5304543],[8.4418318,46.5304763],[8.4428865,46.530539],[8.4440151,46.5306941],[8.445094,46.5308988],[8.4462494,46.5312033],[8.4473848,46.5315751],[8.4481645,46.531923],[8.4496117,46.5326523],[8.4536254,46.5347867],[8.4868258,46.5526318],[8.4884973,46.5536564],[8.4893256,46.5542161],[8.4900257,46.5547197],[8.4914187,46.5558241],[8.4927266,46.5570344],[8.4937951,46.5581353],[8.4953204,46.5598747],[8.4960338,46.5609075],[8.4967661,46.5621431],[8.4974849,46.5636571],[8.4979875,46.5650085],[8.4982679,46.5659358],[8.5006499,46.574861],[8.5027018,46.5826293],[8.5027903,46.5831039],[8.5029459,46.5841399],[8.5030075,46.5852109],[8.5030235,46.5882568],[8.5029781,46.5894617],[8.5028467,46.5901843],[8.5026348,46.5908847],[8.5023491,46.5915449],[8.5014498,46.593371],[8.5013441,46.5939481],[8.501424,46.5945475],[8.5018454,46.5961535],[8.5020159,46.5966105],[8.5021675,46.5968864],[8.5025482,46.5973927],[8.5048985,46.5999798],[8.5052116,46.6002519],[8.5056755,46.6004951],[8.5063805,46.6006699],[8.5069479,46.6006943],[8.5081491,46.6006148],[8.50871,46.6006451],[8.5093034,46.6007349],[8.5146405,46.6023207],[8.5153176,46.6025791],[8.5166694,46.6031919],[8.5341804,46.6098101],[8.5354503,46.6101833],[8.5358378,46.6104018],[8.5362864,46.6108588],[8.5364742,46.6109983],[8.5375042,46.6114737],[8.5377811,46.611564],[8.5382379,46.6116289],[8.5392221,46.6115552],[8.5396737,46.6115801],[8.540061,46.6116718],[8.5408108,46.6119395],[8.5411749,46.6121027],[8.5413802,46.612244],[8.5418612,46.6127505],[8.5421517,46.6129477],[8.5438912,46.6135921],[8.5441878,46.6137435],[8.5445224,46.614043],[8.5447764,46.61455],[8.5449937,46.6148475],[8.5452638,46.6150586],[8.5456647,46.6152383],[8.5460638,46.6153249],[8.5463682,46.6153447],[8.5475457,46.6151863],[8.5483835,46.6152561],[8.5498564,46.6156754],[8.5510538,46.6158621],[8.5528216,46.616353],[8.5546026,46.6166514],[8.5549922,46.6166551],[8.5553194,46.6166049],[8.5562266,46.6162668],[8.5568409,46.6161669],[8.5572445,46.6161899],[8.5589677,46.6164572],[8.5596934,46.6166127],[8.5626197,46.6177015],[8.5636282,46.6182238],[8.5647574,46.618969],[8.5651718,46.6191977],[8.5668786,46.6198602],[8.5682311,46.6205735],[8.5688484,46.6207648],[8.5707662,46.6211286],[8.5714896,46.6213689],[8.5719343,46.6215979],[8.5729702,46.6222565],[8.5753082,46.6234775],[8.577329,46.624037],[8.5784065,46.62421],[8.578928,46.6243663],[8.5794747,46.6246291],[8.5797758,46.6248488],[8.5799152,46.6250367],[8.5801994,46.6257936],[8.580683,46.6263781],[8.5810196,46.6267023],[8.5864153,46.6302947],[8.5867178,46.6305614],[8.590563,46.6358771],[8.5908878,46.6361697],[8.5913837,46.6364101],[8.5937114,46.6370315],[8.5942617,46.6372417],[8.5954466,46.637567],[8.5957318,46.6376384],[8.5961649,46.6376457],[8.5965164,46.6375528],[8.5968246,46.6373558],[8.5969633,46.6371676],[8.5971753,46.6366284],[8.5973959,46.6363968],[8.5986631,46.6358311],[8.5990757,46.6357743],[8.6002336,46.6357544],[8.602531,46.6359507],[8.6028794,46.6359496],[8.6048713,46.6356697],[8.6051545,46.6355363],[8.6057845,46.6350722],[8.6060788,46.6349631],[8.6064778,46.6349267],[8.6068752,46.634999],[8.6071796,46.635153],[8.6074176,46.6354441],[8.6074417,46.6357627],[8.6073729,46.6359326],[8.6072661,46.6360574],[8.606968,46.6362495],[8.6065657,46.6363563],[8.6050884,46.6363411],[8.6046542,46.6364266],[8.6037187,46.6369964],[8.603001,46.6375424],[8.6018008,46.6380291],[8.6015473,46.6382633],[8.6008702,46.6393337],[8.6008279,46.6394891],[8.6008304,46.6397069],[8.6008961,46.6399139],[8.6009847,46.6400483],[8.6011919,46.6402334],[8.601377,46.6403356],[8.6017799,46.640447],[8.602274,46.6404418],[8.6027087,46.6403029],[8.6030117,46.6400755],[8.6031573,46.6398315],[8.603178,46.6395594],[8.6030247,46.6391213],[8.6030169,46.6389771],[8.6031001,46.6387269],[8.6032507,46.6385472],[8.6034628,46.6384054],[8.603716,46.6383045],[8.6049154,46.6379153],[8.605179,46.637872],[8.6056725,46.6379138],[8.6068339,46.6383725],[8.6079182,46.6384759],[8.6089748,46.6385233],[8.6097548,46.6387762],[8.6100299,46.6388294],[8.6109477,46.6387739],[8.6114372,46.6388407],[8.6125403,46.6392716],[8.6128691,46.6394954],[8.6130115,46.6397419],[8.6130255,46.6399101],[8.6129661,46.6401123],[8.6128404,46.640278],[8.6126281,46.6404382],[8.6123719,46.6405422],[8.6119212,46.6405914],[8.6114456,46.6404922],[8.6107878,46.6401382],[8.6105745,46.6400636],[8.6101111,46.6400291],[8.6097077,46.6401201],[8.6089109,46.6404659],[8.607766,46.6405676],[8.6066444,46.6409488],[8.606348,46.6411117],[8.6062001,46.6412621],[8.6061037,46.6414683],[8.6060929,46.6416464],[8.6061721,46.6418671],[8.6062967,46.6420172],[8.6065304,46.6421734],[8.606765,46.6422586],[8.607076,46.6423067],[8.6114895,46.6421251],[8.6127757,46.642114],[8.6133134,46.6421683],[8.6143744,46.6423617],[8.6155544,46.6423537],[8.6173409,46.6424529],[8.617801,46.6425314],[8.6184943,46.6427381],[8.6195762,46.6429164],[8.6201629,46.6430905],[8.6217087,46.6436746],[8.6229211,46.6442943],[8.6240431,46.6447246],[8.6274293,46.6463793],[8.6277182,46.6466172],[8.6284102,46.6475166],[8.6292176,46.6479217],[8.6307787,46.6490037],[8.63164,46.6495294],[8.6318341,46.6497059],[8.6322673,46.6502656],[8.6329695,46.6507185],[8.633485,46.6512571],[8.6345927,46.6520994],[8.6350554,46.6525763],[8.63545,46.6527784],[8.6361072,46.6529447],[8.6364542,46.6530762],[8.637342,46.6536193],[8.6375016,46.6537969],[8.6380123,46.6546878],[8.6382168,46.6548903],[8.6384844,46.6550412],[8.6399491,46.6555229],[8.6421619,46.6560099],[8.6429285,46.6563493],[8.6443435,46.6568245],[8.645582,46.6569178],[8.647124,46.6571504],[8.6474325,46.6572535],[8.648095,46.657583],[8.6483766,46.6576585],[8.6489105,46.6576714],[8.6497788,46.6574769],[8.6500798,46.6574615],[8.6503963,46.6574974],[8.6508542,46.6576595],[8.6523545,46.6583735],[8.6536592,46.6588012],[8.6558605,46.6596299],[8.6572071,46.6599835],[8.6648072,46.6617015],[8.6653154,46.6617535],[8.6657259,46.6617454],[8.6684509,46.6615225],[8.6690056,46.6614104],[8.6694843,46.6612362],[8.6697394,46.6610872],[8.6699637,46.6608911],[8.670643,46.6600194],[8.6708795,46.659623],[8.6715849,46.6588026],[8.6717985,46.6586741],[8.672071,46.658583],[8.6729945,46.6584577],[8.6734193,46.6583075],[8.6736708,46.6580744],[8.6739382,46.657524],[8.6741967,46.6572655],[8.6744148,46.6571585],[8.6751938,46.656908],[8.6757106,46.6566518],[8.6765666,46.656402],[8.6768483,46.6562692],[8.6771857,46.6559989],[8.6782269,46.6549237],[8.6789162,46.6544165],[8.6796015,46.6540344],[8.6813957,46.6532328],[8.6821696,46.6530173],[8.6840388,46.6528226],[8.6846456,46.652671],[8.6851792,46.6524244],[8.6865112,46.6515454],[8.6869649,46.6513777],[8.6873313,46.6513382],[8.6892297,46.6513103],[8.6898758,46.6513584],[8.6904105,46.6514641],[8.6909989,46.6516658],[8.6960301,46.6539212],[8.6964284,46.6541624],[8.6975127,46.6549906],[8.6993453,46.6558285],[8.7004484,46.6560859],[8.7016825,46.6560195],[8.7025526,46.656076],[8.7033578,46.6560296],[8.70479,46.6560707],[8.7068662,46.6562262],[8.7076145,46.6563262],[8.7080853,46.6564342],[8.7106884,46.6574805],[8.7112617,46.6578256],[8.711859,46.6580725],[8.7124493,46.6583744],[8.7130145,46.658783],[8.7132633,46.6589057],[8.7142077,46.6591573],[8.715949,46.6598154],[8.7162311,46.6599541],[8.7166269,46.660244],[8.716954,46.6604226],[8.7183559,46.6608382],[8.7191789,46.6613025],[8.7206927,46.661841],[8.722347,46.662252],[8.7228468,46.6623426],[8.7236434,46.6623987],[8.7251431,46.6623797],[8.7268433,46.6626426],[8.7283162,46.6628038],[8.7294973,46.6631488],[8.7302169,46.6632512],[8.7308494,46.6634344],[8.7317142,46.6635934],[8.7327871,46.6638599],[8.7339965,46.6640105],[8.7349932,46.6640848],[8.7369164,46.6643707],[8.7389937,46.6644944],[8.7394068,46.6645533],[8.7398225,46.6646656],[8.7423582,46.6656737],[8.743064,46.6660102],[8.7439102,46.6665606],[8.7447216,46.666972],[8.7449237,46.6671159],[8.7450826,46.6673253],[8.7451353,46.6675586],[8.7451083,46.6677153],[8.7449073,46.6680025],[8.7445348,46.6682034],[8.743351,46.6684757],[8.7430908,46.6685862],[8.7428977,46.6687196],[8.7427823,46.6688678],[8.7427135,46.6690387],[8.7427084,46.6692222],[8.7429307,46.6698483],[8.7433603,46.6713714],[8.7434038,46.671704],[8.7435609,46.6722652],[8.7437481,46.6726537],[8.7440975,46.6729885],[8.7451494,46.6735573],[8.7454163,46.6737506],[8.7467362,46.675067],[8.7471988,46.6753967],[8.7477866,46.6757049],[8.7484033,46.6759325],[8.7497634,46.6763011],[8.7513987,46.6770047],[8.7518588,46.6772747],[8.7530445,46.6781066],[8.7534682,46.6782971],[8.7540653,46.6783868],[8.7553523,46.6782472],[8.7563261,46.6782649],[8.7570474,46.6783918],[8.7579405,46.678704],[8.7589959,46.6791948],[8.7593991,46.6794549],[8.759647,46.6797012],[8.7604349,46.6807077],[8.7607323,46.6809716],[8.7617447,46.6815075],[8.7631162,46.6819962],[8.7636137,46.6820305],[8.7641362,46.6819172],[8.7644731,46.6817267],[8.7650568,46.6812814],[8.7655635,46.6811089],[8.7689165,46.6810392],[8.770771,46.6812811],[8.7710529,46.6813497],[8.7715514,46.6815905],[8.772158,46.6821033],[8.7723712,46.6822322],[8.7729948,46.6824348],[8.7735029,46.6825187],[8.7756373,46.682539],[8.7769065,46.6827999],[8.7772983,46.682823],[8.7776851,46.6827868],[8.778477,46.6825818],[8.7788976,46.6825295],[8.780106,46.6826571],[8.7805437,46.6826642],[8.7810588,46.6826083],[8.7819418,46.6824407],[8.7824047,46.6824236],[8.7829833,46.6825369],[8.7840151,46.6829852],[8.7845768,46.6830509],[8.7850689,46.6829624],[8.7859498,46.6825751],[8.7870344,46.6823106],[8.788105,46.6822489],[8.78934,46.6820056],[8.7905176,46.6818483],[8.7920884,46.6817992],[8.7933319,46.6818637],[8.7938259,46.6818449],[8.7942848,46.6817815],[8.7951538,46.6814898],[8.7956892,46.6814034],[8.7960885,46.6814213],[8.7972097,46.6816093],[8.7985688,46.6815983],[8.7989645,46.6815513],[8.7997222,46.6813204],[8.8001607,46.681256],[8.8010847,46.6812496],[8.8018017,46.681199],[8.8024269,46.6812327],[8.8032908,46.6812045],[8.8051759,46.6813946],[8.8079226,46.6820754],[8.808475,46.6821399],[8.809744,46.6820645],[8.8108152,46.6818376],[8.8111646,46.681838],[8.8121913,46.6819416],[8.8139536,46.6817179],[8.8165076,46.6815604],[8.8177747,46.6814252],[8.8199964,46.6816371],[8.8224837,46.6817226],[8.8238903,46.6819283],[8.8255836,46.6819703],[8.8272217,46.6821487],[8.8282549,46.6823841],[8.8300652,46.6829398],[8.8304793,46.6831118],[8.8313075,46.6837923],[8.8321991,46.6841975],[8.8326531,46.6844867],[8.8334336,46.6852109],[8.8335261,46.6853752],[8.8335577,46.6855958],[8.8334679,46.6858502],[8.8332952,46.6860342],[8.8330729,46.6861631],[8.8324714,46.6863943],[8.831882,46.6865279],[8.8302256,46.6866833],[8.8298341,46.6868138],[8.8295598,46.6869842],[8.8282707,46.6884466],[8.8276729,46.6889189],[8.827398,46.6892409],[8.8272263,46.6896769],[8.827225,46.6899483],[8.827333,46.6903307],[8.8274825,46.6905374],[8.8277223,46.6907308],[8.8280806,46.6908967],[8.8283803,46.690968],[8.8288859,46.6910186],[8.8306585,46.6910849],[8.8313126,46.6910179],[8.8321639,46.6908486],[8.832751,46.6908066],[8.8333918,46.6908612],[8.8338312,46.6909735],[8.8341343,46.6910872],[8.8376702,46.6927838],[8.8379598,46.6929771],[8.8381362,46.6932622],[8.838142,46.6935104],[8.8380276,46.6937452],[8.8376789,46.6941825],[8.8376224,46.6944546],[8.8377318,46.6947509],[8.838022,46.6949885],[8.8384395,46.6951251],[8.8391792,46.6952139],[8.8403584,46.6950987],[8.841615,46.6952588],[8.8426973,46.6952542],[8.8430017,46.6953278],[8.843278,46.6954722],[8.8442329,46.6961804],[8.8450688,46.6965972],[8.845472,46.696851],[8.847717,46.6990382],[8.8478886,46.699366],[8.8479651,46.6999635],[8.8479437,46.7001971],[8.8478109,46.700588],[8.8477892,46.7008137],[8.8478672,46.7010382],[8.8480285,46.7012173],[8.8484446,46.7014277],[8.8501538,46.7017561],[8.8503885,46.701849],[8.8506521,46.7020366],[8.8508032,46.7022499],[8.8508574,46.7024964],[8.8508325,46.7026609],[8.8505414,46.703475],[8.8505443,46.7037319],[8.8506098,46.7039027],[8.8507399,46.704082],[8.8509276,46.7042393],[8.8511677,46.7043625],[8.8517109,46.7044867],[8.8533432,46.704495],[8.8542501,46.7046163],[8.8571505,46.7053872],[8.8576096,46.7055441],[8.8582025,46.7058487],[8.8588899,46.7064753],[8.8591969,46.7066874],[8.859558,46.7068362],[8.8599416,46.7069129],[8.8605131,46.7068972],[8.861069,46.7067252],[8.8614142,46.7065106],[8.8619008,46.706122],[8.8622604,46.7059436],[8.8625631,46.70585],[8.862882,46.70579],[8.8633169,46.7057713],[8.8637216,46.7058141],[8.8640622,46.7058981],[8.864623,46.7061738],[8.8653304,46.7067973],[8.8657614,46.7071089],[8.8682306,46.7085082],[8.8684898,46.7087487],[8.8690456,46.7093828],[8.8692328,46.7095343],[8.8695447,46.7097495],[8.8703146,46.7101593],[8.8706998,46.7104328],[8.8709464,46.710707],[8.8714237,46.7113771],[8.8717726,46.711766],[8.872201,46.712087],[8.8724555,46.7122194],[8.8731567,46.712542],[8.8737953,46.7127773],[8.8742942,46.7128755],[8.875411,46.7129349],[8.8758515,46.7130372],[8.8785598,46.7141905],[8.880609,46.7148059],[8.8816599,46.7149429],[8.8826634,46.7152682],[8.8838585,46.7154278],[8.8854097,46.7159769],[8.8860346,46.7160598],[8.8872203,46.7161408],[8.8884528,46.7163138],[8.8889038,46.7164377],[8.8930308,46.718614],[8.8940651,46.7190624],[8.8953933,46.7197585],[8.8957225,46.7200237],[8.8962323,46.720691],[8.8965462,46.7209758],[8.8971097,46.7212908],[8.8977368,46.7214836],[8.8983431,46.7215492],[8.8994893,46.72153],[8.9001904,46.7215648],[8.904174,46.721843],[8.9095189,46.722635],[8.9104425,46.7228685],[8.9119139,46.7231237],[8.9139259,46.7235965],[8.9145394,46.7236426],[8.917732,46.7236936],[8.9185044,46.7237651],[8.9192774,46.7239497],[8.9204643,46.7244245],[8.9210549,46.7245365],[8.9215488,46.7245374],[8.9219538,46.7244773],[8.9232505,46.724019],[8.9239376,46.723922],[8.9259996,46.7239495],[8.9277799,46.7240932],[8.9306995,46.7239744],[8.9326257,46.7240468],[8.93395,46.7243575],[8.9367202,46.7247872],[8.9376083,46.7249727],[8.9394377,46.7254662],[8.9404419,46.7256358],[8.9408797,46.7257631],[8.944595,46.7276108],[8.9471187,46.7286383],[8.9479528,46.7292118],[8.949087,46.7297744],[8.9504603,46.7302023],[8.9516379,46.7308474],[8.9539716,46.7318675],[8.9545735,46.7320678],[8.956706,46.7324428],[8.9572416,46.7324674],[8.9584341,46.7324407],[8.9594949,46.7323005],[8.9628921,46.7314817],[8.9635294,46.7314547],[8.9640752,46.7315459],[8.9648648,46.7318372],[8.9672375,46.7328527],[8.9676424,46.7330932],[8.9685635,46.733919],[8.9691236,46.7342885],[8.9696722,46.7345169],[8.9711138,46.7349901],[8.9718256,46.7353355],[8.9722523,46.7356438],[8.972647,46.7360029],[8.9775717,46.7411192],[8.9780843,46.7415049],[8.9784633,46.7417074],[8.9790346,46.7419423],[8.9796408,46.7421008],[8.9816431,46.7424565],[8.9821247,46.7425012],[8.9824351,46.7424861],[8.9828662,46.7424036],[8.983264,46.7422647],[8.9848243,46.7414694],[8.985151,46.741337],[8.9857457,46.7412092],[8.9863399,46.7412021],[8.9871105,46.7413731],[8.9910521,46.7426908],[8.9917306,46.7428655],[8.9924584,46.7429735],[8.9979033,46.743318],[8.9985422,46.7434887],[9.0021291,46.7449042],[9.0025248,46.7450279],[9.0028296,46.7450815],[9.0060923,46.7453602],[9.00743,46.7456985],[9.0086752,46.7457544],[9.0104008,46.7454348],[9.0134233,46.7452431],[9.0141471,46.7453265],[9.0154862,46.745618],[9.0165862,46.7457675],[9.0175684,46.7458407],[9.019494,46.745889],[9.0203398,46.7459482],[9.0297608,46.7468584],[9.0302679,46.7469516],[9.0307205,46.7470844],[9.0326499,46.7478611],[9.0360304,46.7490679],[9.0365052,46.7493471],[9.036901,46.7496961],[9.0375139,46.7504635],[9.0378326,46.7507784],[9.0383915,46.7511286],[9.0388746,46.7513274],[9.0396872,46.7515079],[9.0413957,46.7517115],[9.044672,46.7525792],[9.0455426,46.7528808],[9.0466935,46.7535304],[9.0473827,46.7538546],[9.0481872,46.7540552],[9.0487463,46.7540862],[9.0494224,46.7540252],[9.0502204,46.7538151],[9.0519979,46.75317],[9.0543409,46.7527159],[9.0546377,46.7526887],[9.0550647,46.7527141],[9.0581333,46.7530164],[9.0586658,46.7531056],[9.0593023,46.7533869],[9.0606883,46.7544197],[9.0610948,46.7545754],[9.0618755,46.7547338],[9.0626161,46.7547739],[9.0649549,46.7546835],[9.0669504,46.7549653],[9.0676855,46.7549861],[9.0685423,46.7548958],[9.0701599,46.7545265],[9.0704327,46.7545217],[9.0731481,46.7550108],[9.0738832,46.7552066],[9.0750022,46.755636],[9.0758368,46.7558358],[9.0770169,46.7560295],[9.0842385,46.7563466],[9.0859822,46.7565755],[9.0872856,46.7568397],[9.0886771,46.7572625],[9.1235273,46.7708512],[9.1241255,46.7710366],[9.1251054,46.7712139],[9.1267191,46.7712774],[9.127517,46.7713711],[9.1295287,46.7718331],[9.1304738,46.7721395],[9.1316233,46.7726783],[9.132703,46.7732685],[9.134723,46.7745733],[9.1351607,46.7747604],[9.1356497,46.7748617],[9.1374354,46.7749521],[9.1426923,46.7751112],[9.1464415,46.7746016],[9.1471948,46.7745954],[9.1497674,46.7751184],[9.1513685,46.7755486],[9.1553147,46.7767045],[9.156104,46.7767908],[9.156426,46.7767805],[9.1570537,46.7766688],[9.1573341,46.7765832],[9.1585802,46.7760395],[9.1588213,46.7759743],[9.1594165,46.7758684],[9.1597875,46.7758501],[9.1609664,46.7759122],[9.1627096,46.77621],[9.1637353,46.776334],[9.1642823,46.7763605],[9.166155,46.7763256],[9.1677795,46.7764113],[9.1681967,46.7764012],[9.1687853,46.7763402],[9.1693673,46.7762205],[9.1749834,46.7746171],[9.1756533,46.7745413],[9.1776636,46.7744609],[9.1782906,46.7743677],[9.1791462,46.7741211],[9.1812193,46.77335],[9.1818755,46.7732032],[9.1825367,46.773141],[9.1833002,46.7731535],[9.1916104,46.7739101],[9.1921364,46.7739033],[9.1924331,46.7738559],[9.1929558,46.7737012],[9.1932955,46.7735126],[9.1942985,46.7727994],[9.1946436,46.7726282],[9.1949978,46.7725016],[9.1957835,46.7724103],[9.1964585,46.772495],[9.1968512,46.7726263],[9.199262,46.7738046],[9.2000921,46.7741292],[9.2010979,46.774442],[9.2039602,46.7751905],[9.2059623,46.7754794],[9.2066251,46.775538],[9.2091749,46.7755167],[9.209908,46.7754418],[9.2125114,46.7750292],[9.2154131,46.7749065],[9.2162144,46.7747518],[9.2186036,46.7739929],[9.2194363,46.7738619],[9.2200662,46.7738472],[9.2207125,46.7739116],[9.2237835,46.7744406],[9.2246467,46.7746761],[9.2250342,46.7748568],[9.2253933,46.7750808],[9.2280169,46.7770418],[9.2283055,46.7773411],[9.2287474,46.7780186],[9.2291151,46.7783167],[9.229439,46.7785058],[9.2296721,46.7786031],[9.2301642,46.7787134],[9.230763,46.7787494],[9.2340484,46.7783813],[9.2346564,46.7784053],[9.2352348,46.7785221],[9.2357174,46.7787196],[9.2360555,46.7789168],[9.2401197,46.7814309],[9.2409722,46.781764],[9.2415597,46.7818721],[9.2420456,46.781904],[9.2441781,46.7817378],[9.2454697,46.7815855],[9.2468745,46.7812903],[9.2474882,46.7812261],[9.2487241,46.7812623],[9.2497596,46.7811652],[9.2507654,46.7808875],[9.2514378,46.7807797],[9.2520507,46.7807843],[9.2532478,46.7809217],[9.2551456,46.7812693],[9.2554799,46.7814217],[9.2562725,46.7819176],[9.2565648,46.782019],[9.257652,46.7822563],[9.2596672,46.7830906],[9.2600212,46.7833022],[9.26019,46.7834637],[9.2603496,46.7837174],[9.2607129,46.7845688],[9.2611366,46.7851125],[9.2615124,46.7854217],[9.2625301,46.7861336],[9.2627824,46.7863983],[9.2632098,46.7870015],[9.2636273,46.7873699],[9.263828,46.7874809],[9.2643361,46.7876581],[9.2670793,46.7884083],[9.2675538,46.7886212],[9.2685759,46.7893147],[9.2690861,46.7895633],[9.2701942,46.7899227],[9.2727279,46.7905335],[9.273254,46.7907556],[9.2742815,46.7913368],[9.2762745,46.7920765],[9.278015,46.7931092],[9.2784342,46.7934316],[9.2794861,46.794595],[9.2799553,46.7952275],[9.2802595,46.7955406],[9.2807356,46.7958202],[9.2818132,46.7961894],[9.2824122,46.7963078],[9.2828553,46.7963373],[9.283761,46.7962544],[9.2845183,46.7960135],[9.2859653,46.7953866],[9.2864936,46.7952391],[9.2869121,46.7951756],[9.2872192,46.7951487],[9.2902227,46.7951979],[9.291139,46.795094],[9.2917373,46.7949556],[9.29381,46.7942483],[9.2961382,46.7938153],[9.2965734,46.7937749],[9.2971091,46.7937916],[9.2980642,46.7939284],[9.2984952,46.7940575],[9.2988297,46.794224],[9.2991489,46.7944692],[9.2996431,46.795015],[9.301235,46.7965088],[9.3015606,46.7968929],[9.3018401,46.7974951],[9.3019322,46.7982155],[9.3019261,46.7984642],[9.3018226,46.7990466],[9.3015719,46.7996968],[9.3006634,46.8014609],[9.3005826,46.8018853],[9.3005282,46.8027882],[9.3005532,46.803149],[9.3006486,46.8034338],[9.3014507,46.8048722],[9.3018708,46.8053026],[9.3022783,46.805552],[9.3026215,46.8056929],[9.3031565,46.8058513],[9.3037945,46.8059759],[9.3054061,46.8060978],[9.306022,46.8062078],[9.3067527,46.8064681],[9.3077625,46.8070457],[9.3083402,46.8072628],[9.3088754,46.8073338],[9.3114126,46.8074459],[9.3121295,46.8073868],[9.3128389,46.8071573],[9.3138689,46.8067369],[9.3148613,46.8060925],[9.315336,46.8058456],[9.3157813,46.805707],[9.3163357,46.8056141],[9.3171507,46.8055818],[9.3185555,46.8056437],[9.3206576,46.8059663],[9.3212975,46.8059915],[9.3217777,46.8059373],[9.3222438,46.8058226],[9.3232133,46.8053815],[9.3238192,46.8052229],[9.3242744,46.8051953],[9.3257879,46.8052159],[9.3261286,46.8051683],[9.3269928,46.8049127],[9.3274917,46.8048135],[9.3279883,46.8047988],[9.3284207,46.8048528],[9.3289167,46.8050052],[9.329309,46.8052177],[9.3307239,46.8064659],[9.3310598,46.806718],[9.3316695,46.8070086],[9.3320735,46.8071215],[9.3328237,46.8072061],[9.3341601,46.8071449],[9.3363964,46.8072518],[9.3382167,46.8071893],[9.3389274,46.8072647],[9.3394916,46.8074284],[9.3399683,46.8076761],[9.3403517,46.8079301],[9.341061,46.8084918],[9.3413173,46.8087481],[9.341504,46.8091043],[9.3416973,46.8097828],[9.3420119,46.8102293],[9.3422335,46.8104201],[9.3429028,46.8108889],[9.3458123,46.8123716],[9.3463585,46.8127059],[9.3504715,46.8159508],[9.3512032,46.8164074],[9.3517953,46.8166446],[9.3533403,46.8171437],[9.3540189,46.8172871],[9.3546752,46.8173405],[9.3552267,46.8173212],[9.3556935,46.8172466],[9.3560453,46.8171384],[9.356986,46.8167261],[9.3575142,46.8165601],[9.3579233,46.8164777],[9.3584002,46.8164354],[9.359262,46.8164553],[9.3597907,46.8165395],[9.360248,46.8166738],[9.3608706,46.8169811],[9.3612132,46.8172173],[9.3635118,46.8192287],[9.3638694,46.8194981],[9.3644676,46.819827],[9.3651569,46.8201242],[9.3660777,46.8204435],[9.3664927,46.8206642],[9.3667791,46.8209423],[9.3674601,46.8219537],[9.3678199,46.8222993],[9.3680588,46.8224712],[9.3687604,46.8228095],[9.3699063,46.8231215],[9.3705904,46.8232316],[9.37203,46.8232257],[9.3728339,46.8233503],[9.3734481,46.8235426],[9.3741954,46.823979],[9.3745595,46.8241363],[9.3748093,46.8241994],[9.3751855,46.8242294],[9.3756853,46.8241511],[9.3760445,46.8239858],[9.3763228,46.8237344],[9.3767403,46.8231866],[9.3770879,46.8229305],[9.3776415,46.8227119],[9.3782188,46.8226306],[9.3786549,46.8226548],[9.3798801,46.8229525],[9.3806524,46.8230569],[9.3812983,46.8230634],[9.3824735,46.8229997],[9.3841536,46.8230708],[9.3859589,46.8232749],[9.387342,46.823293],[9.3886703,46.8232338],[9.3925768,46.8233497],[9.393088,46.823413],[9.3935493,46.8235334],[9.396231,46.8247403],[9.3966667,46.8248837],[9.3971081,46.8249341],[9.3975198,46.8248998],[9.3980485,46.8247307],[9.3983947,46.8245042],[9.3992098,46.8238635],[9.3996748,46.8236486],[9.4008288,46.8234508],[9.4033266,46.8229133],[9.4041113,46.8227834],[9.40581,46.8227696],[9.4085451,46.8229006],[9.4117521,46.8232836],[9.4121956,46.8233962],[9.4126333,46.8235605],[9.4135304,46.8240263],[9.4140317,46.8243331],[9.4143999,46.8246616],[9.414602,46.8249118],[9.4147552,46.8251768],[9.4150836,46.8259297],[9.4152754,46.826228],[9.4156029,46.8265834],[9.4159366,46.826854],[9.4163308,46.8271002],[9.416844,46.8273364],[9.4174006,46.8275147],[9.4184252,46.8276812],[9.4330758,46.8288442],[9.4337724,46.8289262],[9.4348225,46.8291005],[9.4358404,46.8293272],[9.4368518,46.8296194],[9.4395018,46.8305079],[9.4400457,46.8306429],[9.4405735,46.830719],[9.4413831,46.8307418],[9.444893,46.8305304],[9.4459368,46.8305098],[9.4469783,46.8305879],[9.4484773,46.8308758],[9.4494933,46.8311806],[9.4504234,46.8316007],[9.4595687,46.8369606],[9.4611308,46.8376709],[9.462591,46.838156],[9.483626,46.8436075],[9.4858836,46.8441239],[9.4950309,46.8458361],[9.4957014,46.8458968],[9.4964625,46.8459073],[9.4986892,46.8457069],[9.499693,46.8457417],[9.5019997,46.8458868],[9.5033567,46.846092],[9.5048916,46.8464357],[9.5059338,46.8467162],[9.5069493,46.8471344],[9.5113757,46.8495266],[9.5123897,46.8499412],[9.5133727,46.8501723],[9.5206897,46.8514539],[9.5250489,46.8520838],[9.5267217,46.8526676],[9.5291331,46.8539643],[9.5267217,46.8526676],[9.5256621,46.8522323],[9.5251856,46.8520779],[9.5246937,46.8519787],[9.5209945,46.8514686],[9.5136184,46.8501826],[9.5125459,46.8499516],[9.5119846,46.849762],[9.511403,46.8494992],[9.5069824,46.8471103],[9.5059756,46.8466921],[9.5048752,46.8463982],[9.5033727,46.8460641],[9.5023757,46.8458955],[9.4997113,46.8457045],[9.4985128,46.8456837],[9.4964515,46.8458744],[9.4957361,46.8458692],[9.4950477,46.8458056],[9.4859013,46.8440916],[9.4841228,46.8436948],[9.4810253,46.8428344],[9.4791164,46.8423989],[9.462281,46.8380304],[9.4610798,46.8376168],[9.4601197,46.8371938],[9.4593915,46.8368184],[9.4503897,46.8315358],[9.4495167,46.8311501],[9.4479869,46.8307244],[9.446988,46.8305546],[9.4459382,46.8304768],[9.4448896,46.8304975],[9.4413817,46.8307064],[9.4405757,46.8306838],[9.4400595,46.8306095],[9.4395211,46.8304762],[9.436869,46.8295865],[9.4358564,46.8292956],[9.4348234,46.8290637],[9.4337828,46.8288942],[9.4323263,46.8287503],[9.4184344,46.8276487],[9.4175925,46.8275256],[9.4170508,46.8273754],[9.4165219,46.8271547],[9.4159729,46.8268337],[9.4156475,46.826569],[9.4153996,46.8263088],[9.4151327,46.8259274],[9.4147335,46.8250243],[9.414601,46.8248069],[9.4144043,46.8245566],[9.4140548,46.8242469],[9.4135947,46.8239543],[9.412878,46.8235724],[9.4122862,46.8233458],[9.4117079,46.8232154],[9.4079736,46.8227823],[9.4065076,46.8227101],[9.404956,46.8227187],[9.4034665,46.8228102],[9.4003696,46.8233937],[9.4000167,46.8234225],[9.3994696,46.8233902],[9.3973476,46.8231673],[9.3967065,46.8230375],[9.3961874,46.8228107],[9.3959449,46.8226465],[9.3954495,46.8221952],[9.3951409,46.8220081],[9.3945701,46.8218055],[9.3936191,46.8217211],[9.3902583,46.8216755],[9.3898245,46.821729],[9.3887857,46.8220655],[9.3880799,46.822157],[9.3876055,46.8221114],[9.3870443,46.8219538],[9.3865212,46.8216207],[9.386234,46.8212251],[9.3861553,46.8208569],[9.3862015,46.8204459],[9.3863301,46.8202016],[9.3866793,46.8197475],[9.3869543,46.8194438],[9.3872412,46.8192173],[9.3875873,46.8190505],[9.3879475,46.8189456],[9.3884066,46.8188668],[9.389346,46.8188173],[9.3899413,46.8187321],[9.390528,46.8184888],[9.3908842,46.8182184],[9.3910447,46.8180186],[9.3911578,46.8177998],[9.3922577,46.8135536],[9.3924741,46.8130718],[9.3926691,46.8128028],[9.3930817,46.8123789],[9.3939865,46.8118477],[9.3991822,46.8097059],[9.3994696,46.8095121],[9.3996888,46.8092511],[9.3997837,46.8090358],[9.3997879,46.8086159],[9.39905,46.8045369],[9.3990122,46.8040754],[9.3990366,46.8036314],[9.3993328,46.8023149],[9.399485,46.8012208],[9.3994743,46.8008796],[9.3992416,46.7992711],[9.3992037,46.7987174],[9.3992549,46.798042],[9.3994037,46.7976486],[9.3996671,46.7972734],[9.4000655,46.7969017],[9.4006217,46.7965601],[9.4019578,46.7959485],[9.4022734,46.795738],[9.4027004,46.7953788],[9.4030861,46.7948931],[9.4033101,46.7943746],[9.4033611,46.7941392],[9.4033787,46.7938852],[9.4032768,46.792757],[9.4032948,46.7924185],[9.4033539,46.7922087],[9.4036168,46.7917479],[9.4038348,46.7914836],[9.405226,46.7900835],[9.4056004,46.7895492],[9.4058267,46.7890753],[9.4058564,46.7888479],[9.4056643,46.78654],[9.4057455,46.7859692],[9.4058296,46.7857259],[9.4060931,46.7852186],[9.4063955,46.7848378],[9.4069246,46.7843663],[9.4075619,46.7839287],[9.4078671,46.7836],[9.4079824,46.7834004],[9.4085493,46.7818987],[9.4091721,46.7792093],[9.4092977,46.7789188],[9.4094015,46.7787839],[9.4097998,46.7784447],[9.4108327,46.7779791],[9.4111735,46.7777799],[9.4119429,46.7770435],[9.4140884,46.7755686],[9.4154977,46.7750341],[9.4177562,46.7740026],[9.4180378,46.7738079],[9.4181505,46.773683],[9.4185367,46.7730106],[9.4192019,46.7721142],[9.419395,46.7715483],[9.4194622,46.7711067],[9.4196238,46.7692336],[9.4196309,46.7669133],[9.4196645,46.7664653],[9.4199201,46.7654514],[9.4201314,46.7649142],[9.4223773,46.7605511],[9.4299233,46.7463906],[9.4309726,46.7443508],[9.4338782,46.7384266],[9.4339653,46.7381783],[9.4340167,46.7379221],[9.4339263,46.7373669],[9.4320959,46.7329578],[9.4311524,46.7308295],[9.4289435,46.7254483],[9.4288709,46.7251478],[9.4288029,46.724333],[9.4289388,46.723588],[9.4290933,46.7231819],[9.429418,46.722602],[9.4298167,46.7220985],[9.4301466,46.7217759],[9.4309908,46.7211351],[9.4341289,46.7192252],[9.4350964,46.7185513],[9.4402532,46.7140228],[9.4406051,46.7136419],[9.4407122,46.7134147],[9.4407377,46.7130136],[9.4406385,46.712727],[9.4405169,46.7125525],[9.4378641,46.7101483],[9.4376977,46.7099401],[9.4375435,46.7096576],[9.437457,46.7093104],[9.4374604,46.7090395],[9.4376031,46.708567],[9.4393498,46.7050757],[9.4395553,46.704466],[9.4397292,46.7036264],[9.4399191,46.7010252],[9.439988,46.7006162],[9.4404771,46.6991286],[9.441064,46.6977922],[9.4412395,46.6971834],[9.4416063,46.6962115],[9.4418991,46.6955695],[9.4421103,46.6952765],[9.4423421,46.6950768],[9.4427007,46.6948786],[9.4444505,46.6943604],[9.4451123,46.6942672],[9.4458018,46.6943578],[9.4462449,46.6945381],[9.4471529,46.6951064],[9.4496263,46.6962081],[9.4511012,46.6970685],[9.4528498,46.6976661],[9.4541742,46.6982849],[9.4564947,46.6990727],[9.4570359,46.6993515],[9.4579175,46.6999003],[9.4591884,46.7005492],[9.4599083,46.7008837],[9.4606127,46.7011546],[9.4616624,46.7014192],[9.4631895,46.7016304],[9.464108,46.7018291],[9.464916,46.7019538],[9.4656618,46.7020015],[9.4665559,46.702147],[9.467454,46.7022358],[9.4682939,46.7022744],[9.4691095,46.7024138],[9.4697061,46.7023906],[9.4701657,46.7022633],[9.4705093,46.7020463],[9.470708,46.7018814],[9.4708995,46.7015923],[9.4710113,46.7013391],[9.4710356,46.7008397],[9.4710035,46.7005562],[9.4707352,46.6998292],[9.4706735,46.6994834],[9.4707184,46.6991372],[9.4707859,46.6989792],[9.4722156,46.6972644],[9.472383,46.69713],[9.4727387,46.6969421],[9.4731914,46.696827],[9.474315,46.6967699],[9.4747382,46.6966849],[9.48164,46.6944207],[9.4820158,46.6942578],[9.4822395,46.6941098],[9.4836801,46.6930428],[9.4845517,46.6926789],[9.4855015,46.6924715],[9.4860692,46.6924224],[9.4869575,46.6924954],[9.4900434,46.6931074],[9.4914363,46.6932822],[9.4918626,46.6933129],[9.4929937,46.6932921],[9.4940551,46.6931812],[9.4944896,46.6929932],[9.4947162,46.6928171],[9.4951218,46.6922186],[9.4954196,46.6918948],[9.4957277,46.691718],[9.4961265,46.6916034],[9.4970138,46.6914458],[9.4976192,46.6911727],[9.4985915,46.6903333],[9.5010339,46.6880891],[9.5014934,46.6877701],[9.5018518,46.6875962],[9.5023091,46.6874397],[9.5029467,46.6873126],[9.5032994,46.6872747],[9.5044351,46.6873158],[9.5048442,46.6872984],[9.5052001,46.687236],[9.5057266,46.6870223],[9.5059613,46.6868699],[9.5064533,46.6864179],[9.5067237,46.6862535],[9.5070279,46.6861343],[9.5073631,46.6860628],[9.5076672,46.6860366],[9.5080093,46.6860654],[9.5090692,46.686378],[9.5093776,46.6864313],[9.5098982,46.6864306],[9.5101574,46.6863784],[9.5105887,46.686199],[9.5108177,46.6860542],[9.5120364,46.6851438],[9.5127169,46.6848505],[9.5241001,46.6814042],[9.524537,46.6812518],[9.5254351,46.6808455],[9.5264835,46.6805798],[9.5267489,46.6804667],[9.5270927,46.6802518],[9.5275157,46.6799145],[9.5280025,46.6794384],[9.5282374,46.6792705],[9.5285822,46.6791202],[9.5288731,46.679046],[9.5293983,46.6790301],[9.5298503,46.6791151],[9.5312649,46.6795633],[9.5317341,46.6796286],[9.5322691,46.6796339],[9.5328281,46.6795565],[9.5340559,46.6791927],[9.5355806,46.6790273],[9.5373759,46.6785931],[9.5403981,46.6782815],[9.5410269,46.6781485],[9.5415624,46.6779206],[9.5419525,46.6776621],[9.5474719,46.6732917],[9.5478399,46.6731148],[9.548128,46.6730396],[9.5486074,46.6730026],[9.5496825,46.6730062],[9.5500644,46.6729204],[9.5503756,46.6727823],[9.5514552,46.6721709],[9.5522557,46.6716199],[9.5525088,46.6712876],[9.5526982,46.6709181],[9.5529678,46.6705248],[9.5535386,46.669984],[9.5544231,46.6692606],[9.5561017,46.6686349],[9.5579465,46.6681637],[9.5582525,46.6680459],[9.5587144,46.6677998],[9.5604079,46.6666711],[9.560915,46.6664113],[9.5613567,46.6663077],[9.5623738,46.6661731],[9.5627233,46.6661761],[9.5630724,46.6662333],[9.5636306,46.6664348],[9.564011,46.6666274],[9.5649884,46.6675066],[9.5654332,46.6677448],[9.5659065,46.6678796],[9.5661996,46.6679154],[9.5665478,46.6679186],[9.566963,46.6678644],[9.5686557,46.6674809],[9.5689433,46.6673825],[9.5699063,46.6668532],[9.57018,46.6666746],[9.5704268,46.6664224],[9.5705261,46.6662612],[9.5708683,46.6653303],[9.5710749,46.6650119],[9.5713493,46.6647367],[9.5717421,46.6645053],[9.5737125,46.6636876],[9.5747241,46.6631957],[9.5750429,46.6631243],[9.5754404,46.6631058],[9.576791,46.6633378],[9.5772552,46.6633203],[9.5776375,46.6632273],[9.5779125,46.663103],[9.5789767,46.6623797],[9.5793009,46.6622579],[9.5797073,46.6622073],[9.5801178,46.6622505],[9.5803928,46.6623389],[9.5813532,46.6628167],[9.581694,46.6629391],[9.5821648,46.6630073],[9.5825337,46.6629925],[9.5838818,46.6627044],[9.5846491,46.6624549],[9.5858103,46.6622127],[9.5861612,46.6620107],[9.5868826,46.6614245],[9.5873046,46.6612173],[9.5875451,46.6611433],[9.5881078,46.6610511],[9.5892843,46.6610341],[9.5907413,46.660832],[9.5944346,46.6607945],[9.5948326,46.6608138],[9.5962714,46.6610009],[9.5981213,46.6609679],[9.5990215,46.6611139],[9.6012653,46.661707],[9.6026399,46.6623741],[9.6032869,46.6628133],[9.6036576,46.6632945],[9.6039048,46.6638313],[9.6040632,46.6647243],[9.604212,46.6650049],[9.6043372,46.6651432],[9.6049068,46.6655255],[9.6056199,46.6661866],[9.606026,46.6663969],[9.6064503,46.666486],[9.6070348,46.666473],[9.6097725,46.6661253],[9.6104206,46.6660931],[9.6109088,46.666184],[9.612522,46.6668589],[9.6131335,46.6669966],[9.6155309,46.6670859],[9.6160512,46.6671614],[9.6174264,46.6674546],[9.6183156,46.6674838],[9.6191041,46.6673718],[9.6218332,46.6667869],[9.6224378,46.6665268],[9.6237232,46.6657817],[9.6243766,46.6655129],[9.6250017,46.6653274],[9.6261662,46.6651302],[9.6274472,46.6651077],[9.6288002,46.6652683],[9.6292967,46.6653849],[9.6301925,46.6656748],[9.6310025,46.6660559],[9.6325877,46.667108],[9.6330857,46.6673353],[9.6353383,46.6679049],[9.6369263,46.6682254],[9.6385666,46.6687893],[9.6390203,46.6689062],[9.6404427,46.6691268],[9.6418632,46.6692204],[9.6423355,46.6691736],[9.6444624,46.668789],[9.6447058,46.6687741],[9.6450949,46.6687981],[9.6460514,46.6689975],[9.646597,46.6691778],[9.647148,46.6694615],[9.647538,46.6697519],[9.6486439,46.6707981],[9.6489297,46.6709674],[9.6492193,46.6710789],[9.6498749,46.6711764],[9.6520027,46.6711547],[9.6526843,46.6711948],[9.653481,46.6713756],[9.6546628,46.6718151],[9.6550852,46.6720358],[9.6556853,46.6724535],[9.657292,46.6738428],[9.6577329,46.67416],[9.6591847,46.674849],[9.6598115,46.6752093],[9.6601287,46.6753293],[9.6612682,46.6755592],[9.6625266,46.6757477],[9.6629449,46.6758787],[9.6633148,46.6761109],[9.6638819,46.6767108],[9.664836,46.6774657],[9.6660535,46.6780857],[9.6671626,46.6785574],[9.667696,46.6787364],[9.6690163,46.6788248],[9.669604,46.6789911],[9.6699624,46.67923],[9.6705509,46.6798802],[9.6708009,46.6800373],[9.6710999,46.6801562],[9.6714538,46.6802294],[9.6723808,46.6802714],[9.6728438,46.6803402],[9.6742054,46.6807504],[9.6752234,46.6809938],[9.675729,46.6809992],[9.6762138,46.6808676],[9.6765934,46.6806107],[9.6768065,46.6802701],[9.6768199,46.6799453],[9.6767094,46.6797085],[9.6765324,46.6795328],[9.6761318,46.6792583],[9.6758156,46.6788389],[9.675653,46.6783574],[9.6756048,46.6779889],[9.6756613,46.6777491],[9.6760299,46.6770089],[9.6761243,46.6767142],[9.6761108,46.676431],[9.6759417,46.6758536],[9.6759432,46.6756398],[9.6760062,46.6754223],[9.6764188,46.6747078],[9.6765959,46.674484],[9.6769029,46.6742489],[9.6773621,46.6740811],[9.6779306,46.6740165],[9.6782576,46.6740458],[9.6785762,46.6741248],[9.6789687,46.6743119],[9.6797635,46.6748437],[9.6800467,46.6749533],[9.680433,46.6750362],[9.6857382,46.6756356],[9.6863279,46.6755915],[9.6870586,46.6753843],[9.6874553,46.6753205],[9.6879042,46.675333],[9.6889104,46.675518],[9.6893591,46.6755056],[9.6899236,46.675346],[9.6901743,46.6752019],[9.6903777,46.6750243],[9.6908149,46.6743744],[9.6914352,46.6736654],[9.6918375,46.6729557],[9.6920876,46.6727],[9.6923694,46.6725337],[9.6928043,46.6723901],[9.6932168,46.6723474],[9.6935244,46.6723656],[9.6940734,46.6724996],[9.6944364,46.6727103],[9.6947399,46.6730667],[9.6948418,46.6733964],[9.6948168,46.675555],[9.6947764,46.6758018],[9.6946581,46.6760684],[9.6944956,46.6762725],[9.6941476,46.6765144],[9.6938582,46.676624],[9.6935032,46.6766903],[9.6930775,46.6766872],[9.6923989,46.6765289],[9.6921059,46.6763691],[9.6917723,46.6760222],[9.6916638,46.675699],[9.6916997,46.6753479],[9.6917644,46.6751962],[9.6918956,46.675038],[9.6925561,46.6745287],[9.6926905,46.6743852],[9.6930307,46.6736742],[9.6931695,46.6734939],[9.6934204,46.6732955],[9.6941815,46.6728621],[9.6943585,46.6727024],[9.6945026,46.6725005],[9.695107,46.6710069],[9.6952009,46.6708568],[9.6957535,46.6702645],[9.6958499,46.6700934],[9.6959051,46.6698217],[9.6958569,46.6690003],[9.6959216,46.6687656],[9.6962825,46.6681193],[9.6964539,46.6675395],[9.6970591,46.6664745],[9.6975514,46.6652727],[9.6977981,46.6649304],[9.6980633,46.6647185],[9.6992683,46.6640043],[9.7001975,46.6633157],[9.701554,46.6622897],[9.7025162,46.661348],[9.7028618,46.6611036],[9.7031082,46.6609809],[9.7051339,46.6604221],[9.7076007,46.6595187],[9.710513,46.658512],[9.7116103,46.6581343],[9.7126524,46.6578334],[9.7130267,46.6576843],[9.7137222,46.6572485],[9.7140336,46.6571312],[9.7156696,46.6567912],[9.7159894,46.6566842],[9.7167955,46.6562723],[9.7181241,46.6560014],[9.7183733,46.6558919],[9.718629,46.6557212],[9.7192307,46.655128],[9.7194999,46.6549807],[9.7207767,46.6544812],[9.7212579,46.6541836],[9.7216079,46.6537927],[9.7219649,46.6531893],[9.7225436,46.6525916],[9.7226664,46.6522711],[9.7226869,46.651732],[9.7227546,46.6513812],[9.7236251,46.6495663],[9.7237885,46.6493186],[9.7239514,46.6491637],[9.7248952,46.6486432],[9.7260172,46.6479202],[9.7269364,46.6474973],[9.7281803,46.6470497],[9.7297904,46.6463101],[9.7313307,46.6456628],[9.7317356,46.6453651],[9.7322697,46.6446676],[9.7327253,46.6442878],[9.733532,46.6437833],[9.7347008,46.6431904],[9.7350595,46.6429114],[9.7352396,46.6426128],[9.7352858,46.6423944],[9.7352761,46.64223],[9.7351378,46.6418907],[9.7346585,46.6411922],[9.7345951,46.6409265],[9.7346553,46.6405823],[9.7369625,46.6373199],[9.7372269,46.6370776],[9.7375633,46.6368782],[9.7384217,46.6365132],[9.7401633,46.6362844],[9.7406968,46.6360659],[9.7409557,46.635873],[9.7411192,46.6356924],[9.7413038,46.6354144],[9.7414238,46.6350566],[9.7415731,46.634766],[9.741856,46.6344447],[9.7422444,46.6341993],[9.7434923,46.6336789],[9.7450173,46.6329634],[9.7452949,46.6327999],[9.745523,46.6326169],[9.7474805,46.6306587],[9.7477595,46.6304986],[9.748053,46.6303938],[9.749716,46.6299948],[9.7500129,46.6298489],[9.7503027,46.6296257],[9.7504599,46.6294342],[9.7505931,46.6291657],[9.7507609,46.6281827],[9.7509189,46.6278291],[9.7512584,46.627518],[9.7524196,46.6268534],[9.7526692,46.6266072],[9.7528169,46.6262991],[9.7528358,46.6260425],[9.7527571,46.6257687],[9.752616,46.6255606],[9.7519941,46.6249189],[9.7518578,46.6246828],[9.7518053,46.6244435],[9.7518764,46.6240925],[9.7522752,46.6235234],[9.7524055,46.6232127],[9.7524212,46.6230613],[9.7522744,46.6214],[9.7522961,46.6210467],[9.7524658,46.6207184],[9.7527476,46.6204697],[9.7530623,46.6203082],[9.75342,46.62021],[9.7539342,46.6201661],[9.7542249,46.6201919],[9.7545352,46.6202615],[9.7549461,46.6204652],[9.7551699,46.6206585],[9.7553797,46.6210513],[9.7553933,46.6213544],[9.7553342,46.6215698],[9.7552284,46.6217453],[9.7549405,46.6220156],[9.7541319,46.6223928],[9.753959,46.6225152],[9.7537646,46.6227091],[9.7536279,46.6229232],[9.7535807,46.6232932],[9.7536256,46.6234901],[9.7537854,46.6237665],[9.7541857,46.6240819],[9.7547127,46.6242689],[9.7557823,46.6244525],[9.7560809,46.6245439],[9.7563905,46.624704],[9.7565797,46.6248604],[9.7568083,46.6251993],[9.7568586,46.6256125],[9.7568134,46.6262443],[9.7567411,46.6265305],[9.756579,46.6267722],[9.755652,46.6277909],[9.7554923,46.6280975],[9.7554812,46.6284587],[9.7556359,46.6287947],[9.7559151,46.6290597],[9.7562085,46.6292211],[9.7566144,46.6293416],[9.7570504,46.629379],[9.7575305,46.6293386],[9.7578932,46.6292551],[9.7581637,46.6291427],[9.7585885,46.6288253],[9.758757,46.6284805],[9.7587598,46.6281021],[9.7586702,46.6278896],[9.7585282,46.6277001],[9.7576992,46.6270638],[9.7575433,46.6268498],[9.7574551,46.62658],[9.7574716,46.6262891],[9.7576916,46.6256351],[9.7577569,46.6245583],[9.7579594,46.6238634],[9.7579398,46.6235924],[9.7578647,46.6233903],[9.757602,46.6230666],[9.7573947,46.6229174],[9.7552394,46.6216451],[9.7550574,46.6214531],[9.754922,46.6211877],[9.7548875,46.620954],[9.754914,46.6207581],[9.75512,46.6203962],[9.7554592,46.6201348],[9.7566321,46.6197238],[9.7587139,46.6187102],[9.7591196,46.618597],[9.7601752,46.6185145],[9.7605542,46.6184332],[9.7613796,46.6181694],[9.7618677,46.6178575],[9.7621154,46.6174967],[9.7621859,46.6171336],[9.7622625,46.6152382],[9.7622433,46.6149409],[9.7621394,46.6145689],[9.7619705,46.6142204],[9.7617527,46.6139125],[9.7614461,46.6135957],[9.7606158,46.6128718],[9.7604199,46.6125677],[9.7603822,46.6124117],[9.7604067,46.6121306],[9.7606581,46.6113926],[9.7607183,46.6110611],[9.7606679,46.6107607],[9.7605375,46.6105038],[9.7594038,46.6093608],[9.7571716,46.6060411],[9.7564729,46.6054072],[9.7563015,46.6051807],[9.756179,46.6048164],[9.7560945,46.604232],[9.756051,46.6034971],[9.7559268,46.6032044],[9.7557195,46.6029457],[9.7554387,46.6027316],[9.7551517,46.6025827],[9.7534829,46.601969],[9.7530893,46.6018587],[9.7524189,46.6018353],[9.7518061,46.6019519],[9.7513803,46.6021083],[9.7509121,46.6024378],[9.7506507,46.6028212],[9.7505674,46.6031131],[9.7505705,46.6033375],[9.750691,46.6036966],[9.7509356,46.6040178],[9.7514712,46.6043972],[9.7518857,46.6045399],[9.7524803,46.6046213],[9.7528072,46.604584],[9.753385,46.604421],[9.7537178,46.604204],[9.7539614,46.6039058],[9.7540512,46.603633],[9.7540261,46.6033137],[9.7537276,46.6027295],[9.7536628,46.6024128],[9.7537274,46.6017486],[9.7538015,46.6015176],[9.7539925,46.6011666],[9.7544226,46.6006694],[9.7554826,46.599818],[9.7559718,46.5996338],[9.7574677,46.5993635],[9.7577839,46.5992202],[9.7580656,46.5990071],[9.7582914,46.5986631],[9.7583392,46.5983692],[9.7583069,46.5981895],[9.7579754,46.5974104],[9.7579721,46.5970481],[9.758057,46.5968295],[9.7582103,46.5966313],[9.7584464,46.5964362],[9.7586526,46.5963355],[9.7590416,46.5962054],[9.7598421,46.5961551],[9.7604951,46.5962199],[9.7612756,46.5964236],[9.7616789,46.5966673],[9.7619186,46.5970065],[9.7619781,46.5971822],[9.7619929,46.5975038],[9.7618369,46.5978621],[9.7616571,46.5980404],[9.7612702,46.598281],[9.7605893,46.5984405],[9.7600141,46.5984045],[9.759407,46.5981617],[9.7591464,46.5979551],[9.7589791,46.5977156],[9.7589024,46.5975105],[9.7587684,46.5967991],[9.7585736,46.596512],[9.7581889,46.5962387],[9.757178,46.5957313],[9.7570068,46.5956031],[9.7568269,46.5953933],[9.7566939,46.5950309],[9.7567082,46.5947388],[9.7567664,46.5945698],[9.7569078,46.5943647],[9.7570732,46.5942251],[9.757374,46.5940809],[9.7576729,46.5939938],[9.7583,46.5938826],[9.7587946,46.5938528],[9.7590788,46.5938839],[9.759462,46.5939873],[9.7599906,46.5942718],[9.7602585,46.5945168],[9.7606498,46.5951294],[9.7608428,46.5953325],[9.762644,46.5963985],[9.7629284,46.5967175],[9.7630241,46.5970224],[9.7630301,46.5972039],[9.762926,46.5975011],[9.7626943,46.5977712],[9.7622668,46.5980316],[9.7620272,46.5981204],[9.7614879,46.5981932],[9.7611142,46.5981641],[9.7606162,46.5980269],[9.7602704,46.5978378],[9.7600529,46.597616],[9.7598643,46.5972035],[9.7597923,46.5967896],[9.7598639,46.5964562],[9.7600828,46.5961578],[9.7604415,46.5959112],[9.7612467,46.5955294],[9.7615351,46.5952416],[9.7616378,46.5949272],[9.7616621,46.5935661],[9.7617004,46.5932947],[9.7619107,46.5929664],[9.7622229,46.5927528],[9.7627132,46.5926098],[9.7638537,46.592468],[9.7642173,46.5923858],[9.7645929,46.5922194],[9.7655985,46.591593],[9.7661297,46.5914245],[9.7720772,46.5910837],[9.7726182,46.5910103],[9.7730158,46.5908841],[9.773367,46.5907047],[9.7736574,46.5904714],[9.7746897,46.5893507],[9.7749998,46.5891176],[9.7754546,46.5888697],[9.7776347,46.5880098],[9.7803158,46.5871673],[9.7820722,46.5864727],[9.8421949,46.5614853],[9.8431469,46.5610097],[9.8440258,46.5604957],[9.8448654,46.5600711],[9.8480754,46.5587549],[9.8493398,46.5584041],[9.8548069,46.5570637],[9.8599584,46.5553361],[9.8606556,46.5552665],[9.8647344,46.5551251],[9.8653072,46.5550545],[9.8658172,46.5549394],[9.866531,46.5546744],[9.8689834,46.5534172],[9.8705898,46.552766],[9.8717185,46.5523529],[9.8738301,46.5517971],[9.8745266,46.5517829],[9.8758265,46.5520317],[9.8769107,46.5521045],[9.8806542,46.5518541],[9.8875793,46.5518154],[9.8879745,46.5517907],[9.888391,46.5516853],[9.8886307,46.5515567],[9.888847,46.5513658],[9.8889567,46.5512014],[9.8890167,46.5510169],[9.8889753,46.5506571],[9.887487,46.5478401],[9.8869492,46.5469899],[9.8864812,46.5464674],[9.8791417,46.5391607],[9.875403,46.5356537],[9.8745735,46.5348185],[9.8716567,46.5320411],[9.8710199,46.5314743],[9.870288,46.5310028],[9.8687117,46.5302588],[9.8680269,46.5300255],[9.8669049,46.5297455],[9.8664142,46.5295634],[9.8659465,46.5292821],[9.865532,46.5288572],[9.865248,46.5282907],[9.865034,46.5277342],[9.8633582,46.523995],[9.8615548,46.521096],[9.8605527,46.5197685],[9.8603286,46.5193888],[9.8602267,46.5190264],[9.8602265,46.5187797],[9.860485,46.5169617],[9.860503,46.5164787],[9.8604127,46.5160709],[9.8600434,46.5154195],[9.859819,46.5151529],[9.8594296,46.5148119],[9.857572,46.5133735],[9.8571537,46.5131241],[9.8568657,46.5130162],[9.8564083,46.5129365],[9.8551626,46.5129985],[9.8545693,46.5129718],[9.8539343,46.5128139],[9.8534604,46.5125803],[9.8532152,46.5124017],[9.8529312,46.5120869],[9.8524374,46.5110585],[9.8522667,46.5108031],[9.8518897,46.5104851],[9.8508484,46.509859],[9.85043,46.5095541],[9.8500033,46.5091066],[9.8497488,46.5086789],[9.8495871,46.5081643],[9.8495597,46.5079346],[9.8496008,46.5074715],[9.8497359,46.5070516],[9.8498292,46.5068948],[9.8501452,46.5065571],[9.8505877,46.506282],[9.8509855,46.5061432],[9.8514066,46.5060678],[9.8523641,46.5059964],[9.8529236,46.505862],[9.8534142,46.5056171],[9.8538254,46.5052398],[9.8539649,46.5049985],[9.8540409,46.504741],[9.8540548,46.5041953],[9.8539837,46.5038776],[9.8537134,46.5034078],[9.8534688,46.5031145],[9.8519967,46.5016536],[9.8511193,46.5008384],[9.8454594,46.4975969]]}}]}