{"type":"FeatureCollection","metadata":{"name":"GoldenPass Express ? Montreux to Interlaken Ost","source":"OpenStreetMap railway ways along the Montreux?Zweisimmen, Zweisimmen?Spiez, and Spiez?Interlaken Ost sections","sourceUrl":"https://www.openstreetmap.org/copyright","sourceWayIds":[1112528291,28566932,28566931,677497302,27921757,677497301,305916195,27921755,532529047,98167762,532526743,532526744,532524796,98167719,27921760,1493809260,1493809261,532529615,532529614,27921758,892825072,892825073,275116223,1362301446,1362301445,275116230,677497303,35401979,677497306,677497304,27921763,677497305,701169551,278383414,701169549,701169550,701169552,224907792,1040019980,27921764,28567027,28567025,701169554,278383407,701169555,278383409,278383410,278383411,278383412,278383408,278383413,28567031,311016476,532531377,19838862,129299930,532518890,129299942,532518894,1305560399,230607800,532518885,230607797,130544310,130544314,129299939,1039911880,129299936,230608768,129299938,1454360026,230608862,27922219,1039908116,129299943,129299940,129299937,27922222,168816144,717049039,532520954,129299941,130544328,130544313,1011874460,130544311,32342282,230609543,1011488122,1011488121,130544309,230610227,513321547,513321548,230610228,27922228,27922227,230610395,230610394,636620332,636090007,959678412,636620333,935913199,935913200,935913215,935913216,27922695,27922694,479774971,479774969,479774970,479774977,479774976,27922697,27922696,227820871,227820868,27922699,27922698,27922701,675509484,230346926,675509488,675503688,675503689,230345919,230345923,674280658,230345920,37849301,37849299,674285046,27922703,27922702,310880453,310880452,230593514,674285032,674285041,230593513,674285027,384491621,384491618,436197437,674288589,674081182,1305560397,674081183,674089130,54064720,54064729,230499727,230499728,655539831,230765300,27922965,674089127,27922964,655317476,290974224,27922967,674089126,653784996,655293895,240054517,653784997,27922966,230499997,230499998,674288588,674288587,200986826,24289106,548732851,548740275,400546215,400546218,1305560400,22633845,24289185,548732842,548732840,400547771,201325764,651518449,651518450,24318918,24318917,97829577,97829574,201325765,27939559,27939556,201325763,201327689,201327696,383309882,582031588,582031592,383309894,97831200,1426252438,1426252439,97831209,201631608,97553949,1463180844,1463180841,653529599,97553948,201638010,1426252445,1426252446,253257801,253257802,653190829,653190830,208192403,554560914,554560915,208192402,201638017,201638016,208192401,27939699,27939698,97821517,97821526,948425453,948425454,201639893,201639891,27939701,27939700,201639894,201641623,201641626,201644953,97557714,97557696,168967856,951632391,951632392,168967857,201644950,201644954,1157456510,201644955,27940121,27940119,297757053,297757055,243045381,243045382,546185439,23516485,19036048,204042834,254061435,254061434,204042837,27940122,729686051,27940124,256333095,256333093,27940126,729572088,729572087,637815545,637815557,40335011,637815547,27940129,27940130,637815544,27940131,27940132,520462475,520462474,173897610,651573020,651573021,651573019,520462478,173902646,520462878,173908923,1305560402,520462469,173908928,72666863,426418622,191928687,35875402,35875404,1081621453,1081621454,33288649,33288647,23515713,23515703,967606946,651901249,24758378,24758377,191930395,24758380,426418621,24758379,1416930952,1416930956,35414494,967617206,967617205,35414493,967535374,967535375,967617213,967617214,51460434,193120799,193120805,193120809,652411019,652411020,193196599,193196597,1015986919,1015986918,441319467,24759384,24759383,208880195,306666719,208878628,306677338,306666709,306666710,208878642,535635475,208878623,306677339,147013229,27550971,25376248,441319460,193190933],"attribution":"? OpenStreetMap contributors","license":"ODbL 1.0","geometryVersion":"2026-08-11","preparationNote":"Prepared from MOB narrow-gauge and BLS standard-gauge railway ways, joined at the GoldenPass Express gauge-change facility in Zweisimmen."},"features":[{"type":"Feature","properties":{"name":"GoldenPass Express","from":"Montreux","to":"Interlaken Ost","distanceKm":115.34,"source":"OpenStreetMap contributors"},"geometry":{"type":"LineString","coordinates":[[6.9108208,46.4360985],[6.9116611,46.4355012],[6.9118787,46.4353083],[6.9121431,46.4350116],[6.9125499,46.434441],[6.9127502,46.4342968],[6.9128719,46.4342479],[6.9131329,46.4341895],[6.9134684,46.4342034],[6.9136174,46.4342508],[6.9137259,46.4343078],[6.9137952,46.4343614],[6.9139036,46.434493],[6.9139502,46.4346143],[6.9139544,46.4346871],[6.9139329,46.4347782],[6.9138765,46.4348903],[6.9132253,46.4355941],[6.9114634,46.437388],[6.9113284,46.4375492],[6.9112639,46.4376637],[6.9112137,46.4378309],[6.9112169,46.4380237],[6.9113035,46.4384364],[6.911292,46.4385829],[6.9112291,46.4387597],[6.9110746,46.4389771],[6.9107223,46.4393698],[6.9101891,46.4397926],[6.9098085,46.4402612],[6.9096351,46.4403916],[6.9094954,46.4404668],[6.9093313,46.4405343],[6.9088678,46.4406674],[6.9086464,46.4407601],[6.9058434,46.4421243],[6.9054511,46.4423671],[6.9048632,46.4428114],[6.9045899,46.4430999],[6.9037339,46.4438231],[6.9035978,46.4439639],[6.9033293,46.4443242],[6.9028832,46.4448378],[6.9027457,46.444938],[6.902321,46.4451772],[6.9021218,46.4453355],[6.9013903,46.4461221],[6.9012074,46.4463554],[6.901142,46.446479],[6.9011024,46.4466051],[6.9010862,46.4467701],[6.9010974,46.4468876],[6.9015187,46.448165],[6.9015434,46.4482854],[6.9015478,46.4484774],[6.9015136,46.4486784],[6.9013974,46.4491172],[6.9013505,46.449396],[6.9013374,46.4496533],[6.9013569,46.4501551],[6.9013256,46.450413],[6.9012513,46.4506269],[6.9010273,46.4510526],[6.9007986,46.4521813],[6.9003999,46.4531973],[6.9003495,46.4533935],[6.9003494,46.4535502],[6.9004022,46.4537093],[6.9005096,46.4538585],[6.9006996,46.4540072],[6.9008979,46.4540994],[6.901058,46.4541445],[6.9013002,46.4541754],[6.9014779,46.4541708],[6.9016254,46.4541508],[6.9018372,46.4540921],[6.9020155,46.4540064],[6.9021607,46.4538977],[6.9023245,46.4536885],[6.9024024,46.4534579],[6.9024057,46.4533235],[6.9023176,46.4525741],[6.9023492,46.4523514],[6.9024309,46.4521789],[6.9028095,46.4515756],[6.9033497,46.4508455],[6.9034943,46.4507119],[6.9036183,46.4506278],[6.9053085,46.4496919],[6.9055957,46.4494935],[6.9068905,46.4484486],[6.9071174,46.4482442],[6.9081474,46.4471594],[6.9083313,46.4469988],[6.9088439,46.4466753],[6.909449,46.4463978],[6.9097663,46.4462256],[6.9107442,46.4455947],[6.9112803,46.4451395],[6.9114642,46.4450289],[6.9116271,46.4449699],[6.9121412,46.4448513],[6.912419,46.4447479],[6.9125987,46.4446436],[6.913024,46.44432],[6.9132935,46.4441605],[6.913562,46.4440469],[6.9141476,46.4438866],[6.9143712,46.4437969],[6.914532,46.4436945],[6.9148488,46.443407],[6.9151293,46.4432563],[6.9155471,46.4431178],[6.916214,46.4430112],[6.9165279,46.4429092],[6.9167067,46.4428005],[6.917082,46.4425092],[6.9172976,46.4423722],[6.9190122,46.4416455],[6.9201979,46.4410175],[6.9204515,46.440844],[6.9206683,46.4405988],[6.9213244,46.4395322],[6.9216425,46.4389109],[6.9217746,46.4387126],[6.9219646,46.4385561],[6.9221685,46.4384571],[6.9224013,46.4383958],[6.9226634,46.438374],[6.9229184,46.4383968],[6.9232133,46.4384846],[6.9234355,46.438619],[6.9235683,46.4387498],[6.9236748,46.4389555],[6.9236906,46.4391203],[6.9236305,46.4393303],[6.9235105,46.4394931],[6.9233127,46.4396424],[6.9230634,46.4397481],[6.9228608,46.439792],[6.9220768,46.4398706],[6.9218766,46.4399366],[6.9216883,46.4400395],[6.9215442,46.4401719],[6.9214469,46.4403309],[6.9212701,46.4410484],[6.9210885,46.4415722],[6.9209728,46.4417732],[6.9208015,46.4419598],[6.9206687,46.4420665],[6.9204824,46.4421807],[6.9197579,46.4424705],[6.9195297,46.4426058],[6.9187748,46.443219],[6.9183842,46.4436744],[6.9181262,46.4438753],[6.9175883,46.444157],[6.9168814,46.4443637],[6.9165987,46.4445023],[6.9157954,46.4450532],[6.9156083,46.4452374],[6.9154024,46.4454901],[6.9152915,46.4456552],[6.9152259,46.4457936],[6.9149777,46.4465139],[6.9149107,46.446836],[6.9148271,46.447536],[6.91477,46.4477367],[6.9146613,46.4479858],[6.9144607,46.4483039],[6.9138966,46.4490619],[6.9134411,46.4495292],[6.9133414,46.4496534],[6.9131302,46.4500984],[6.9130922,46.4502629],[6.9131189,46.4504191],[6.9132003,46.4505574],[6.913373,46.450721],[6.9135711,46.4508261],[6.9138192,46.4508971],[6.9140905,46.4509283],[6.9143407,46.4509149],[6.9145562,46.4508666],[6.9147473,46.4507862],[6.9149682,46.4506336],[6.9150726,46.4505069],[6.9151495,46.450336],[6.9151693,46.4502343],[6.9151451,46.4500578],[6.9150669,46.4499122],[6.914787,46.4495939],[6.9146957,46.449448],[6.9146517,46.4493033],[6.9146501,46.4491855],[6.9146713,46.449086],[6.9147446,46.4489382],[6.9148221,46.4488433],[6.915192,46.4485138],[6.915372,46.4482753],[6.915776,46.4471158],[6.9160239,46.4465966],[6.9161214,46.4464605],[6.9162249,46.4463653],[6.9163962,46.4462602],[6.9166109,46.446182],[6.9168564,46.4461387],[6.9174692,46.4460814],[6.9178046,46.4459757],[6.91794,46.4458922],[6.9180903,46.4457614],[6.9185772,46.4452207],[6.9188429,46.4450292],[6.9191606,46.444914],[6.9198702,46.4448128],[6.9201332,46.4447338],[6.9204103,46.4446021],[6.9220181,46.443695],[6.9223178,46.4435979],[6.922678,46.4435731],[6.9229336,46.44361],[6.9231926,46.4437025],[6.9243681,46.4443883],[6.9247987,46.4446141],[6.9253195,46.4448552],[6.9257345,46.4449758],[6.9264476,46.4451138],[6.9267701,46.4452162],[6.9272997,46.4454967],[6.9283641,46.445991],[6.9287039,46.4461923],[6.9294689,46.446548],[6.929697,46.4466764],[6.9299104,46.4468335],[6.9300443,46.4469578],[6.9301247,46.4470783],[6.9301954,46.4472507],[6.9302114,46.4474454],[6.9301467,46.4478356],[6.9302101,46.4484436],[6.9302627,46.4486371],[6.9303385,46.4487617],[6.9304479,46.4488747],[6.9305659,46.4489604],[6.9307891,46.4490646],[6.9310546,46.4491279],[6.9313077,46.4491411],[6.9315201,46.4491177],[6.9320963,46.4489942],[6.9323699,46.4489896],[6.9335846,46.4492271],[6.933913,46.4493091],[6.9345759,46.449517],[6.934959,46.4495736],[6.9352701,46.4495479],[6.9360125,46.4493701],[6.9371585,46.4492071],[6.9373555,46.4491538],[6.9377575,46.4489949],[6.9380434,46.4489325],[6.9383961,46.4489309],[6.9390988,46.4490132],[6.9393345,46.4490671],[6.9395141,46.4491404],[6.939704,46.4492651],[6.9398052,46.449368],[6.9398887,46.4494962],[6.940054,46.4498424],[6.9401402,46.4499698],[6.9403128,46.4501595],[6.940525,46.450338],[6.9417863,46.4511902],[6.9420516,46.4514539],[6.942155,46.4516146],[6.9422324,46.4518056],[6.9423169,46.452237],[6.9424423,46.4526133],[6.9425113,46.4529417],[6.94256,46.4530506],[6.9426535,46.4531718],[6.9429193,46.453382],[6.9438245,46.4539996],[6.9439563,46.4540613],[6.9441078,46.4541003],[6.9443303,46.4541094],[6.9445972,46.4540533],[6.9462196,46.4532681],[6.9464745,46.4531748],[6.9469397,46.4530635],[6.9471438,46.4529898],[6.9473206,46.4528744],[6.9476127,46.452571],[6.9478115,46.4524303],[6.9480725,46.4523362],[6.9483467,46.4523069],[6.9485526,46.4523242],[6.9487209,46.4523626],[6.9496288,46.4526215],[6.9501212,46.452806],[6.9507137,46.4529485],[6.9509167,46.4530341],[6.9515085,46.4533593],[6.9518055,46.4534647],[6.952074,46.4535229],[6.9532776,46.4535817],[6.9539617,46.4537158],[6.95424,46.4537464],[6.955287,46.4537184],[6.9576079,46.4538699],[6.9579693,46.4539428],[6.958536,46.4541633],[6.9594252,46.4543405],[6.9597929,46.4543774],[6.9606062,46.4544054],[6.9612314,46.4545173],[6.9620548,46.4545967],[6.9630404,46.454596],[6.9643573,46.4545422],[6.9969499,46.4555175],[6.9972906,46.4555335],[6.9974732,46.4555666],[6.9977421,46.4556932],[6.9979633,46.4558697],[6.9985455,46.4566794],[7.0002105,46.458617],[7.0004026,46.4587812],[7.0009247,46.4590846],[7.0010952,46.4592461],[7.0016321,46.4600747],[7.0016902,46.4602166],[7.0017636,46.4605035],[7.0018252,46.4606475],[7.002303,46.4612216],[7.0023631,46.4613574],[7.0024961,46.4618022],[7.0027933,46.4623799],[7.0029242,46.462566],[7.0032547,46.4628721],[7.0033798,46.4630492],[7.003431,46.4632116],[7.0034302,46.4633587],[7.0033084,46.4638111],[7.0032715,46.4640333],[7.0032894,46.4641915],[7.0033877,46.4643965],[7.0035748,46.4645835],[7.0045446,46.4652437],[7.0047777,46.4654446],[7.005356,46.4662976],[7.0056423,46.4666265],[7.0061805,46.4671719],[7.0065404,46.467776],[7.0067322,46.468014],[7.0070384,46.4683454],[7.0071612,46.4685584],[7.0073426,46.4690461],[7.0075302,46.4692985],[7.0083179,46.4701447],[7.008517,46.4703215],[7.0086512,46.4704039],[7.008834,46.470479],[7.0096062,46.4707161],[7.0102876,46.4710637],[7.0104642,46.4711965],[7.0117998,46.4723689],[7.0120884,46.4726491],[7.0126472,46.4732535],[7.0132981,46.4740925],[7.0134174,46.474323],[7.013555,46.4746991],[7.0136674,46.4748817],[7.0137698,46.4749869],[7.0139181,46.4750982],[7.0143472,46.4753481],[7.0145349,46.4754781],[7.0147793,46.4757027],[7.0149813,46.4759431],[7.0151809,46.476288],[7.0152455,46.4764532],[7.015311,46.4767288],[7.0153584,46.4777024],[7.0155559,46.4795295],[7.0155875,46.479687],[7.015674,46.4798561],[7.0160286,46.4802778],[7.0161178,46.4804097],[7.0162109,46.4806252],[7.0163801,46.4812748],[7.0164663,46.4814341],[7.0167399,46.4818305],[7.016776,46.4819548],[7.0167803,46.4820448],[7.0167179,46.4823431],[7.0167129,46.4824645],[7.0167673,46.4826457],[7.016823,46.4827314],[7.0172966,46.4831485],[7.0174318,46.4833128],[7.0175461,46.4835528],[7.0176385,46.4840365],[7.0176753,46.4841411],[7.0178094,46.484385],[7.0179925,46.4845892],[7.0182376,46.4847701],[7.0184103,46.4848576],[7.0188012,46.484976],[7.0193826,46.4850931],[7.0195464,46.4851473],[7.0198516,46.4852929],[7.0202705,46.4855638],[7.0204431,46.4856519],[7.0214835,46.4860369],[7.0217598,46.4862003],[7.0219007,46.486314],[7.0226133,46.4869888],[7.0234609,46.4875863],[7.0237643,46.4877154],[7.024236,46.4878551],[7.024561,46.4880044],[7.0261383,46.4890687],[7.0271155,46.4895841],[7.0275767,46.4897866],[7.027782,46.4898475],[7.0280857,46.489905],[7.0289957,46.4899371],[7.0292778,46.4899828],[7.0297865,46.4901046],[7.0303362,46.4902708],[7.0312053,46.4905893],[7.0316418,46.4907179],[7.0322028,46.4908161],[7.0333924,46.4909443],[7.0336536,46.4910016],[7.0338515,46.491085],[7.0340379,46.4912112],[7.0348021,46.4919485],[7.0349403,46.4920544],[7.0351804,46.4921673],[7.0354385,46.4922211],[7.0356728,46.4922244],[7.0358855,46.4921901],[7.0361482,46.4920904],[7.0362859,46.491998],[7.0363695,46.4919087],[7.0364442,46.4917881],[7.0365308,46.4914183],[7.0365954,46.4912586],[7.0367163,46.491127],[7.0368301,46.4910536],[7.0371217,46.4909507],[7.0375112,46.4908872],[7.0377139,46.4908797],[7.0380055,46.4909189],[7.039259,46.4913955],[7.0395661,46.4915595],[7.0397457,46.4917049],[7.0401495,46.4921094],[7.0402441,46.4922823],[7.0403806,46.4926873],[7.0405011,46.4928698],[7.0407158,46.4930156],[7.040855,46.4930641],[7.0410182,46.4930916],[7.0412034,46.4930938],[7.0413635,46.4930728],[7.0415275,46.4930219],[7.041682,46.492937],[7.0418039,46.4928256],[7.0418723,46.492716],[7.0419054,46.4925773],[7.0418918,46.4924654],[7.0417962,46.4922931],[7.0416195,46.4921522],[7.0414218,46.4920625],[7.0407748,46.4918377],[7.0405554,46.4917048],[7.0404434,46.491586],[7.0403787,46.491467],[7.0403506,46.4913309],[7.0403713,46.4911754],[7.0404661,46.491003],[7.0406089,46.4908716],[7.041443,46.4903392],[7.0416426,46.490183],[7.0430453,46.4880964],[7.0430996,46.4879809],[7.0431282,46.4878341],[7.043167,46.4869453],[7.0431468,46.4866784],[7.043068,46.4864011],[7.0428906,46.4860619],[7.0427472,46.4858742],[7.0425826,46.4857039],[7.0405447,46.4840769],[7.0400627,46.4837656],[7.0384807,46.4829509],[7.0382444,46.4827945],[7.0380201,46.4825856],[7.0379108,46.4824389],[7.0378214,46.4822717],[7.0375993,46.4815334],[7.0374159,46.4812237],[7.0371849,46.4809858],[7.0352043,46.4792283],[7.0350768,46.4790939],[7.0349927,46.478974],[7.0348502,46.4786672],[7.0348107,46.4784914],[7.0347424,46.4778294],[7.034527,46.4771175],[7.0345074,46.4768369],[7.0345645,46.4765701],[7.0346656,46.4763727],[7.0348344,46.4761387],[7.0358437,46.4749453],[7.0361242,46.4747052],[7.036454,46.4745165],[7.0368122,46.4744165],[7.037148,46.4744034],[7.0373868,46.4744374],[7.0375143,46.4744747],[7.0380782,46.4746964],[7.0384122,46.4747862],[7.0386509,46.4748031],[7.0389894,46.4747628],[7.0393402,46.474628],[7.0398069,46.4743805],[7.0401281,46.4741852],[7.0403183,46.4740057],[7.0406169,46.4735197],[7.0407397,46.4733715],[7.0409045,46.4732356],[7.0413378,46.4729905],[7.0416932,46.4728336],[7.0419474,46.4727755],[7.0427245,46.4727347],[7.0429575,46.4727033],[7.0432361,46.4726112],[7.0434303,46.4724871],[7.0435437,46.4723706],[7.0436179,46.4722469],[7.0437856,46.4717516],[7.0439328,46.4714607],[7.0445471,46.4706969],[7.0447141,46.4704137],[7.0451394,46.4692483],[7.0451824,46.4690835],[7.0452952,46.4683449],[7.0454029,46.4680402],[7.0455155,46.4678402],[7.0456911,46.4676695],[7.0469093,46.4668005],[7.0473183,46.4664234],[7.0477903,46.465878],[7.0480442,46.4656635],[7.0483496,46.4654799],[7.0489295,46.4651771],[7.049165,46.4650936],[7.049492,46.4650206],[7.0497425,46.464994],[7.0501552,46.464995],[7.0511034,46.4650631],[7.0514311,46.4650694],[7.0517216,46.4650433],[7.0519129,46.4650051],[7.0522792,46.4648758],[7.0530256,46.4644461],[7.053334,46.4643049],[7.053699,46.4642024],[7.0540176,46.4641589],[7.0544629,46.4641563],[7.0552588,46.4642648],[7.0556121,46.4642858],[7.0559788,46.464251],[7.0570644,46.4640081],[7.0575102,46.4639421],[7.0579421,46.4639374],[7.0591781,46.4639962],[7.0597572,46.4640484],[7.0604455,46.4641563],[7.0610027,46.464285],[7.0621523,46.4646055],[7.0626233,46.4646941],[7.0631299,46.4647195],[7.0642124,46.4646399],[7.0656768,46.4646136],[7.0660673,46.4646571],[7.0667642,46.4647934],[7.0675938,46.4648741],[7.0680812,46.4649829],[7.0686865,46.4651736],[7.0689346,46.4652771],[7.0696157,46.465636],[7.0698223,46.4657254],[7.0701681,46.4658382],[7.0709133,46.4660394],[7.0712884,46.4661769],[7.071632,46.4663548],[7.0725843,46.4669453],[7.0730079,46.4671654],[7.0733489,46.467316],[7.0735482,46.4673866],[7.0738413,46.4674581],[7.0743248,46.4675091],[7.0747599,46.4674859],[7.0751196,46.4674168],[7.0754904,46.4672886],[7.0758393,46.4670987],[7.0760827,46.4669003],[7.0762773,46.4666818],[7.0773714,46.4651917],[7.0775636,46.4649547],[7.0776935,46.4648287],[7.0779549,46.464645],[7.078283,46.4644967],[7.0785954,46.4644103],[7.0790487,46.4643405],[7.0795845,46.4643235],[7.0802467,46.4643762],[7.0806412,46.4644531],[7.0814623,46.4646654],[7.0820049,46.4647451],[7.0841678,46.4647321],[7.0848267,46.4647848],[7.0856629,46.4648834],[7.0859734,46.4648974],[7.086282,46.4648761],[7.0869888,46.4647722],[7.0873523,46.4647458],[7.088936,46.4647746],[7.0892831,46.4647579],[7.0896821,46.4646814],[7.0899319,46.4645962],[7.0903573,46.4644158],[7.0906904,46.4643203],[7.0910296,46.4642726],[7.0914025,46.4642688],[7.0917956,46.4643272],[7.0922775,46.464494],[7.0929781,46.4648648],[7.0935338,46.4652281],[7.0942335,46.4656148],[7.0947429,46.4658688],[7.0950132,46.4659606],[7.0952207,46.4660076],[7.0957145,46.4660539],[7.0966832,46.4660611],[7.0971935,46.4659989],[7.0975269,46.4659048],[7.0977692,46.4658032],[7.0985647,46.4653217],[7.0989472,46.4651607],[7.0992455,46.4650816],[7.0996444,46.4650314],[7.0999621,46.4650318],[7.1002789,46.4650669],[7.1005989,46.4651391],[7.1012121,46.4653385],[7.1015909,46.4654357],[7.1021254,46.465509],[7.1033548,46.4656361],[7.1039319,46.4657684],[7.1045156,46.4659398],[7.1049048,46.4660168],[7.1076364,46.4662511],[7.1082977,46.4663495],[7.1091145,46.4665368],[7.1094158,46.4666291],[7.1105924,46.4670569],[7.1110766,46.4672897],[7.111605,46.4675945],[7.1125162,46.4679991],[7.1126953,46.4681071],[7.113158,46.4684415],[7.1133658,46.4685597],[7.1136233,46.4686807],[7.1138476,46.4687586],[7.1141329,46.4688396],[7.114355,46.4688786],[7.1147908,46.4689273],[7.1150167,46.4689292],[7.1155209,46.4688815],[7.1183349,46.4684166],[7.1189091,46.4683624],[7.1195094,46.4683695],[7.1197857,46.4683947],[7.1202765,46.4684738],[7.1207888,46.468605],[7.1213316,46.4688178],[7.121847,46.4691103],[7.1222949,46.4694631],[7.1224835,46.4696553],[7.1234779,46.4708693],[7.1235985,46.4711109],[7.1237564,46.4719168],[7.1241058,46.4725791],[7.124214,46.472743],[7.1244586,46.4730017],[7.1250938,46.4735363],[7.1263264,46.4742725],[7.1265502,46.4743788],[7.1268042,46.4744655],[7.1270438,46.4745212],[7.1273049,46.4745549],[7.1277946,46.4745524],[7.1289576,46.4744087],[7.1293102,46.4743949],[7.130194,46.4744964],[7.1312401,46.4747009],[7.1321426,46.474949],[7.1327842,46.4752076],[7.133637,46.4754911],[7.1345271,46.4758859],[7.1352881,46.476327],[7.1355003,46.4764066],[7.1357054,46.4764494],[7.1359601,46.4764613],[7.1362571,46.4764198],[7.1364441,46.4763655],[7.1374444,46.4759645],[7.1376573,46.475897],[7.1379201,46.4758425],[7.1383385,46.4758148],[7.1387907,46.4758451],[7.1391974,46.4759283],[7.1404862,46.4763864],[7.1409123,46.4764912],[7.1413456,46.4765377],[7.1415286,46.4765395],[7.1420739,46.4765018],[7.1425681,46.4764054],[7.1428489,46.4763245],[7.1431316,46.4762175],[7.1446987,46.4754991],[7.1450494,46.4753595],[7.1453907,46.4752496],[7.1460369,46.4751169],[7.1466939,46.475055],[7.1476606,46.4750714],[7.1494498,46.4751728],[7.1506646,46.4753337],[7.1510663,46.475323],[7.1514223,46.4752303],[7.1538511,46.474278],[7.1542139,46.4742124],[7.1550621,46.4741769],[7.1553906,46.4741005],[7.1555486,46.4740354],[7.1562041,46.4736539],[7.1565518,46.4735441],[7.1568136,46.473522],[7.1570623,46.4735415],[7.1578032,46.4737057],[7.158042,46.473734],[7.1583612,46.4737254],[7.1590598,46.4736466],[7.1593356,46.4736448],[7.1596042,46.4736871],[7.1601094,46.4738198],[7.1602508,46.4738418],[7.1605132,46.4738474],[7.1607694,46.4738066],[7.161057,46.4736967],[7.1612437,46.4735692],[7.1615857,46.473245],[7.1618372,46.473098],[7.1620426,46.4730348],[7.1622328,46.4730028],[7.1624211,46.472997],[7.1626296,46.4730166],[7.1629332,46.4731023],[7.1631219,46.4731981],[7.1632597,46.4732921],[7.1634634,46.4735028],[7.1636901,46.4739167],[7.1638128,46.4740632],[7.1640556,46.47423],[7.1643552,46.4743483],[7.1649031,46.4745163],[7.1653353,46.4746045],[7.1683428,46.4750179],[7.1687119,46.4751208],[7.1690183,46.4752538],[7.1692771,46.4754168],[7.1695031,46.4756135],[7.1704097,46.4767106],[7.1706371,46.476961],[7.1707569,46.4770556],[7.170973,46.4771715],[7.1711882,46.4772463],[7.1732729,46.4777485],[7.1736741,46.4778915],[7.1740114,46.4781157],[7.1752528,46.4791343],[7.1758102,46.4795682],[7.1763255,46.4798846],[7.1770275,46.4802024],[7.177754,46.4804234],[7.1783314,46.4805389],[7.1802118,46.4807317],[7.1809589,46.4808415],[7.1836652,46.4817115],[7.1878045,46.4825001],[7.1891262,46.4829074],[7.1898373,46.4830812],[7.1939595,46.4837865],[7.1948489,46.4839649],[7.195841,46.4842244],[7.19719,46.4846934],[7.1993896,46.4855927],[7.2015783,46.4864163],[7.2019055,46.4866194],[7.2020879,46.4867829],[7.2027665,46.4876657],[7.2030616,46.4878947],[7.2032405,46.4880026],[7.2034076,46.4880719],[7.2037831,46.4881883],[7.2039987,46.4882245],[7.2043793,46.4882525],[7.2159149,46.4886574],[7.2166729,46.4886593],[7.217473,46.4885941],[7.2181347,46.4884863],[7.2218561,46.4875739],[7.2222235,46.4874936],[7.2229703,46.4873781],[7.2249632,46.4872658],[7.2275315,46.4872137],[7.2284431,46.4871208],[7.2299722,46.4868487],[7.2303752,46.486795],[7.231004,46.4867485],[7.2314648,46.486745],[7.2317444,46.4867515],[7.2326139,46.4868468],[7.2341705,46.4871476],[7.2358815,46.487398],[7.2365228,46.487445],[7.2374531,46.4874204],[7.2383327,46.4873211],[7.238665,46.4873093],[7.2420802,46.4873889],[7.2426137,46.4874113],[7.2460025,46.4877713],[7.2467219,46.4877485],[7.2477696,46.4876645],[7.248249,46.4876751],[7.2502633,46.48794],[7.2508996,46.4879979],[7.2514841,46.4880003],[7.2546968,46.4879288],[7.2554559,46.4879482],[7.2561344,46.4880165],[7.2582483,46.4883578],[7.2588206,46.488418],[7.2617206,46.4884419],[7.262033,46.4884375],[7.2623486,46.488403],[7.2635441,46.4880713],[7.2637587,46.4879993],[7.2640684,46.4878623],[7.2694768,46.4844249],[7.2698995,46.4840787],[7.2721179,46.4821529],[7.2749254,46.4799961],[7.2754947,46.4795739],[7.2759373,46.4792836],[7.2765531,46.4789522],[7.28048,46.477018],[7.2811822,46.4766974],[7.2823021,46.4762349],[7.2826786,46.4760501],[7.2830308,46.4758178],[7.2848966,46.4742688],[7.2850597,46.4741446],[7.2852422,46.4740368],[7.2855489,46.47393],[7.2859061,46.4738882],[7.2862563,46.4739227],[7.2865273,46.4740063],[7.2868167,46.4741767],[7.2869099,46.4742656],[7.2870198,46.4744189],[7.2870736,46.4745627],[7.287089,46.4747086],[7.2870669,46.4748606],[7.2870255,46.474981],[7.2868448,46.4753609],[7.2866764,46.4756107],[7.2865013,46.4757731],[7.2859934,46.4761463],[7.2857887,46.4763795],[7.2847513,46.4778947],[7.28466,46.4781041],[7.2846334,46.4782535],[7.2846369,46.4783869],[7.2846613,46.4784805],[7.2847591,46.478674],[7.2848408,46.4787683],[7.2850641,46.4789425],[7.2856878,46.4793262],[7.2858631,46.479507],[7.2859661,46.4797006],[7.2860008,46.4798239],[7.2860037,46.4799301],[7.2859873,46.4800499],[7.2859512,46.4801462],[7.2859022,46.4802437],[7.2857676,46.4804282],[7.2854911,46.4807406],[7.2853426,46.4809994],[7.2851231,46.4817986],[7.2850863,46.4820471],[7.2850862,46.4821843],[7.2851224,46.4824179],[7.2851669,46.4825545],[7.2852953,46.4828081],[7.2855141,46.4830802],[7.2861439,46.4836923],[7.2862925,46.4839505],[7.2863241,46.4841405],[7.2863228,46.48425],[7.2862921,46.484366],[7.2861976,46.4845702],[7.2859696,46.4847796],[7.285103,46.4854998],[7.284924,46.485685],[7.2848632,46.4857898],[7.2848212,46.4859205],[7.2847374,46.4867547],[7.2847471,46.486995],[7.2848412,46.4875905],[7.2849046,46.4878415],[7.2851516,46.4885739],[7.285162,46.4888405],[7.2851198,46.4889869],[7.2849833,46.4892157],[7.2847779,46.4893862],[7.2845182,46.4895175],[7.2843038,46.4895821],[7.2841533,46.4896148],[7.2817764,46.4898804],[7.2809915,46.4900274],[7.2807535,46.4901126],[7.2805978,46.4901984],[7.2804094,46.4903512],[7.2802716,46.4905557],[7.2801214,46.4910165],[7.2799964,46.4913292],[7.27988,46.4917902],[7.2798291,46.4921623],[7.2798454,46.4923126],[7.2799327,46.4925976],[7.2800914,46.4928525],[7.2801939,46.4929729],[7.2804621,46.4932028],[7.2806177,46.4933034],[7.2808423,46.4934195],[7.281087,46.493513],[7.2815524,46.4936266],[7.2818079,46.4936541],[7.2835018,46.4936573],[7.2840604,46.493691],[7.284297,46.4937314],[7.2846107,46.4938089],[7.284822,46.4938823],[7.2860021,46.4944526],[7.2868277,46.4946653],[7.2871375,46.4947768],[7.2874014,46.4949397],[7.2875767,46.495095],[7.2881019,46.4956685],[7.2882629,46.4958728],[7.2883481,46.49602],[7.288395,46.4961434],[7.2884152,46.4963088],[7.2883229,46.4968628],[7.2883182,46.4969882],[7.2883598,46.4972318],[7.2884056,46.4973425],[7.2885459,46.4975582],[7.2888432,46.4978131],[7.2903241,46.4988523],[7.2906226,46.4991051],[7.2907187,46.4992191],[7.2908033,46.4994199],[7.2908155,46.4995389],[7.2907824,46.4997582],[7.290692,46.4999399],[7.2905557,46.5000921],[7.2903487,46.5002728],[7.2900663,46.5004371],[7.2898818,46.5005012],[7.2895483,46.5005709],[7.2892028,46.5005684],[7.2888711,46.500502],[7.2881775,46.5002452],[7.2879835,46.5001905],[7.2877007,46.5001435],[7.2874144,46.500145],[7.2870795,46.5002006],[7.2867847,46.5003135],[7.2866486,46.5003937],[7.2863968,46.5006165],[7.2861397,46.500936],[7.2860311,46.5011277],[7.2859851,46.5012879],[7.2859797,46.5013764],[7.2859982,46.5015291],[7.2860905,46.5017499],[7.2861853,46.5018795],[7.2863357,46.5020221],[7.2865693,46.5021979],[7.2869745,46.5024144],[7.2872438,46.5025191],[7.2898025,46.503337],[7.2901435,46.5034626],[7.2903232,46.5035563],[7.2905521,46.5037567],[7.291833,46.5051498],[7.2919996,46.5052788],[7.2973627,46.5088667],[7.2977124,46.5090708],[7.2981979,46.5093023],[7.2985386,46.5095221],[7.2996148,46.5104324],[7.2997953,46.5106487],[7.3003741,46.5114486],[7.3005673,46.5116333],[7.3009455,46.5119224],[7.3012228,46.5120956],[7.3014644,46.5122051],[7.3024432,46.5124869],[7.3026869,46.5125829],[7.3029167,46.5127068],[7.3031762,46.5128881],[7.3057531,46.5149319],[7.3061258,46.5151568],[7.3077853,46.5160204],[7.308136,46.5162668],[7.3091163,46.5170832],[7.3093599,46.5172439],[7.3096234,46.5173692],[7.3100464,46.5174957],[7.3105164,46.5175485],[7.3135012,46.517474],[7.3144327,46.5175232],[7.3154672,46.517527],[7.315858,46.5175909],[7.3161909,46.5176901],[7.3167651,46.5178965],[7.3171643,46.5179894],[7.3174833,46.5180138],[7.3183918,46.5180308],[7.3186495,46.5180647],[7.3190946,46.5181849],[7.3193346,46.518285],[7.3195305,46.518396],[7.3196536,46.5184795],[7.3211481,46.5196962],[7.3216399,46.5200223],[7.3219185,46.5201665],[7.3232387,46.5207076],[7.3236072,46.5208483],[7.3241086,46.5210063],[7.3245489,46.5211084],[7.3250856,46.5211926],[7.3256302,46.5212327],[7.3268226,46.5212573],[7.3272525,46.5213063],[7.3275574,46.5213669],[7.328215,46.5215771],[7.3306801,46.5225159],[7.3309601,46.5226017],[7.3314134,46.522693],[7.3319229,46.5227321],[7.3336978,46.5227797],[7.3341096,46.5228097],[7.335445,46.5229792],[7.3366204,46.5230414],[7.3370582,46.5230913],[7.3372927,46.5231455],[7.3376131,46.5232519],[7.337936,46.5233979],[7.3387171,46.5238574],[7.3390232,46.523962],[7.3392251,46.5240018],[7.3394609,46.5240218],[7.3397881,46.5240023],[7.3399823,46.5239683],[7.3408752,46.5237156],[7.3412402,46.5236763],[7.3414663,46.5236833],[7.3417294,46.523724],[7.3419991,46.5238061],[7.3421898,46.5238971],[7.342374,46.5240232],[7.3424856,46.5241252],[7.3428537,46.5245438],[7.3431555,46.5248463],[7.3444048,46.52588],[7.3445974,46.526061],[7.3447393,46.5262821],[7.3449631,46.5271075],[7.345097,46.5273082],[7.3453104,46.5274883],[7.3464603,46.5280371],[7.3474522,46.5287665],[7.3488774,46.5295727],[7.3491815,46.5296936],[7.3496557,46.5298406],[7.350036,46.5299956],[7.3507534,46.5304702],[7.3513691,46.5309529],[7.3517168,46.5311807],[7.3519981,46.531306],[7.3521596,46.5313565],[7.3531798,46.5316253],[7.3535341,46.5317983],[7.3541044,46.5321829],[7.354869,46.5328249],[7.3551504,46.5330935],[7.3557276,46.5337876],[7.3559977,46.5340222],[7.3561515,46.5341232],[7.3565382,46.5343144],[7.3577785,46.5347439],[7.3580025,46.5348603],[7.3586539,46.5352532],[7.3588466,46.5353385],[7.3592199,46.535437],[7.3598573,46.5355622],[7.360429,46.5357682],[7.360827,46.5360457],[7.3624358,46.5373772],[7.3628391,46.5379274],[7.3630101,46.5381297],[7.3631601,46.5382443],[7.363918,46.5386725],[7.3642456,46.5388962],[7.3660377,46.5405834],[7.3664198,46.5408419],[7.367125,46.5411859],[7.3675198,46.5414493],[7.3692919,46.5431487],[7.369355,46.543237],[7.3694428,46.5434214],[7.3696603,46.5442145],[7.3697346,46.5444261],[7.3698427,46.5446342],[7.370064,46.5449164],[7.3716707,46.5463978],[7.3719038,46.5465766],[7.3720995,46.5466692],[7.3724082,46.5467446],[7.3728018,46.5467529],[7.3730551,46.5467083],[7.373385,46.5465834],[7.3747954,46.5456645],[7.3749912,46.5455188],[7.3752098,46.5453371],[7.3755383,46.5450096],[7.3758146,46.5446628],[7.3759434,46.544458],[7.3764868,46.5435214],[7.376574,46.543323],[7.3766358,46.5431332],[7.3769857,46.5413693],[7.3770408,46.5412357],[7.3772976,46.5407659],[7.3773492,46.5406074],[7.377448,46.5398697],[7.377439,46.5394967],[7.3773586,46.5391406],[7.3771718,46.5384916],[7.3771544,46.538272],[7.3772142,46.5380273],[7.3773247,46.5378532],[7.3774749,46.5376992],[7.3777929,46.5374963],[7.378183,46.5373698],[7.3785196,46.5373338],[7.3788723,46.5373505],[7.3792143,46.5374298],[7.3794919,46.5375525],[7.3797922,46.537785],[7.3799267,46.5379689],[7.3799985,46.5381497],[7.3800176,46.538273],[7.3799915,46.5385124],[7.379898,46.5387195],[7.3797333,46.5389184],[7.3794943,46.5391015],[7.3788534,46.5394674],[7.3785508,46.5396769],[7.378277,46.5399925],[7.3781869,46.5403032],[7.3782181,46.5406257],[7.3783584,46.5412427],[7.3784053,46.5415865],[7.378301,46.542983],[7.3781882,46.5440749],[7.3781264,46.5459214],[7.3780744,46.5464328],[7.3780686,46.5468131],[7.3781141,46.5472415],[7.3781068,46.5473868],[7.377856,46.5481307],[7.3778126,46.5484738],[7.3778109,46.5490504],[7.3777715,46.5492945],[7.377716,46.5494267],[7.3776143,46.5495804],[7.3774654,46.5497309],[7.377308,46.5498456],[7.3771214,46.5499431],[7.3768826,46.5500361],[7.3760167,46.5502812],[7.3757729,46.5503848],[7.3755864,46.5505164],[7.3754,46.5507347],[7.3751017,46.551029],[7.3749896,46.551221],[7.3749553,46.5513525],[7.3748341,46.5529863],[7.3749437,46.5529805],[7.3749424,46.5532941],[7.3749754,46.5535536],[7.3750321,46.5537889],[7.3751624,46.5541783],[7.3752344,46.554576],[7.3752418,46.554844],[7.375216,46.5552601],[7.3752643,46.555691],[7.3752699,46.5559453],[7.3752321,46.5566273],[7.3752766,46.5570385],[7.3769704,46.5673074],[7.377047,46.5676425],[7.3771304,46.5679049],[7.3784898,46.5709769],[7.3786667,46.5713071],[7.3788678,46.571594],[7.3791468,46.5719094],[7.3794274,46.5721667],[7.3798533,46.5724783],[7.3808932,46.5731348],[7.3812419,46.5734154],[7.382375,46.5743966],[7.3826318,46.5746471],[7.3828405,46.5749089],[7.3829978,46.5751819],[7.3830982,46.5754534],[7.3831527,46.5757546],[7.3831599,46.5761151],[7.3829642,46.5824838],[7.3829445,46.5826427],[7.3828672,46.5829398],[7.3818058,46.5865637],[7.3816534,46.5869312],[7.3815391,46.5871153],[7.3813951,46.5872956],[7.3811608,46.5875265],[7.3809092,46.5877194],[7.3803189,46.5880411],[7.3779329,46.5888461],[7.3774689,46.589065],[7.3771183,46.5892962],[7.3765447,46.5898129],[7.3743507,46.5919065],[7.3741635,46.5921351],[7.3740425,46.5923404],[7.3739558,46.5925711],[7.373911,46.592877],[7.3739455,46.593188],[7.3740678,46.5935037],[7.3742596,46.5937874],[7.3747259,46.5943535],[7.3748274,46.5945238],[7.3749306,46.5948003],[7.3749776,46.5951586],[7.3750545,46.5967469],[7.3750531,46.5970219],[7.3750305,46.5971945],[7.3747541,46.598123],[7.3745941,46.5992512],[7.3745691,46.5996268],[7.3745815,46.5999342],[7.3748193,46.6015393],[7.37485,46.6019209],[7.3747966,46.6023147],[7.3744279,46.6037004],[7.3744104,46.6040165],[7.3744385,46.6042207],[7.374561,46.6045707],[7.3747247,46.604832],[7.3760563,46.6064345],[7.3762807,46.6067405],[7.376579,46.6072036],[7.3782258,46.6103115],[7.37842,46.6107441],[7.37853,46.6110893],[7.3786027,46.6114578],[7.3787214,46.6128155],[7.3787523,46.6134671],[7.3787249,46.6143819],[7.3787476,46.6149086],[7.3788661,46.6154466],[7.3789868,46.615764],[7.3790914,46.615978],[7.3792844,46.6163012],[7.3795285,46.6166298],[7.3803628,46.6176103],[7.3844836,46.6227417],[7.3851398,46.6235211],[7.3858584,46.6242671],[7.3865082,46.624858],[7.3872362,46.6254427],[7.3881906,46.6261122],[7.3886599,46.6264248],[7.38916,46.626728],[7.3905433,46.6274633],[7.398713,46.6312159],[7.3991275,46.6313814],[7.3997611,46.6315841],[7.4012056,46.6319395],[7.4017504,46.6320913],[7.4022341,46.6322677],[7.4026221,46.6324457],[7.4030317,46.6326776],[7.4034735,46.6329846],[7.4084031,46.6367535],[7.4090324,46.6371914],[7.4098287,46.6376208],[7.4113621,46.638388],[7.4119359,46.6386082],[7.4130681,46.6389416],[7.4134715,46.639079],[7.4138544,46.6392592],[7.4141812,46.6394859],[7.4144158,46.6397138],[7.4146432,46.6400535],[7.4151363,46.6412539],[7.4153147,46.6415595],[7.4155977,46.6418814],[7.4162735,46.6424315],[7.4164967,46.6426536],[7.4167462,46.6430132],[7.4174287,46.6441],[7.4175411,46.6443617],[7.4178581,46.6452442],[7.4179152,46.6455975],[7.4178647,46.6459686],[7.4176121,46.6466393],[7.4175365,46.6469017],[7.4175108,46.6472033],[7.4175508,46.6474769],[7.4176534,46.6477493],[7.4178168,46.6480104],[7.4182915,46.6484957],[7.4186312,46.648772],[7.4188765,46.6489185],[7.4190898,46.6490201],[7.4199505,46.6493371],[7.4202922,46.6494905],[7.4205245,46.6496268],[7.4212403,46.6501259],[7.4215496,46.6502884],[7.4218651,46.6504145],[7.4220851,46.6504829],[7.4224369,46.65056],[7.4236304,46.65069],[7.4240506,46.6507718],[7.4244709,46.6509083],[7.4250539,46.6511551],[7.4253936,46.6512722],[7.4269657,46.65165],[7.4274285,46.6518095],[7.4277787,46.651985],[7.4285552,46.6524536],[7.4289383,46.6526464],[7.4295965,46.6529],[7.4310494,46.6533974],[7.4313139,46.653505],[7.4316116,46.6536629],[7.4318873,46.6538616],[7.4320805,46.6540465],[7.4327006,46.6548165],[7.4328774,46.6550057],[7.4332816,46.6553246],[7.4334934,46.655446],[7.4338199,46.6555851],[7.43407,46.6556609],[7.4365966,46.6562948],[7.4378913,46.6566714],[7.4400962,46.65736],[7.4407427,46.65758],[7.4411095,46.6577587],[7.4415719,46.6580612],[7.4421315,46.658504],[7.4424869,46.6587562],[7.4428962,46.6589545],[7.4434556,46.6591492],[7.4438785,46.6592303],[7.444325,46.6592765],[7.4448386,46.6592857],[7.4486883,46.6591812],[7.4500078,46.659198],[7.4503957,46.6592277],[7.4509088,46.6593007],[7.4523081,46.6596634],[7.452753,46.6597146],[7.4530466,46.6597212],[7.4534272,46.6596971],[7.4538081,46.6596318],[7.4551343,46.6592336],[7.4556158,46.6591179],[7.4561445,46.6590484],[7.4567849,46.6590385],[7.4585829,46.6591091],[7.4591067,46.6591507],[7.459559,46.6592287],[7.4611621,46.6596144],[7.4615524,46.6596674],[7.4620154,46.6596792],[7.4623816,46.6596491],[7.4627343,46.6595821],[7.4630622,46.6594874],[7.4642579,46.659071],[7.4648448,46.6589165],[7.4656166,46.6588024],[7.4663201,46.6587775],[7.4686439,46.658919],[7.4691692,46.6590074],[7.4701919,46.6592605],[7.4707016,46.6593528],[7.4731101,46.6595745],[7.4738132,46.6595614],[7.4750226,46.6593632],[7.4753428,46.6593291],[7.4756825,46.6593189],[7.4787593,46.6594346],[7.4816074,46.6595892],[7.4823108,46.6596666],[7.483586,46.6598823],[7.4842953,46.6599444],[7.4849274,46.6599166],[7.4866365,46.6596564],[7.4874614,46.6595914],[7.4882202,46.6596155],[7.4897741,46.6598089],[7.4905729,46.6598264],[7.4924486,46.6597127],[7.4929333,46.6596498],[7.493266,46.6595815],[7.4938064,46.6594248],[7.4958525,46.6586991],[7.4965779,46.6584803],[7.497307,46.6582304],[7.4977032,46.65812],[7.4980538,46.658059],[7.4984382,46.6580333],[7.4989881,46.6580629],[7.5033576,46.6586094],[7.5040878,46.658662],[7.5044934,46.6586507],[7.5050245,46.65859],[7.5063157,46.6582933],[7.5070404,46.6582036],[7.5076568,46.6582021],[7.5088121,46.6583025],[7.509391,46.6582913],[7.5098022,46.6582383],[7.5101085,46.6581728],[7.5110894,46.6578692],[7.511714,46.6577372],[7.5123764,46.6576804],[7.5135516,46.6576739],[7.5142164,46.6575952],[7.5147022,46.6574857],[7.5176433,46.6566894],[7.5181636,46.6565691],[7.5189475,46.6564542],[7.5194502,46.6564208],[7.5198912,46.6564155],[7.5206202,46.6564583],[7.5212956,46.6565564],[7.5219448,46.6567015],[7.523562,46.6571212],[7.5241105,46.657314],[7.5245714,46.6575138],[7.5268706,46.6587224],[7.5273489,46.6589426],[7.5278119,46.6590993],[7.5281631,46.6591853],[7.5288728,46.6592837],[7.5302272,46.6593262],[7.5312582,46.6593962],[7.5318588,46.6593781],[7.533696,46.6591192],[7.5340589,46.6590535],[7.5347486,46.65889],[7.5352008,46.658817],[7.5356206,46.6587939],[7.5359397,46.6588099],[7.5362691,46.6588537],[7.5375813,46.6591503],[7.5379081,46.659184],[7.5383532,46.6591878],[7.5386174,46.6591612],[7.538972,46.6590977],[7.5398256,46.658861],[7.5404502,46.6587501],[7.5429923,46.6585722],[7.543517,46.6585023],[7.5440153,46.6583995],[7.5445675,46.6582281],[7.5458199,46.6576625],[7.5461896,46.6575203],[7.546733,46.6573964],[7.5470213,46.657366],[7.5473426,46.657359],[7.5477917,46.657395],[7.5482996,46.6575071],[7.5486899,46.6576447],[7.5505533,46.6583864],[7.5510173,46.6585393],[7.551513,46.6586631],[7.5522812,46.6587806],[7.5541604,46.6588834],[7.5546993,46.6589524],[7.5580381,46.6596809],[7.5587046,46.6597761],[7.5592518,46.6597973],[7.5595142,46.6597821],[7.5598362,46.6597363],[7.5603818,46.6595875],[7.5615734,46.6591221],[7.5619703,46.6589918],[7.5625357,46.6588927],[7.5628603,46.6588749],[7.5631635,46.6588838],[7.5634841,46.6589196],[7.5637501,46.6589719],[7.5642367,46.6591194],[7.5648619,46.6593709],[7.5662992,46.6600289],[7.5666611,46.6601681],[7.5670128,46.6602734],[7.5676438,46.6604048],[7.5685065,46.6605454],[7.5689392,46.6605941],[7.5695021,46.6606103],[7.5699668,46.6605781],[7.5703917,46.6605204],[7.5708965,46.6604027],[7.5712466,46.6602884],[7.5715468,46.6601643],[7.5722808,46.6597963],[7.5726083,46.6596515],[7.5729158,46.6595488],[7.5733198,46.6594611],[7.5735797,46.6594305],[7.5740089,46.6594156],[7.5774131,46.6594255],[7.5778081,46.659464],[7.5781295,46.6595233],[7.5784376,46.6596076],[7.579595,46.6599933],[7.5803254,46.6601565],[7.5814191,46.6603435],[7.5818433,46.6604498],[7.5832338,46.6608767],[7.5842177,46.6612077],[7.584854,46.6613612],[7.5855509,46.6614206],[7.5859777,46.6614081],[7.5865421,46.6613209],[7.5874266,46.6611206],[7.5877036,46.661075],[7.5880057,46.661046],[7.5886068,46.6610647],[7.5891794,46.6611761],[7.5894524,46.6612681],[7.5911271,46.6619645],[7.5918404,46.6622019],[7.6086128,46.6674189],[7.6089947,46.6675092],[7.6095974,46.6676073],[7.6111795,46.6677092],[7.6118841,46.6678193],[7.6122032,46.6679038],[7.61279,46.6681053],[7.615773,46.6692373],[7.6162654,46.6693706],[7.6166236,46.6694204],[7.6169321,46.6694388],[7.617931,46.6694103],[7.6183048,46.6694164],[7.6188513,46.6694929],[7.6192208,46.6695949],[7.6196362,46.6697719],[7.6206451,46.6703559],[7.6209061,46.6704679],[7.621975,46.6708254],[7.6222341,46.6709338],[7.6224671,46.6710612],[7.6233934,46.6717352],[7.6242189,46.6723879],[7.625725,46.673321],[7.6264563,46.6739225],[7.6265877,46.6740101],[7.6268788,46.6741592],[7.6272665,46.6743007],[7.6283632,46.6745456],[7.6290668,46.6746785],[7.6335802,46.6750541],[7.6340059,46.6751402],[7.6345509,46.675334],[7.6367455,46.6763224],[7.6370101,46.6764718],[7.6371843,46.6765947],[7.6374604,46.676856],[7.6376832,46.6771741],[7.6405381,46.6819331],[7.6407738,46.6822945],[7.6410001,46.6825838],[7.6413124,46.6829152],[7.6430084,46.6844953],[7.6433771,46.6848895],[7.64374,46.685399],[7.6452475,46.6879303],[7.6455381,46.6883769],[7.6459045,46.6887963],[7.6461275,46.6889992],[7.6465182,46.6892953],[7.647109,46.6896379],[7.650174,46.6910741],[7.6509612,46.6913768],[7.6515277,46.6915576],[7.6521071,46.6917114],[7.6531404,46.6919162],[7.6542922,46.6920486],[7.6551289,46.6920893],[7.6587834,46.6921975],[7.6591409,46.6921874],[7.6595512,46.6921479],[7.6599347,46.6920815],[7.660318,46.691985],[7.6634071,46.6908833],[7.6660737,46.6900459],[7.6667476,46.6898854],[7.6677672,46.6897137],[7.668412,46.6896422],[7.6690591,46.6896285],[7.6708057,46.6896551],[7.6719977,46.6896324],[7.6723776,46.6896128],[7.6732915,46.6895144],[7.6739773,46.6893982],[7.674501,46.6892708],[7.6749325,46.6891312],[7.6755518,46.6888853],[7.6765904,46.6883447],[7.6771881,46.6879802],[7.6774951,46.6877543],[7.6800279,46.6857379],[7.680247,46.6855856],[7.6812693,46.6850212],[7.6827659,46.6842786],[7.6833013,46.6839751],[7.6851598,46.6830719],[7.6854279,46.682918],[7.6857758,46.6826801],[7.6860474,46.6824565],[7.6863352,46.6821792],[7.689641,46.6787878],[7.6900437,46.6784484],[7.6905448,46.6781191],[7.69182,46.677383],[7.6925246,46.6769508],[7.6932179,46.6764267],[7.6947863,46.6751586],[7.6952719,46.6748012],[7.6957662,46.67451],[7.6965396,46.6741471],[7.6998631,46.6729535],[7.7008073,46.6726885],[7.7035376,46.6719746],[7.7042421,46.6718727],[7.7054658,46.6717592],[7.7062125,46.6716054],[7.7067396,46.6714458],[7.707823,46.6710419],[7.7082578,46.6709133],[7.7095936,46.6705634],[7.7138251,46.6695682],[7.7143387,46.6693997],[7.7151048,46.6690824],[7.7178101,46.6677484],[7.7181802,46.667588],[7.7185645,46.6674556],[7.7190581,46.667341],[7.7195367,46.6672699],[7.7211341,46.6671918],[7.7218647,46.667126],[7.7225199,46.6670092],[7.72301,46.6668823],[7.7231961,46.6668235],[7.7236799,46.6666233],[7.7239255,46.6664786],[7.7241698,46.6663111],[7.7249171,46.6657356],[7.7252827,46.66549],[7.7255668,46.6653342],[7.7261248,46.6651037],[7.7274023,46.664737],[7.7278971,46.6645591],[7.7291154,46.6638419],[7.7297275,46.6636103],[7.7303884,46.6634943],[7.7308492,46.6634549],[7.7313599,46.6634671],[7.7319231,46.6635543],[7.733046,46.6637915],[7.733499,46.6638302],[7.7341401,46.6638101],[7.7344791,46.6637675],[7.7349549,46.6636666],[7.7353005,46.663562],[7.7362333,46.6632305],[7.7370769,46.6630131],[7.7407102,46.662462],[7.7411003,46.6623846],[7.7413763,46.6623085],[7.7427298,46.6617664],[7.7433556,46.6615544],[7.7437001,46.6614073],[7.7441026,46.6611968],[7.7443283,46.6610504],[7.7446674,46.6607498],[7.7448839,46.6604919],[7.7452276,46.6600043],[7.7454092,46.6598061],[7.7457365,46.6595335],[7.7459554,46.6593943],[7.7474238,46.6586627],[7.7513006,46.6565189],[7.7517076,46.656337],[7.7521821,46.6561867],[7.7529585,46.6560271],[7.7565888,46.6553972],[7.7570652,46.6552953],[7.7574446,46.6551841],[7.7577764,46.6550616],[7.758684,46.6546646],[7.7590671,46.6545204],[7.7597016,46.6543561],[7.7602255,46.6542893],[7.7606711,46.6542806],[7.761105,46.6543104],[7.7614236,46.6543537],[7.7618812,46.654449],[7.76242,46.6546256],[7.7642549,46.6553847],[7.7647464,46.6555453],[7.7654253,46.6556982],[7.7658096,46.6557533],[7.7663599,46.6557916],[7.7668569,46.6557883],[7.7673579,46.6557502],[7.7681813,46.6556045],[7.7688197,46.6554125],[7.7702918,46.6548331],[7.7708481,46.6546924],[7.7712507,46.6546343],[7.771559,46.6546123],[7.7723686,46.6546293],[7.7728148,46.6546729],[7.7732045,46.654735],[7.7735782,46.6548166],[7.7739499,46.6549282],[7.7746162,46.6551946],[7.7766652,46.6560756],[7.7769906,46.6562001],[7.7773311,46.6563043],[7.7794888,46.6567668],[7.7824033,46.6574469],[7.7831888,46.6575795],[7.7839866,46.6576505],[7.7846553,46.6576661],[7.7863793,46.657656],[7.7868377,46.6576753],[7.7871759,46.6577145],[7.7877123,46.6578349],[7.7881637,46.6579991],[7.7885171,46.658179],[7.7888134,46.6583717],[7.7896576,46.6589973],[7.7900136,46.6592081],[7.7902678,46.6593287],[7.7907833,46.6595053],[7.7920893,46.6597683],[7.7927294,46.659965],[7.7931672,46.660161],[7.7940504,46.6606557],[7.7944341,46.6608333],[7.7947067,46.6609388],[7.7959377,46.6613306],[7.7962552,46.6614678],[7.7973032,46.6619819],[7.7976333,46.6621179],[7.7979256,46.662216],[7.7989529,46.662497],[7.7994894,46.6626982],[7.7998969,46.6629137],[7.8011626,46.66369],[7.801737,46.6639499],[7.8024835,46.6641574],[7.8032387,46.6643268],[7.8038952,46.6644476],[7.8045155,46.6644904],[7.8049147,46.6644805],[7.8053837,46.6644391],[7.8061301,46.6643072],[7.8066863,46.664129],[7.8069787,46.6639921],[7.8073622,46.6637539],[7.8076968,46.6634636],[7.8081083,46.6630345],[7.8082917,46.6628709],[7.8084669,46.662738],[7.8088578,46.6625115],[7.8092857,46.6623334],[7.8103917,46.6619652],[7.8108916,46.6617543],[7.8113236,46.6615203],[7.8125022,46.6607615],[7.8130672,46.6604805],[7.8140389,46.6601189],[7.8146159,46.6599229],[7.8150667,46.659794],[7.8154298,46.6597205],[7.8158977,46.6596642],[7.8163098,46.6596492],[7.8168273,46.6596743],[7.8174269,46.6597537],[7.8186835,46.6599647],[7.8198152,46.6600881],[7.8201335,46.6601467],[7.8206107,46.6602842],[7.8209782,46.6604513],[7.8218527,46.6609066],[7.8221229,46.6610277],[7.8236177,46.6615279],[7.8239407,46.6616996],[7.8242455,46.6618851],[7.8249751,46.6624892],[7.8252604,46.6627021],[7.8256171,46.662906],[7.8265233,46.6633626],[7.8270297,46.6636678],[7.8273989,46.6639409],[7.8282166,46.6646416],[7.828411,46.6647776],[7.828764,46.6649806],[7.8306006,46.6658082],[7.8364621,46.6686162],[7.8388414,46.6696379],[7.8396231,46.6700237],[7.8401545,46.6703151],[7.8405995,46.6705798],[7.8413876,46.6711141],[7.8420146,46.6716003],[7.843868,46.6732193],[7.8443476,46.6735702],[7.8458937,46.6746199],[7.8488336,46.6768233],[7.84965,46.6774567],[7.8500349,46.6778302],[7.8502745,46.6781575],[7.8504181,46.678446],[7.8506593,46.6792069],[7.8508752,46.6801602],[7.8509698,46.6808778],[7.8514463,46.6830555],[7.8517663,46.684458],[7.8518349,46.6847159],[7.8519599,46.6849979],[7.8521637,46.6853237],[7.8524301,46.6856286],[7.8527197,46.6858839],[7.8538281,46.6867246],[7.8540768,46.6869405],[7.8543404,46.6872256],[7.8545778,46.6875856],[7.8550506,46.6884671],[7.8552668,46.6888322],[7.855833,46.6897296],[7.8561057,46.6900327],[7.8562884,46.6901859],[7.8565398,46.6903579],[7.8570181,46.6905966],[7.8574436,46.6907411],[7.8579458,46.6908502],[7.8584719,46.690906],[7.8589637,46.6909048],[7.8592817,46.6908744],[7.8597382,46.6907888],[7.8608061,46.6905133],[7.8611865,46.6904334],[7.8618139,46.6903543],[7.8623652,46.6903389],[7.8629748,46.6903729],[7.8639305,46.6904723],[7.8642236,46.6905308],[7.8650835,46.6907584],[7.8655881,46.6908462],[7.865923,46.6908718],[7.866268,46.6908693],[7.8675934,46.6907612],[7.8679249,46.6907671],[7.868398,46.6908281],[7.8691669,46.691034],[7.8697217,46.6911195]]}}]}