{"type":"FeatureCollection","metadata":{"route":"Jacobite Steam Train: Fort William to Mallaig","source":"OpenStreetMap contributors","sourceUrl":"https://www.openstreetmap.org/copyright","license":"ODbL 1.0","geometryVersion":"2026-08-20","derivedFrom":"Rallii prepared West Highland Line geometry, Fort William–Mallaig segment","relationIds":[3224918],"coordinateCount":1265,"calculatedDistanceKm":66.41},"features":[{"type":"Feature","properties":{"name":"Jacobite Steam Train","coordinateCount":1265,"calculatedDistanceKm":66.41},"geometry":{"type":"LineString","coordinates":[[-5.1056757,56.820425],[-5.103639,56.8208566],[-5.1031742,56.8209555],[-5.1027155,56.8210611],[-5.1023155,56.8211778],[-5.101615,56.821433],[-5.101007,56.8216399],[-5.1005791,56.8217694],[-5.1001253,56.8218838],[-5.1000577,56.8218978],[-5.0997855,56.8219504],[-5.0992644,56.8220398],[-5.0989776,56.8220881],[-5.0980226,56.8222444],[-5.0968521,56.8224384],[-5.0964446,56.822504],[-5.0957762,56.8226241],[-5.0951163,56.8227653],[-5.0943959,56.8229498],[-5.0937858,56.8231299],[-5.0927893,56.8234796],[-5.0919464,56.8238261],[-5.091465,56.8240211],[-5.0910555,56.8242119],[-5.0907381,56.8243776],[-5.0903538,56.8246152],[-5.0900541,56.8248383],[-5.0898673,56.8249961],[-5.0896905,56.8251576],[-5.0894866,56.8253814],[-5.0893165,56.8256003],[-5.0890933,56.8259671],[-5.0888137,56.8265746],[-5.0885026,56.8272357],[-5.0883348,56.8274999],[-5.0882044,56.8276825],[-5.0880468,56.8278773],[-5.0877784,56.8281745],[-5.0875073,56.8284388],[-5.0872743,56.8286474],[-5.0867279,56.8290449],[-5.0854975,56.8298723],[-5.0852257,56.8300536],[-5.0848927,56.8303057],[-5.0846826,56.8304896],[-5.0844204,56.8307598],[-5.0843044,56.8309015],[-5.0841831,56.8310498],[-5.0840254,56.8313188],[-5.0839608,56.8314432],[-5.0838939,56.8316103],[-5.0838685,56.8316855],[-5.083815,56.8319119],[-5.083781,56.8321446],[-5.0837709,56.8325114],[-5.083768,56.8325547],[-5.0837734,56.8326119],[-5.0837733,56.8334912],[-5.08381,56.834137],[-5.0838769,56.8344284],[-5.0840086,56.8348292],[-5.0841092,56.835065],[-5.08431,56.8354049],[-5.0845476,56.8357694],[-5.0848422,56.8361064],[-5.0851093,56.8363735],[-5.0854827,56.8367021],[-5.0856971,56.8368782],[-5.085929,56.8370464],[-5.0865809,56.8375054],[-5.0872385,56.8379629],[-5.0872847,56.8379953],[-5.0912679,56.8407724],[-5.092947,56.8419537],[-5.0943639,56.8429342],[-5.0948586,56.8432529],[-5.0948969,56.8432776],[-5.094956,56.8433147],[-5.0953979,56.8435664],[-5.0958832,56.8438007],[-5.0964481,56.8440443],[-5.0966912,56.8441311],[-5.0967482,56.8441536],[-5.0973713,56.8443649],[-5.097438,56.8443882],[-5.0976143,56.8444433],[-5.0978063,56.8444952],[-5.0982487,56.844606],[-5.0984725,56.8446589],[-5.0986984,56.8447087],[-5.0991657,56.8447985],[-5.0994901,56.844854],[-5.0999091,56.8449154],[-5.100304,56.8449626],[-5.1005118,56.8449838],[-5.100839,56.8450119],[-5.1011754,56.8450324],[-5.1014991,56.845047],[-5.101678,56.8450534],[-5.1018608,56.8450588],[-5.1022206,56.845063],[-5.1024156,56.8450634],[-5.1026145,56.8450606],[-5.1028094,56.8450561],[-5.1029819,56.8450495],[-5.1032762,56.8450347],[-5.1035705,56.8450123],[-5.103856,56.8449884],[-5.1041474,56.8449602],[-5.1047398,56.8449043],[-5.1053381,56.8448451],[-5.107691,56.8446188],[-5.1095136,56.8444279],[-5.1105528,56.8442796],[-5.1112271,56.8441479],[-5.1118915,56.8440114],[-5.1127676,56.8438054],[-5.113623,56.8436047],[-5.1143066,56.8434381],[-5.1150479,56.8432828],[-5.1157971,56.8431361],[-5.1165081,56.8430255],[-5.1172171,56.842933],[-5.1177622,56.8428713],[-5.1183013,56.8428234],[-5.118843,56.842783],[-5.1193924,56.8427523],[-5.1198971,56.8427329],[-5.1204018,56.8427209],[-5.1207608,56.8427187],[-5.1211256,56.8427187],[-5.1214925,56.8427261],[-5.1219672,56.8427419],[-5.1226667,56.8427685],[-5.12308,56.8427842],[-5.123488,56.8427999],[-5.1239377,56.8428173],[-5.1251181,56.8428623],[-5.1257065,56.8428834],[-5.127183,56.8429465],[-5.127612,56.8429721],[-5.1280409,56.843001],[-5.1289241,56.8430673],[-5.1290597,56.8430789],[-5.1293765,56.8431044],[-5.1296955,56.8431289],[-5.1300123,56.8431534],[-5.1303382,56.8431705],[-5.1306242,56.843181],[-5.1309154,56.8431886],[-5.1312067,56.8431926],[-5.1315006,56.8431937],[-5.1319864,56.8431881],[-5.1324854,56.8431768],[-5.1331687,56.8431632],[-5.1343423,56.8431345],[-5.1355106,56.8431059],[-5.1363914,56.8430834],[-5.140071,56.8429905],[-5.1424513,56.842933],[-5.1449135,56.8428744],[-5.1457541,56.8428505],[-5.1465876,56.8428364],[-5.1472582,56.8428502],[-5.1481329,56.8429148],[-5.148982,56.843025],[-5.149478,56.8431299],[-5.1499687,56.8432341],[-5.1503837,56.8433436],[-5.1508013,56.8434741],[-5.1511178,56.8435923],[-5.1512505,56.8436453],[-5.1519203,56.8439036],[-5.1575526,56.8461955],[-5.1606959,56.8474832],[-5.1608569,56.847549],[-5.1623393,56.8481551],[-5.1639994,56.8488026],[-5.1648658,56.8491044],[-5.1657384,56.8494012],[-5.1663564,56.8495858],[-5.166858,56.8497411],[-5.1673566,56.8498797],[-5.1682033,56.8501143],[-5.1690515,56.8503513],[-5.1696714,56.8505241],[-5.1703931,56.8507625],[-5.1707189,56.8508854],[-5.171097,56.8510463],[-5.1716638,56.8513126],[-5.1721703,56.8515824],[-5.1725973,56.8518246],[-5.1730489,56.8520619],[-5.1732547,56.8521649],[-5.1734789,56.8522612],[-5.1736902,56.8523483],[-5.1739076,56.8524254],[-5.174364,56.8525725],[-5.1746644,56.8526612],[-5.1749863,56.8527348],[-5.1754738,56.8528315],[-5.1758624,56.852896],[-5.176254,56.8529447],[-5.1768063,56.8529874],[-5.1771179,56.8530027],[-5.1774418,56.8530112],[-5.178047,56.8530172],[-5.1786584,56.8530149],[-5.1792757,56.8530219],[-5.1798839,56.8530288],[-5.1802574,56.8530462],[-5.1806156,56.8530719],[-5.1810742,56.8531218],[-5.1818456,56.8532216],[-5.1823425,56.853271],[-5.1826429,56.85329],[-5.1829464,56.853299],[-5.1833301,56.8533045],[-5.1837138,56.8532999],[-5.184031,56.8532958],[-5.1843574,56.8532978],[-5.1846776,56.8533074],[-5.1850001,56.8533232],[-5.1853219,56.8533532],[-5.1856438,56.8533895],[-5.1861178,56.8534559],[-5.1866047,56.8535584],[-5.1871492,56.8536916],[-5.1874232,56.853777],[-5.1876881,56.8538698],[-5.1882246,56.8540753],[-5.1887598,56.8542981],[-5.189018,56.8544054],[-5.1893797,56.8545573],[-5.1897969,56.854728],[-5.1900906,56.8548337],[-5.1903957,56.8549332],[-5.1906724,56.8550129],[-5.1909582,56.855084],[-5.1911963,56.8551382],[-5.191439,56.85519],[-5.1916816,56.8552355],[-5.1919311,56.855276],[-5.192221,56.8553146],[-5.1925216,56.8553441],[-5.1928846,56.8553715],[-5.1932032,56.8553898],[-5.193776,56.8554145],[-5.1948813,56.8554885],[-5.1955155,56.8555206],[-5.1959996,56.8555471],[-5.1970901,56.855584],[-5.1975821,56.8555875],[-5.1982001,56.8555887],[-5.1987353,56.8555762],[-5.1997595,56.8555659],[-5.2007972,56.8555562],[-5.2019129,56.8555517],[-5.2030052,56.8555399],[-5.2052336,56.855518],[-5.2063165,56.8555016],[-5.2073031,56.8554916],[-5.2078701,56.8554934],[-5.2143406,56.8554257],[-5.2173166,56.8553124],[-5.222886,56.8549492],[-5.2248702,56.8548389],[-5.2294479,56.8549123],[-5.2328377,56.8549656],[-5.2359695,56.8550286],[-5.2371875,56.8550552],[-5.238833,56.8550739],[-5.2401953,56.855102],[-5.2402184,56.8551023],[-5.2423032,56.8551287],[-5.2435853,56.8551552],[-5.2445213,56.8551484],[-5.2448987,56.8551336],[-5.2458476,56.8551013],[-5.2460245,56.8550953],[-5.2475274,56.8550202],[-5.2493221,56.8549389],[-5.2518306,56.8548],[-5.2531242,56.8547346],[-5.2540372,56.8547007],[-5.2550741,56.8546138],[-5.2559495,56.8545063],[-5.2567871,56.8543723],[-5.2574361,56.8542605],[-5.2587667,56.854013],[-5.2598871,56.8538569],[-5.2605073,56.8537856],[-5.2612804,56.853767],[-5.2619507,56.8537828],[-5.2624497,56.8538161],[-5.2632001,56.853889],[-5.2638324,56.8539848],[-5.264398,56.8540903],[-5.2648565,56.8541838],[-5.2665558,56.8545888],[-5.2673912,56.8547359],[-5.2684686,56.8548721],[-5.2691978,56.8549335],[-5.2703201,56.8549949],[-5.2730785,56.8550602],[-5.2732286,56.8550635],[-5.2763408,56.855131],[-5.2783617,56.8551673],[-5.2808407,56.8552118],[-5.2843632,56.8553343],[-5.2857417,56.8554382],[-5.2860669,56.8554784],[-5.2867588,56.8555358],[-5.2869719,56.8555621],[-5.2879263,56.8556802],[-5.2891343,56.8558297],[-5.2896849,56.8558896],[-5.2903646,56.8559494],[-5.2909652,56.8559993],[-5.2921062,56.8560565],[-5.2934176,56.8561085],[-5.297785,56.8562275],[-5.3023245,56.8563644],[-5.3033335,56.8564079],[-5.3043426,56.8564604],[-5.3056126,56.856555],[-5.3059065,56.856582],[-5.3077681,56.8567751],[-5.3094374,56.8570086],[-5.3110843,56.8572833],[-5.311843,56.8574267],[-5.3125766,56.8575915],[-5.3144897,56.8580276],[-5.3159505,56.8584272],[-5.317404,56.8588426],[-5.317804,56.8589422],[-5.3183413,56.8590598],[-5.3183971,56.8590763],[-5.3192299,56.8592456],[-5.3198478,56.8593435],[-5.3204684,56.8594231],[-5.3211625,56.8594813],[-5.3212321,56.8594879],[-5.3220356,56.8595391],[-5.3234258,56.8596311],[-5.3243747,56.8596774],[-5.3256313,56.8597454],[-5.3269984,56.8598122],[-5.3281841,56.8598762],[-5.3286465,56.8599012],[-5.3292707,56.8599448],[-5.33017,56.8600305],[-5.331181,56.8601522],[-5.3321057,56.8602504],[-5.3331116,56.8603125],[-5.3344104,56.8603244],[-5.3357244,56.8602947],[-5.3383651,56.8602394],[-5.3390516,56.8602107],[-5.3397635,56.8601654],[-5.3411873,56.8600471],[-5.3436886,56.8597766],[-5.3462051,56.8594867],[-5.3475465,56.8593313],[-5.348461,56.8592328],[-5.3497215,56.8590895],[-5.3499664,56.8590665],[-5.3519493,56.8588227],[-5.3571415,56.858241],[-5.3587274,56.8580936],[-5.3596569,56.8580352],[-5.3611789,56.8579959],[-5.3622903,56.8579903],[-5.3634982,56.8580471],[-5.3645266,56.858123],[-5.3655417,56.858228],[-5.3703769,56.8588556],[-5.3775108,56.8597982],[-5.3846194,56.8607249],[-5.3908623,56.8615398],[-5.3925738,56.861758],[-5.3931459,56.861831],[-5.3948738,56.8619735],[-5.3951963,56.8619723],[-5.3956872,56.8619559],[-5.3962676,56.8619231],[-5.3971703,56.8618445],[-5.3979626,56.861744],[-5.3989483,56.8615686],[-5.400849,56.8610768],[-5.4010973,56.8610443],[-5.4019118,56.8609663],[-5.4024314,56.8609479],[-5.4029962,56.8609557],[-5.4034192,56.8609837],[-5.4038049,56.8610321],[-5.4042718,56.8611184],[-5.4047908,56.861245],[-5.4052397,56.861392],[-5.4058528,56.8616779],[-5.4062359,56.8619078],[-5.4070883,56.8624696],[-5.4076217,56.8627874],[-5.4080711,56.8629925],[-5.408928,56.8633342],[-5.4097477,56.8636738],[-5.4113573,56.8642675],[-5.4140593,56.8650015],[-5.4143546,56.8650951],[-5.414697,56.8652135],[-5.41507,56.8654081],[-5.415376,56.8655786],[-5.4156668,56.8657776],[-5.4161121,56.8660903],[-5.4164822,56.8662794],[-5.4169996,56.8665421],[-5.4176404,56.8667645],[-5.4181845,56.8669307],[-5.4199044,56.8674139],[-5.4209916,56.8678206],[-5.4218176,56.8681778],[-5.4225898,56.8685628],[-5.4229385,56.8687753],[-5.4232389,56.8689498],[-5.4235821,56.8691789],[-5.4239711,56.8694526],[-5.4245394,56.8698888],[-5.4264029,56.8713464],[-5.4268962,56.8717477],[-5.4272025,56.8720924],[-5.4274372,56.8724148],[-5.4276005,56.8727401],[-5.4276986,56.8731276],[-5.4277263,56.8735137],[-5.427696,56.8739455],[-5.4277072,56.874217],[-5.4277358,56.874375],[-5.427811,56.8746074],[-5.4280489,56.8749645],[-5.42815,56.8750966],[-5.4282991,56.8752414],[-5.4284799,56.8753845],[-5.4288557,56.8756185],[-5.4292878,56.8758213],[-5.4297678,56.8759889],[-5.4302862,56.876118],[-5.4308326,56.876206],[-5.4313962,56.8762512],[-5.4319659,56.8762527],[-5.4325302,56.8762104],[-5.4330781,56.8761252],[-5.4335987,56.8759988],[-5.4340816,56.8758336],[-5.4344527,56.8756401],[-5.4355583,56.8749574],[-5.436165,56.8746698],[-5.4369563,56.8743826],[-5.4385175,56.8738964],[-5.4408859,56.8732311],[-5.4438931,56.8723875],[-5.4443937,56.8722913],[-5.4449024,56.8722165],[-5.4454722,56.8721477],[-5.4460357,56.8721078],[-5.446513,56.8721063],[-5.4470015,56.8721166],[-5.4473542,56.872136],[-5.4474384,56.8721397],[-5.4475458,56.8721472],[-5.4477224,56.8721577],[-5.4481088,56.8721867],[-5.448502,56.8722462],[-5.4488636,56.8723155],[-5.4489583,56.8723366],[-5.4492726,56.8724121],[-5.4497348,56.872544],[-5.4500777,56.8726505],[-5.4502818,56.8727267],[-5.450545,56.8728249],[-5.4509884,56.8730363],[-5.4513739,56.8731895],[-5.4516885,56.873296],[-5.4520004,56.8733779],[-5.4530572,56.8735907],[-5.4546026,56.8738837],[-5.4551598,56.8739575],[-5.4553351,56.8739866],[-5.4572037,56.8742946],[-5.458206,56.8745071],[-5.4589536,56.8747554],[-5.4597142,56.8751193],[-5.460405,56.8755272],[-5.4609254,56.8757779],[-5.4613594,56.875948],[-5.461757,56.8760805],[-5.4622983,56.8762158],[-5.4628433,56.8763275],[-5.463563,56.8764147],[-5.4642765,56.8764587],[-5.4650543,56.8764488],[-5.4661744,56.8763788],[-5.4666357,56.8763653],[-5.4672146,56.8763833],[-5.4677374,56.8764252],[-5.4682714,56.8765019],[-5.4687913,56.8766062],[-5.4692758,56.8767513],[-5.4697238,56.8769286],[-5.4700696,56.8770818],[-5.4709483,56.877571],[-5.4713586,56.8777505],[-5.471827,56.877912],[-5.4722541,56.8780361],[-5.4727083,56.8781305],[-5.4733572,56.8782186],[-5.4739726,56.8782583],[-5.4745644,56.878262],[-5.4750983,56.8782344],[-5.4759057,56.8781872],[-5.4764258,56.8781782],[-5.4769951,56.8781925],[-5.4774961,56.8782261],[-5.4787912,56.8783532],[-5.4794998,56.8783891],[-5.4800948,56.8783859],[-5.4806331,56.8783607],[-5.4811673,56.8783056],[-5.4834407,56.877951],[-5.4883544,56.8771463],[-5.4894388,56.8770501],[-5.4922038,56.8768743],[-5.4937545,56.8766743],[-5.4952063,56.8763495],[-5.4956506,56.8762527],[-5.4960756,56.8761609],[-5.4964547,56.876084],[-5.4971185,56.8759632],[-5.4976276,56.8758856],[-5.4981347,56.8758253],[-5.4999868,56.8756546],[-5.5032623,56.8753428],[-5.5068457,56.8750196],[-5.5082117,56.8747959],[-5.5093894,56.8745604],[-5.5104946,56.8742568],[-5.5128354,56.8734172],[-5.5136626,56.8731897],[-5.5148035,56.8729893],[-5.5158351,56.872945],[-5.5161183,56.8729499],[-5.5162536,56.8729578],[-5.5163242,56.8729619],[-5.5169684,56.873011],[-5.5174062,56.8730731],[-5.5177431,56.8731361],[-5.5186094,56.8733859],[-5.5192389,56.8736301],[-5.5193438,56.8736649],[-5.519582,56.8737463],[-5.5199987,56.8738665],[-5.5203906,56.8739538],[-5.5206606,56.8740123],[-5.5209416,56.8740561],[-5.5212078,56.8740844],[-5.5217951,56.8741062],[-5.5220414,56.8741043],[-5.5226105,56.8740831],[-5.5233045,56.8740252],[-5.5240834,56.8739843],[-5.5248951,56.8739425],[-5.5255546,56.8739361],[-5.526091,56.8739431],[-5.5266362,56.8739455],[-5.5271717,56.8739671],[-5.5285487,56.8741164],[-5.5298433,56.8741384],[-5.5303881,56.8740839],[-5.530958,56.8739448],[-5.5319547,56.8735389],[-5.5324719,56.8733656],[-5.5330989,56.8732174],[-5.5337474,56.8731396],[-5.5342867,56.8731093],[-5.5347181,56.8731205],[-5.53545,56.8731939],[-5.5366416,56.8733703],[-5.5385551,56.8734208],[-5.5408643,56.8734415],[-5.5422234,56.8732156],[-5.5433384,56.8729653],[-5.5440667,56.8729132],[-5.5446866,56.8728968],[-5.5453042,56.8728658],[-5.5458256,56.8728127],[-5.5461936,56.872761],[-5.5465033,56.8727042],[-5.5465923,56.8726826],[-5.5467574,56.8726311],[-5.5471867,56.872465],[-5.5475917,56.8723114],[-5.548402,56.8720999],[-5.5488626,56.8720042],[-5.5493023,56.8719416],[-5.5500661,56.8718647],[-5.5503628,56.8718592],[-5.5506679,56.87187],[-5.5511964,56.8719162],[-5.5515524,56.8719776],[-5.5519553,56.8720714],[-5.5524074,56.8722006],[-5.5527615,56.8723108],[-5.5531261,56.8724481],[-5.553394,56.8725745],[-5.5536572,56.8727177],[-5.5538411,56.8728295],[-5.554037,56.8729861],[-5.5543192,56.8732656],[-5.5546332,56.8735664],[-5.5550767,56.8740702],[-5.5553053,56.8742597],[-5.5556116,56.8744519],[-5.5559879,56.8746568],[-5.5563318,56.8748047],[-5.5567426,56.874949],[-5.5575596,56.8752081],[-5.5579495,56.8753438],[-5.5584992,56.8755607],[-5.5600013,56.8762461],[-5.5607719,56.876604],[-5.5612914,56.8768338],[-5.5616802,56.8769823],[-5.5620198,56.8770905],[-5.5630696,56.8773641],[-5.5635954,56.8774803],[-5.5640695,56.8775543],[-5.5645788,56.8776205],[-5.5651373,56.8776817],[-5.5656758,56.8777246],[-5.5661164,56.8777431],[-5.5665571,56.8777516],[-5.5673032,56.877737],[-5.5677487,56.877698],[-5.5682508,56.8776407],[-5.5687897,56.877559],[-5.5693574,56.8774555],[-5.5697152,56.8773709],[-5.5700761,56.877268],[-5.5704816,56.8771335],[-5.570964,56.8769494],[-5.5713995,56.8767654],[-5.5718364,56.8765781],[-5.5728185,56.8761089],[-5.5734875,56.8757942],[-5.5739373,56.8756149],[-5.5742907,56.8755009],[-5.5746366,56.8753938],[-5.5749318,56.8753239],[-5.5752909,56.8752468],[-5.5757351,56.8751832],[-5.5762328,56.8751478],[-5.5765759,56.8751387],[-5.5770235,56.875146],[-5.577343,56.8751592],[-5.5777637,56.8752102],[-5.5781611,56.8752678],[-5.5785924,56.8753495],[-5.5789603,56.8754282],[-5.579195,56.8754909],[-5.5808445,56.8760268],[-5.5826582,56.8766109],[-5.5840673,56.8770647],[-5.5868432,56.8778478],[-5.5886746,56.87814],[-5.5913064,56.8785364],[-5.5932356,56.8784789],[-5.5945059,56.8785175],[-5.5956628,56.8786132],[-5.5969235,56.8789129],[-5.5986191,56.8790853],[-5.6003817,56.878983],[-5.6018188,56.8788874],[-5.6029407,56.8789321],[-5.6040418,56.8791504],[-5.6057816,56.8793152],[-5.6069972,56.8791295],[-5.6082831,56.878765],[-5.6094732,56.8785552],[-5.610384,56.8785364],[-5.6113882,56.8786387],[-5.6136531,56.8792383],[-5.6162888,56.8800205],[-5.6178864,56.8803432],[-5.6187151,56.8803492],[-5.6206554,56.8803492],[-5.6223186,56.8804043],[-5.623215,56.880509],[-5.6238676,56.880662],[-5.6249999,56.8808457],[-5.626358,56.8808905],[-5.6280879,56.880841],[-5.6291481,56.8809854],[-5.6301106,56.881249],[-5.6308748,56.8816853],[-5.6312296,56.8820369],[-5.6315981,56.8826728],[-5.6316337,56.8832714],[-5.631562,56.8835728],[-5.6314718,56.8838499],[-5.6314137,56.88407],[-5.6313805,56.8844592],[-5.6313707,56.8845742],[-5.6314733,56.8850688],[-5.6315648,56.885205],[-5.6316563,56.8853412],[-5.6318698,56.8856589],[-5.6324022,56.8861113],[-5.6325861,56.8862462],[-5.6331478,56.8865688],[-5.6341726,56.8869502],[-5.6349598,56.8871185],[-5.6354281,56.8871879],[-5.6358206,56.887246],[-5.6364447,56.887283],[-5.6365502,56.8872835],[-5.6367284,56.8872883],[-5.6375578,56.88728],[-5.6394355,56.8870799],[-5.6412431,56.8868464],[-5.6445532,56.8864453],[-5.6474586,56.8860533],[-5.6487912,56.8858789],[-5.6495099,56.8857879],[-5.6499301,56.8857299],[-5.6509123,56.8855428],[-5.6526894,56.8851773],[-5.6535751,56.8849889],[-5.654141,56.8848604],[-5.6546058,56.8847181],[-5.6549721,56.8845716],[-5.6558551,56.8841355],[-5.6564332,56.8838561],[-5.6569606,56.883682],[-5.6574242,56.8835628],[-5.6579272,56.8834698],[-5.6583435,56.8834232],[-5.658914,56.8833664],[-5.6592684,56.8833475],[-5.659669,56.8833432],[-5.6602727,56.8833356],[-5.6607323,56.8832944],[-5.6611131,56.883238],[-5.6614877,56.8831557],[-5.6618843,56.8830067],[-5.6621639,56.8828635],[-5.6624431,56.8826968],[-5.6626668,56.882521],[-5.6628435,56.8823407],[-5.6630577,56.8821054],[-5.663136,56.8819656],[-5.6632095,56.8817882],[-5.6633405,56.8814441],[-5.6635948,56.8808092],[-5.663752,56.8804795],[-5.6639211,56.8802647],[-5.6641507,56.8800807],[-5.6644456,56.8798466],[-5.6650674,56.8795131],[-5.6658474,56.8792148],[-5.666347,56.8791077],[-5.6669471,56.8790111],[-5.667645,56.8789229],[-5.6681791,56.8789112],[-5.6684907,56.8789136],[-5.6689308,56.8789414],[-5.6693833,56.8789822],[-5.6695075,56.8789952],[-5.6714714,56.8791913],[-5.6719297,56.8792468],[-5.6725559,56.8793369],[-5.6729217,56.8794213],[-5.673319,56.8795662],[-5.6736559,56.8796871],[-5.6739823,56.879831],[-5.6743692,56.8800881],[-5.6747069,56.8803663],[-5.6750947,56.8807381],[-5.675372,56.8809528],[-5.6757019,56.8811484],[-5.6761378,56.8813206],[-5.6763616,56.88139],[-5.6766064,56.8814556],[-5.6768638,56.8815079],[-5.6771458,56.8815468],[-5.6775304,56.8815773],[-5.6779693,56.8815812],[-5.6788962,56.8815184],[-5.6799463,56.8814285],[-5.6809928,56.881329],[-5.6815755,56.8812279],[-5.682246,56.8810807],[-5.6825639,56.8810268],[-5.6828853,56.8809882],[-5.6833452,56.8809772],[-5.6836374,56.8809808],[-5.683979,56.8810058],[-5.6843224,56.8810569],[-5.6845632,56.8811099],[-5.685028,56.8812378],[-5.6854264,56.8813648],[-5.6856933,56.8814496],[-5.6861245,56.8815492],[-5.6866217,56.8816136],[-5.6870385,56.8816355],[-5.687475,56.8816341],[-5.6879763,56.8815866],[-5.688467,56.8815181],[-5.6890063,56.8814863],[-5.6892777,56.8814836],[-5.689549,56.8814944],[-5.6900425,56.8815473],[-5.6904448,56.8816232],[-5.6907134,56.88169],[-5.6910347,56.8818023],[-5.6920504,56.8821734],[-5.6931201,56.8825662],[-5.693673,56.8827449],[-5.6942258,56.8829068],[-5.6946865,56.8830015],[-5.6951786,56.8830865],[-5.6957138,56.8831647],[-5.6963414,56.8832125],[-5.6969185,56.8832421],[-5.6973928,56.8832271],[-5.69778,56.883199],[-5.6981841,56.8831495],[-5.6984339,56.8831093],[-5.69897,56.8829912],[-5.6996512,56.8827919],[-5.7002279,56.882597],[-5.7010608,56.8823571],[-5.7020485,56.8822203],[-5.703106,56.882254],[-5.7042043,56.8824917],[-5.7053893,56.8829187],[-5.7068455,56.8835977],[-5.7077744,56.8840174],[-5.7092066,56.8844033],[-5.7097739,56.8845973],[-5.7100716,56.8847424],[-5.710641,56.8850978],[-5.7109435,56.885399],[-5.7112652,56.8858633],[-5.7115442,56.8863469],[-5.7120806,56.8872099],[-5.7123461,56.887648],[-5.7126422,56.8880404],[-5.7128972,56.8882605],[-5.7131909,56.888419],[-5.7136385,56.8886001],[-5.7138656,56.8886825],[-5.7140809,56.8887584],[-5.7142397,56.8887977],[-5.7144986,56.8888605],[-5.7148196,56.888899],[-5.7152397,56.8889214],[-5.715626,56.8889376],[-5.716387,56.8889369],[-5.7169289,56.8889459],[-5.7175233,56.8889963],[-5.7190463,56.8892675],[-5.721921,56.8897567],[-5.7225631,56.8897957],[-5.7238039,56.8897652],[-5.7256457,56.8896729],[-5.7265618,56.8896738],[-5.7277298,56.8898877],[-5.7288197,56.8903033],[-5.7296522,56.8909423],[-5.7299322,56.8913163],[-5.7300702,56.8914912],[-5.7301936,56.8917007],[-5.7306824,56.8928813],[-5.7308961,56.8933793],[-5.7311412,56.8938748],[-5.7312805,56.8941981],[-5.7316817,56.8951022],[-5.7318969,56.895508],[-5.7320045,56.8956153],[-5.7322592,56.8958464],[-5.7324623,56.8959768],[-5.7330636,56.8962485],[-5.7335475,56.8964068],[-5.7339947,56.8964958],[-5.7343645,56.8965248],[-5.734876,56.8965443],[-5.7359488,56.8965861],[-5.7364214,56.8966628],[-5.7369656,56.8968023],[-5.7377881,56.8970259],[-5.738396,56.8971262],[-5.7393033,56.8971337],[-5.7400523,56.8970135],[-5.7415252,56.8966802],[-5.7424107,56.8965584],[-5.7433511,56.8965029],[-5.7440489,56.8964666],[-5.7446283,56.8963879],[-5.7453629,56.8962323],[-5.7463923,56.8959883],[-5.7470604,56.8958397],[-5.7476102,56.8957621],[-5.7479576,56.895744],[-5.7483371,56.8957424],[-5.7486463,56.8957588],[-5.7491482,56.8958038],[-5.7492998,56.8958439],[-5.750001,56.8960951],[-5.7504945,56.8962784],[-5.7508112,56.8964245],[-5.7512258,56.8967223],[-5.751693,56.8971032],[-5.7526263,56.8980718],[-5.7535648,56.8990977],[-5.7540754,56.899702],[-5.7541741,56.8998279],[-5.7543854,56.900046],[-5.7546452,56.9002175],[-5.7548578,56.9003425],[-5.7550303,56.9004309],[-5.755349,56.9005441],[-5.7556613,56.9006478],[-5.7560588,56.9007256],[-5.7563944,56.9007857],[-5.7568744,56.9008377],[-5.7573302,56.900834],[-5.7576356,56.9008179],[-5.7578621,56.9007915],[-5.7589219,56.9006076],[-5.7596779,56.900448],[-5.7604725,56.9002853],[-5.7609264,56.9002014],[-5.7616687,56.9001384],[-5.7624716,56.9001],[-5.7629284,56.9000906],[-5.7639659,56.9000453],[-5.7650323,56.9000068],[-5.7660139,56.899966],[-5.766623,56.8999558],[-5.7672211,56.8999692],[-5.7683803,56.9000543],[-5.7687781,56.9000882],[-5.769055,56.9001184],[-5.7698499,56.9001837],[-5.7701232,56.9002004],[-5.7704062,56.9002084],[-5.7709997,56.9002172],[-5.7717067,56.9002141],[-5.7723473,56.9002083],[-5.7741355,56.9001853],[-5.7747013,56.9002024],[-5.7752684,56.9002429],[-5.7756968,56.9002968],[-5.7761892,56.9003798],[-5.7766346,56.9004771],[-5.7770737,56.9005798],[-5.7776556,56.9007647],[-5.7781632,56.900969],[-5.7787074,56.9012177],[-5.7791745,56.9015213],[-5.779771,56.9020007],[-5.7801896,56.9023264],[-5.7806659,56.9026354],[-5.7813343,56.9029212],[-5.7819604,56.9031498],[-5.7825029,56.9032774],[-5.7830199,56.9033804],[-5.783558,56.9034299],[-5.7840242,56.9034486],[-5.7845647,56.903435],[-5.7850047,56.9034022],[-5.7855316,56.903346],[-5.7860185,56.9032552],[-5.7864985,56.9031316],[-5.7868838,56.9030001],[-5.7873114,56.9028347],[-5.7876509,56.9026942],[-5.788662,56.9022759],[-5.7891769,56.9020635],[-5.7894288,56.9019704],[-5.7897062,56.9018774],[-5.7908912,56.9015822],[-5.7923364,56.9013443],[-5.7940421,56.9013094],[-5.7954445,56.9014316],[-5.7969697,56.9016971],[-5.7993634,56.9023281],[-5.8018196,56.9030193],[-5.8046949,56.9036403],[-5.8077097,56.9039122],[-5.8094247,56.9043009],[-5.8110771,56.9047076],[-5.8111864,56.9047357],[-5.8124014,56.9051272],[-5.8143219,56.9057224],[-5.8160267,56.9062941],[-5.8188752,56.9071939],[-5.8202398,56.9076562],[-5.821264,56.9081069],[-5.8218614,56.9086525],[-5.8220431,56.9090545],[-5.822057,56.9094991],[-5.8219639,56.9097984],[-5.8217602,56.9100806],[-5.8214677,56.9104196],[-5.8212126,56.9107634],[-5.8210942,56.9111819],[-5.8211215,56.9115382],[-5.8213265,56.9119917],[-5.8217956,56.9123828],[-5.8222647,56.9126693],[-5.8228568,56.912891],[-5.8234169,56.9130156],[-5.8239589,56.9130629],[-5.8246922,56.9130429],[-5.8266597,56.9128735],[-5.8300254,56.9125846],[-5.8310787,56.912515],[-5.8315713,56.9124892],[-5.8318262,56.9124856],[-5.832358,56.9124865],[-5.8326445,56.9124914],[-5.8330509,56.9125139],[-5.8345172,56.9126109],[-5.8351536,56.9126527],[-5.835989,56.9127111],[-5.8363824,56.912749],[-5.836788,56.9127905],[-5.8373951,56.9128315],[-5.8387834,56.9129186],[-5.8395048,56.912968],[-5.8401909,56.913015],[-5.84056,56.9130398],[-5.84118,56.9130571],[-5.8414023,56.9130742],[-5.8416786,56.9130964],[-5.8419509,56.9131274],[-5.842185,56.9131663],[-5.8424807,56.9132286],[-5.8428458,56.9133281],[-5.8431539,56.9134322],[-5.8434067,56.9135397],[-5.8436268,56.9136485],[-5.8438529,56.9137764],[-5.8440434,56.9139016],[-5.8443008,56.914109],[-5.8443949,56.9142066],[-5.8445399,56.9143653],[-5.8446298,56.9144915],[-5.8447108,56.9146395],[-5.8447828,56.9148049],[-5.8448161,56.9149892],[-5.8448812,56.9156311],[-5.84491,56.916273],[-5.8449481,56.9167144],[-5.8450043,56.9171496],[-5.8451579,56.9176659],[-5.8454172,56.9183001],[-5.8458155,56.9191337],[-5.8458781,56.9195894],[-5.8458589,56.919883],[-5.8457677,56.9201005],[-5.8456834,56.9203168],[-5.8454028,56.9206429],[-5.8450763,56.920939],[-5.8443854,56.9213107],[-5.8438434,56.9214875],[-5.8432058,56.9216419],[-5.8424316,56.9217216],[-5.8416892,56.9217615],[-5.8407737,56.9218711],[-5.8399813,56.9220703],[-5.8389612,56.9224713],[-5.838613,56.9225829],[-5.8380751,56.9226959],[-5.8372454,56.9228025],[-5.8366603,56.9229034],[-5.8364913,56.9229314],[-5.8361006,56.9230305],[-5.8356604,56.9231816],[-5.835299,56.9233455],[-5.8348996,56.923573],[-5.8345032,56.9238752],[-5.833929,56.9242681],[-5.8336404,56.9244097],[-5.8332788,56.9245747],[-5.8323674,56.9248145],[-5.8314442,56.924926],[-5.8306937,56.9249316],[-5.8299033,56.9249026],[-5.8293039,56.9249643],[-5.8285055,56.9251276],[-5.8280241,56.9253171],[-5.8274416,56.9256857],[-5.8263296,56.9265254],[-5.8249288,56.9275493],[-5.8242837,56.9279205],[-5.8237359,56.9281676],[-5.8229541,56.9284044],[-5.8223051,56.9286365],[-5.8217707,56.9289134],[-5.8212635,56.9292076],[-5.821042,56.929381],[-5.8208467,56.9295814],[-5.8206106,56.9299202],[-5.8204065,56.9303322],[-5.8202899,56.9307791],[-5.8201615,56.9312943],[-5.8199635,56.9322403],[-5.8185791,56.9386794],[-5.8182037,56.9405555],[-5.8180689,56.9413423],[-5.8180593,56.9418212],[-5.8181604,56.9427316],[-5.8185791,56.9443365],[-5.8193012,56.9466571],[-5.8199463,56.9486249],[-5.8200913,56.9492542],[-5.8201918,56.9502243],[-5.8202063,56.9511187],[-5.8201533,56.9520367],[-5.8201051,56.9532363],[-5.819956,56.9537202],[-5.819436,56.9547355],[-5.8183529,56.9566661],[-5.8177996,56.9574598],[-5.8168994,56.9588128],[-5.8166382,56.9592986],[-5.8165625,56.9596772],[-5.8166579,56.9610312],[-5.8165881,56.9614447],[-5.8165507,56.9616298],[-5.8164628,56.9619041],[-5.8163475,56.9621376],[-5.8160162,56.9626806],[-5.8156382,56.9632412],[-5.8154897,56.9635361],[-5.8154426,56.9636832],[-5.8154233,56.9638657],[-5.8154518,56.9641737],[-5.8155268,56.9644893],[-5.8156299,56.9647126],[-5.8157509,56.964933],[-5.815897,56.9651321],[-5.8160246,56.9652792],[-5.8162342,56.9654875],[-5.8163985,56.9656319],[-5.8165924,56.9657803],[-5.8168374,56.9659288],[-5.8170812,56.9660658],[-5.8174077,56.9662249],[-5.8178062,56.9663975],[-5.8180126,56.966479],[-5.8184044,56.9666053],[-5.8188953,56.9667403],[-5.8194124,56.966883],[-5.8197384,56.9669862],[-5.8200572,56.9671025],[-5.8203804,56.967249],[-5.8205383,56.9673317],[-5.8207488,56.967453],[-5.8208935,56.9675453],[-5.8210147,56.9676289],[-5.8212041,56.9677797],[-5.821401,56.9679582],[-5.8215822,56.9681525],[-5.8217806,56.9684487],[-5.8218952,56.9686862],[-5.8220172,56.968939],[-5.8222355,56.969501],[-5.8223622,56.9700747],[-5.8224166,56.9706411],[-5.8223805,56.9711065],[-5.8222639,56.9722107],[-5.8221745,56.9730204],[-5.8221785,56.9736406],[-5.8221792,56.9737402],[-5.8222874,56.9743519],[-5.822513,56.9748898],[-5.8225779,56.975055],[-5.8230169,56.9758632],[-5.82353,56.9764132],[-5.8239488,56.9767602],[-5.8250691,56.9774207],[-5.8262282,56.9780819],[-5.8267887,56.978493],[-5.8271628,56.9788724],[-5.8275469,56.979487],[-5.827724,56.9800504],[-5.8277271,56.9804644],[-5.827637,56.9809732],[-5.8274634,56.9813706],[-5.8272429,56.9817007],[-5.8268789,56.9821584],[-5.8261141,56.9831156],[-5.825533,56.9837958],[-5.825149,56.984361],[-5.8248951,56.9848588],[-5.8246947,56.9853821],[-5.8245344,56.9861679],[-5.8245511,56.9871416],[-5.8247211,56.9878635],[-5.8249853,56.9885582],[-5.8254862,56.9894041],[-5.8256703,56.9896687],[-5.8259047,56.9899322],[-5.8264769,56.990609],[-5.8265777,56.9907765],[-5.826645,56.9909488],[-5.8266872,56.9910999],[-5.8267069,56.9912559],[-5.8267242,56.9915643],[-5.8267403,56.9917531],[-5.8267922,56.991948],[-5.8268822,56.9921488],[-5.8269834,56.9923392],[-5.8271323,56.9925486],[-5.8272768,56.9926875],[-5.827436,56.9928208],[-5.8275491,56.9928959],[-5.8277817,56.9930399],[-5.8287408,56.9935494],[-5.8292123,56.9938036],[-5.8295821,56.9940207],[-5.8298361,56.9941889],[-5.8300812,56.9943656],[-5.8304092,56.994634],[-5.8307081,56.9949096],[-5.8308529,56.9950715],[-5.8309909,56.9952383],[-5.8311127,56.9954053],[-5.8312256,56.9955784],[-5.8314057,56.9959317],[-5.8315791,56.996285],[-5.8317767,56.9966344],[-5.8319135,56.996849],[-5.8320659,56.9970598],[-5.8329449,56.9983657],[-5.8333084,56.9990632],[-5.8334667,56.9997448],[-5.8334609,57.0002024],[-5.8334015,57.000665],[-5.8333087,57.0011662],[-5.8331383,57.0015079],[-5.8323586,57.0027398],[-5.8316141,57.0038461],[-5.8314257,57.004136],[-5.8312298,57.0043575],[-5.8310334,57.0046341],[-5.8309103,57.0048104],[-5.8308273,57.0049134],[-5.830707,57.0050297],[-5.8304603,57.0052444],[-5.8302751,57.0054025],[-5.8300543,57.0055816],[-5.8298923,57.0056925]]}}]}
