{"type":"FeatureCollection","metadata":{"osmRelationIds":[331109],"contributingWayIds":[31140615,31140750,31140749,31142910,31140958,31142911,31140994,31142898,31141007,31142899,31141013,31142900,31141015,31142902,31141060,31142903,31141213,43869871,43869896,31142904,31141223,31142905,31141243,31142906,31141256,31142908,31141305,31141519,31275517,86813714,31141548,31141447,31141443,31141417,31141345,31141383,31141397,31275390,31262577,31262573,86812345,86813053,86813052,86813030,86813029,86813017,86813016,86812991,86812990,86812609,86812607,86812472,86812473,86812346,86812342,86812402,1256918339,1256918340,1256918342,1256918343,86812404,86812403,86812337,86812184,86812185,86812191,86812190,86812188,86812189,1485871457,1485871465,86812136,86812135,86812134,86812133,86812132,86812141,86812139,86812140,86812138,86812137,86812017,86812016,86812015,86812014,86812022,86812021,86812020,86812019,86812018,86812027,86812029,86811639,86812026,86812025,86812024,86812023,86811638,86811637,86811636,86811635,86811634,86811641,86811640,86706928,86706916,86706908,86706893,86706890,86706935,86705588,86705584,86704895,86704891,86704890,86704887,86702521,86702518,86702515,86702512,86702280,86702279,86702246,86702245,86702244,86702243,86702204,86702203,86702176,86702173,315397512,315397511,86701814,86701813,86701812,86701811,86701280,86701279,86701278,86701276,86700377,86700376,86700375,86700373,86700130,86700129,86700049,86700048,86700047,86699697,86699695,86699692,86697635,86697642,86697626,86697621,86697613,86697677,86694555,86694553,86694552,86694551,86694550,86694561,86693728,86693718,86693713,86693710,86692604,86692595,699847343,699847344,86691853,86691850,86691189,86691182,86691177,1192814399,1192814400,86691158,86690310,86690294,86690337,86690328,86684558,86684549,86684546,86684544,724286021,724286022,86682377,86682368,86680989,86680984,86680979,86680973,86680970,86680999,86657948,86657941,86657933,86657908,86655749,86655753,86655741,86655732,86640092,86640091,86640090,86640089,86639812,86639801,86639799,86639796,86638356,86638358,86637799,86637776,86637806,86637772,86634957,86636933,86636931,86636056,86636055,86636053,86636054,86635545,87077906,93177686],"endpointSnapKm":[0.026,0.015],"coordinateCount":3997,"calculatedDistanceKm":94.82,"orientation":"Kalka to Shimla","source":"OpenStreetMap","license":"ODbL"},"features":[{"type":"Feature","properties":{"osmRelationIds":[331109],"contributingWayIds":[31140615,31140750,31140749,31142910,31140958,31142911,31140994,31142898,31141007,31142899,31141013,31142900,31141015,31142902,31141060,31142903,31141213,43869871,43869896,31142904,31141223,31142905,31141243,31142906,31141256,31142908,31141305,31141519,31275517,86813714,31141548,31141447,31141443,31141417,31141345,31141383,31141397,31275390,31262577,31262573,86812345,86813053,86813052,86813030,86813029,86813017,86813016,86812991,86812990,86812609,86812607,86812472,86812473,86812346,86812342,86812402,1256918339,1256918340,1256918342,1256918343,86812404,86812403,86812337,86812184,86812185,86812191,86812190,86812188,86812189,1485871457,1485871465,86812136,86812135,86812134,86812133,86812132,86812141,86812139,86812140,86812138,86812137,86812017,86812016,86812015,86812014,86812022,86812021,86812020,86812019,86812018,86812027,86812029,86811639,86812026,86812025,86812024,86812023,86811638,86811637,86811636,86811635,86811634,86811641,86811640,86706928,86706916,86706908,86706893,86706890,86706935,86705588,86705584,86704895,86704891,86704890,86704887,86702521,86702518,86702515,86702512,86702280,86702279,86702246,86702245,86702244,86702243,86702204,86702203,86702176,86702173,315397512,315397511,86701814,86701813,86701812,86701811,86701280,86701279,86701278,86701276,86700377,86700376,86700375,86700373,86700130,86700129,86700049,86700048,86700047,86699697,86699695,86699692,86697635,86697642,86697626,86697621,86697613,86697677,86694555,86694553,86694552,86694551,86694550,86694561,86693728,86693718,86693713,86693710,86692604,86692595,699847343,699847344,86691853,86691850,86691189,86691182,86691177,1192814399,1192814400,86691158,86690310,86690294,86690337,86690328,86684558,86684549,86684546,86684544,724286021,724286022,86682377,86682368,86680989,86680984,86680979,86680973,86680970,86680999,86657948,86657941,86657933,86657908,86655749,86655753,86655741,86655732,86640092,86640091,86640090,86640089,86639812,86639801,86639799,86639796,86638356,86638358,86637799,86637776,86637806,86637772,86634957,86636933,86636931,86636056,86636055,86636053,86636054,86635545,87077906,93177686],"endpointSnapKm":[0.026,0.015],"coordinateCount":3997,"calculatedDistanceKm":94.82,"orientation":"Kalka to Shimla"},"geometry":{"type":"LineString","coordinates":[[76.9318366,30.8392659],[76.9312435,30.8402291],[76.9311099,30.8404392],[76.9309474,30.8406154],[76.9308642,30.8407501],[76.9307882,30.8409022],[76.9307641,30.8409928],[76.9307402,30.8411001],[76.9307378,30.8412217],[76.9307732,30.8413643],[76.9308088,30.8414377],[76.9308544,30.8415279],[76.9309361,30.8416341],[76.9310438,30.8417418],[76.9314271,30.8420855],[76.9319509,30.8425473],[76.9332229,30.8437274],[76.9337859,30.8442453],[76.9338972,30.8443391],[76.9339679,30.8443729],[76.9340865,30.8444194],[76.9341893,30.8444426],[76.9343338,30.8444622],[76.9344648,30.8444488],[76.9345817,30.8444166],[76.9346829,30.8443709],[76.9348239,30.8442782],[76.935069,30.8440812],[76.9364968,30.8427442],[76.9380289,30.8413841],[76.939021,30.8405122],[76.9391632,30.8403846],[76.9392815,30.8403029],[76.9393917,30.8402349],[76.9395046,30.8401921],[76.9396283,30.8401723],[76.9397426,30.8401811],[76.9398702,30.8402105],[76.9400209,30.8402547],[76.9401266,30.840306],[76.9402001,30.8403597],[76.9402581,30.840436],[76.9402999,30.8405122],[76.9403353,30.84059],[76.9403546,30.8406725],[76.940364,30.8407648],[76.9403573,30.8411197],[76.9403579,30.84319],[76.9403959,30.8433443],[76.9404418,30.8434343],[76.9405038,30.8435014],[76.9406038,30.843555],[76.9406196,30.8435635],[76.9407167,30.8435923],[76.9408457,30.8435791],[76.9409318,30.8435543],[76.9410332,30.8434894],[76.9411496,30.8433733],[76.9418067,30.8426078],[76.9418668,30.8424807],[76.9418792,30.8423693],[76.9418792,30.8422735],[76.941862,30.8421408],[76.9416914,30.8414131],[76.9416903,30.8412712],[76.9417075,30.8411828],[76.9418192,30.8409148],[76.9420852,30.8402764],[76.942193,30.8399913],[76.9422576,30.8398884],[76.9423491,30.8398107],[76.9424285,30.8397679],[76.9425476,30.8397342],[76.9426495,30.8397322],[76.9427676,30.8397485],[76.9428769,30.8397997],[76.9429757,30.8398849],[76.9430775,30.840029],[76.9432074,30.8402948],[76.9434252,30.8407591],[76.9435239,30.8409267],[76.9436183,30.8410511],[76.9437504,30.8412198],[76.9442131,30.8417404],[76.9443817,30.8419442],[76.9445535,30.8420922],[76.9447196,30.842198],[76.945055,30.8423615],[76.9455826,30.8426176],[76.9457591,30.8427156],[76.945922,30.8428522],[76.94606,30.8429895],[76.9467376,30.8436917],[76.9471274,30.8440613],[76.9473562,30.8442811],[76.947507,30.8444137],[76.9476467,30.8444992],[76.9477703,30.8445362],[76.9479066,30.8445747],[76.9480563,30.844604],[76.9483398,30.8446551],[76.9485509,30.8446763],[76.9486377,30.8446569],[76.9487582,30.8446249],[76.9488672,30.8445695],[76.9489261,30.8445225],[76.9489793,30.844465],[76.9490276,30.8443761],[76.9490768,30.8442631],[76.9490865,30.8440867],[76.9490799,30.8439497],[76.9490632,30.843541],[76.9490117,30.8433715],[76.9489119,30.8431996],[76.9482403,30.8422919],[76.9481872,30.8421633],[76.948184,30.8420505],[76.9482229,30.8419667],[76.9482618,30.8418944],[76.9483079,30.841846],[76.9484125,30.8417834],[76.9485345,30.8417641],[76.94867,30.8417746],[76.9487553,30.8418083],[76.9488438,30.8418704],[76.9489098,30.8419464],[76.9489484,30.8420321],[76.9489607,30.8421325],[76.9489543,30.8422698],[76.9489449,30.8423813],[76.9489382,30.8424835],[76.9489382,30.8426087],[76.948965,30.8427575],[76.9490674,30.8429869],[76.9492585,30.8433218],[76.9493496,30.8435078],[76.9494151,30.8436584],[76.9495009,30.8439168],[76.9495481,30.8440347],[76.9496264,30.8441365],[76.9497423,30.8442198],[76.9500691,30.8444046],[76.950377,30.844581],[76.9507476,30.8447679],[76.9509815,30.8448518],[76.9512336,30.8449664],[76.951379,30.8450454],[76.9515673,30.8451912],[76.9518151,30.845427],[76.9520158,30.8456338],[76.9520984,30.8457784],[76.9522304,30.8464223],[76.9522829,30.8465991],[76.9523575,30.8467253],[76.9524662,30.8468165],[76.9525936,30.846857],[76.9527462,30.846857],[76.9528586,30.8468202],[76.9529763,30.8467484],[76.9530404,30.8466581],[76.9530704,30.846553],[76.9530607,30.8464577],[76.9530055,30.8463624],[76.9528988,30.846226],[76.9527598,30.8460557],[76.9526059,30.8458788],[76.9515968,30.8449453],[76.9512948,30.8446684],[76.9511661,30.8444916],[76.9510974,30.8443368],[76.9510469,30.8441516],[76.9510421,30.8439803],[76.9510577,30.8438284],[76.9511146,30.8437104],[76.9512058,30.843604],[76.951394,30.8434691],[76.9518012,30.8431946],[76.9519948,30.843125],[76.9521418,30.8431089],[76.9523817,30.8431302],[76.9542527,30.8433263],[76.9544104,30.8433664],[76.954544,30.8434341],[76.9546138,30.8435166],[76.9546344,30.8436287],[76.9546202,30.8437316],[76.9545821,30.8438284],[76.9544753,30.8439394],[76.9543823,30.8439953],[76.9542517,30.8440168],[76.9538413,30.843973],[76.9537109,30.8439683],[76.9535859,30.843973],[76.9534571,30.8439941],[76.9533678,30.8440246],[76.9532544,30.8440734],[76.9527196,30.8444179],[76.9525651,30.8445284],[76.952505,30.844639],[76.9524964,30.8447569],[76.9525308,30.8448895],[76.9525864,30.8449944],[76.9526959,30.8450666],[76.9528282,30.8451063],[76.9529752,30.8451193],[76.953204,30.8450842],[76.9544871,30.8447196],[76.9546298,30.8446949],[76.954786,30.844691],[76.9550054,30.8447278],[76.9551861,30.8447928],[76.9559876,30.8450461],[76.9561673,30.8450733],[76.9562966,30.8450567],[76.9564307,30.8449992],[76.9565069,30.8449314],[76.956583,30.8448269],[76.9566967,30.8446546],[76.957009,30.8441821],[76.9571227,30.8440494],[76.9572482,30.8439764],[76.957363,30.8439311],[76.9576683,30.8438186],[76.9580556,30.8437132],[76.9581945,30.8436409],[76.9582675,30.8435338],[76.9582975,30.8434129],[76.9582879,30.8433033],[76.958224,30.8431891],[76.9578877,30.8428238],[76.9577901,30.8426926],[76.9577305,30.8425806],[76.9577407,30.8424665],[76.9578083,30.842364],[76.9578866,30.8423029],[76.9580068,30.8422219],[76.9590442,30.8415761],[76.9596711,30.8412535],[76.9598296,30.8411819],[76.9599717,30.8411013],[76.9600839,30.8409838],[76.9602384,30.8408153],[76.9607018,30.8402911],[76.9608702,30.840111],[76.9609797,30.8400352],[76.9610891,30.8400033],[76.9612168,30.8399816],[76.9613498,30.8399898],[76.9614893,30.8400202],[76.9616234,30.8400737],[76.9617951,30.8401553],[76.96236,30.840416],[76.9625188,30.8404569],[76.9626607,30.8404583],[76.962773,30.8404229],[76.962883,30.8403561],[76.96295,30.8402515],[76.9629571,30.840153],[76.9629404,30.8400613],[76.9628476,30.8399327],[76.9626244,30.8396647],[76.9625209,30.8395325],[76.9624518,30.8394224],[76.9624271,30.8393146],[76.9624764,30.8391792],[76.9625606,30.8390922],[76.9626835,30.8390433],[76.9628079,30.8390422],[76.9629378,30.8390595],[76.9630971,30.839106],[76.9633314,30.8391843],[76.9635085,30.8392303],[76.9637129,30.839247],[76.9641144,30.8392278],[76.9643715,30.8392136],[76.9645508,30.839188],[76.964635,30.8391433],[76.9647252,30.8390328],[76.9647445,30.8389323],[76.9647397,30.8388001],[76.9647418,30.8386486],[76.9647584,30.8385593],[76.9648099,30.8384589],[76.9648646,30.8384119],[76.9649381,30.8383603],[76.9650242,30.8383198],[76.9651104,30.838323],[76.9652551,30.8383556],[76.9653673,30.8384072],[76.9654285,30.8384474],[76.9654961,30.8384985],[76.9655795,30.8385976],[76.9656575,30.8386868],[76.9657996,30.8389531],[76.9659209,30.8392009],[76.9661049,30.8394634],[76.9662991,30.8396711],[76.9664632,30.8398378],[76.9666071,30.839964],[76.9667851,30.8401119],[76.9672314,30.8405062],[76.9677968,30.8410064],[76.9679159,30.8410909],[76.9680484,30.8411501],[76.9681895,30.8411667],[76.9683177,30.8411567],[76.9684245,30.8410985],[76.9684905,30.841037],[76.9685457,30.8409594],[76.9685811,30.8408585],[76.9685983,30.8407185],[76.9686275,30.8399237],[76.9686439,30.839107],[76.9687098,30.8389351],[76.9687699,30.8388319],[76.9688729,30.8387214],[76.9690017,30.8386846],[76.9691733,30.8386772],[76.9693021,30.8387288],[76.9694222,30.8388172],[76.9694737,30.8389425],[76.9694737,30.8390678],[76.9693879,30.8392004],[76.9692334,30.8393404],[76.9689759,30.8395394],[76.9688879,30.8396628],[76.9688464,30.8397663],[76.9688368,30.8398698],[76.9688646,30.8399887],[76.9692788,30.8411501],[76.9693235,30.841271],[76.9693231,30.8413697],[76.9693004,30.8414712],[76.9692398,30.8415515],[76.9691633,30.8416126],[76.9690375,30.8416761],[76.9680776,30.8419048],[76.967906,30.8419341],[76.9677771,30.8419174],[76.9676833,30.8418843],[76.9675707,30.8418143],[76.9674937,30.8417183],[76.9674468,30.8415658],[76.9674426,30.841406],[76.9674351,30.8412653],[76.9674115,30.8411573],[76.9673833,30.8410952],[76.9673039,30.8410194],[76.9671985,30.8409283],[76.9670876,30.8408512],[76.9669425,30.8408284],[76.9667788,30.8408362],[76.9665769,30.8408851],[76.9664412,30.8408996],[76.9663301,30.8408716],[76.9662127,30.8408299],[76.9661183,30.8407381],[76.9660617,30.840638],[76.9660306,30.8405488],[76.966012,30.8404373],[76.9659934,30.8403257],[76.9659703,30.8402229],[76.9659695,30.8401366],[76.9659051,30.8400643],[76.9658264,30.8399969],[76.9656867,30.8399001],[76.9654912,30.839799],[76.9653978,30.8397624],[76.9652724,30.8397421],[76.9651513,30.8397449],[76.9650492,30.8397504],[76.9648293,30.8397575],[76.9646125,30.8397812],[76.9644563,30.8398181],[76.9643628,30.8398825],[76.9642981,30.8399797],[76.9642816,30.8401443],[76.9643309,30.8402532],[76.9644487,30.8403987],[76.9645422,30.8404418],[76.9646484,30.840463],[76.964757,30.8404499],[76.9648783,30.8404122],[76.9650052,30.8403155],[76.965113,30.8402271],[76.9652532,30.8401415],[76.9653744,30.8400918],[76.9655211,30.8400777],[76.9657055,30.8401278],[76.9657981,30.8402414],[76.9658089,30.8403511],[76.9658853,30.8406659],[76.9659235,30.8408465],[76.965975,30.8409855],[76.9660566,30.8410794],[76.966152,30.8411308],[76.9662729,30.8411439],[76.9664734,30.841103],[76.9666923,30.8410369],[76.9668201,30.8410299],[76.9669351,30.8410613],[76.9670313,30.8411392],[76.9671087,30.8412378],[76.9671317,30.8413338],[76.9671352,30.8414407],[76.967119,30.841554],[76.9670665,30.8417068],[76.9670219,30.8418467],[76.966945,30.8421342],[76.9666314,30.8431171],[76.96658,30.8433051],[76.9665899,30.843384],[76.9666179,30.8434552],[76.9666912,30.8435568],[76.9667747,30.8436392],[76.9669113,30.8436784],[76.9670117,30.8436964],[76.9671477,30.8436712],[76.9672804,30.8436193],[76.9674833,30.8435351],[76.9676483,30.8434467],[76.9677741,30.843348],[76.9679636,30.8431418],[76.9680319,30.8430599],[76.968259,30.8427241],[76.968368,30.8425372],[76.968465,30.8424369],[76.9685807,30.8423922],[76.9687167,30.8423666],[76.9689931,30.8423914],[76.9691476,30.8424135],[76.9693401,30.8424506],[76.9695632,30.8425158],[76.9697661,30.8426089],[76.9699721,30.842719],[76.9701213,30.8428021],[76.9702488,30.8428381],[76.9703876,30.842847],[76.9705507,30.8428189],[76.9706866,30.8427559],[76.9707784,30.8427082],[76.9709284,30.842659],[76.9710865,30.8426496],[76.9712804,30.8426938],[76.9714448,30.8427151],[76.9715957,30.8427155],[76.9717386,30.8426701],[76.9718656,30.8425937],[76.971927,30.842473],[76.9719184,30.8423813],[76.9718838,30.8422808],[76.9718111,30.8421489],[76.971756,30.84204],[76.971581,30.8418017],[76.97142,30.841653],[76.9713147,30.8415612],[76.9712364,30.8414888],[76.9711709,30.8413837],[76.9711072,30.8412418],[76.9710706,30.8411199],[76.9709323,30.8406877],[76.9709162,30.840549],[76.970935,30.8404016],[76.9710959,30.8403206],[76.9712247,30.8402543],[76.9713792,30.8402174],[76.9716281,30.84021],[76.9717483,30.8401806],[76.9718684,30.8401363],[76.9719714,30.8400553],[76.9720315,30.8399374],[76.9721345,30.8398121],[76.9722632,30.8397015],[76.9723834,30.8396942],[76.9725121,30.8396942],[76.9726581,30.839731],[76.9727696,30.8398195],[76.972864,30.83993],[76.9731301,30.8403132],[76.9734734,30.8406301],[76.9735593,30.8407627],[76.9736022,30.840888],[76.9736709,30.8412565],[76.9737567,30.8414039],[76.9739026,30.8414702],[76.9740914,30.8414849],[76.9742459,30.8414628],[76.974409,30.8414039],[76.9745206,30.8413228],[76.9745892,30.8412565],[76.9747094,30.841028],[76.9747609,30.8409322],[76.9748725,30.8408512],[76.9750184,30.840807],[76.9751815,30.8407922],[76.975645,30.8408364],[76.9758252,30.8408659],[76.9759883,30.8409396],[76.9761599,30.8410133],[76.9763402,30.8411386],[76.9764518,30.8411902],[76.9766234,30.8412123],[76.9767693,30.8411607],[76.9768723,30.8410944],[76.9769582,30.8409765],[76.9769925,30.840888],[76.9769925,30.8407112],[76.9769238,30.8405343],[76.9769153,30.8404016],[76.9769496,30.840269],[76.9769925,30.8401216],[76.9770783,30.8400111],[76.9771956,30.8398593],[76.9772392,30.8396344],[76.9771519,30.839311],[76.9770354,30.839112],[76.9769582,30.8389425],[76.9768723,30.8387877],[76.9767436,30.8385814],[76.9766492,30.8384487],[76.9765891,30.8383087],[76.9765891,30.8381982],[76.9766063,30.838095],[76.9766749,30.8380213],[76.9768294,30.8379107],[76.9769668,30.8378444],[76.9771642,30.8378297],[76.9773358,30.8378444],[76.9778251,30.8378813],[76.9780396,30.8379034],[76.9782113,30.837955],[76.9784259,30.8380213],[76.9788636,30.8382129],[76.9791039,30.8382424],[76.9792413,30.8382129],[76.9793786,30.8381466],[76.9794558,30.8380802],[76.9795159,30.8379918],[76.9797048,30.8376012],[76.979782,30.8374759],[76.9799193,30.8373875],[76.9800824,30.837358],[76.9802541,30.8373949],[76.9804086,30.8374612],[76.9805287,30.8375791],[76.9805974,30.8377118],[76.9805802,30.8378665],[76.9805545,30.8379771],[76.9804858,30.8381024],[76.9802026,30.8386846],[76.9801768,30.8387951],[76.9801768,30.838913],[76.9802369,30.839053],[76.9803571,30.8391562],[76.9804772,30.8392299],[76.9807004,30.8393478],[76.9808463,30.839451],[76.9809407,30.8395836],[76.9810094,30.839731],[76.9810609,30.8398784],[76.9811295,30.8399742],[76.9812325,30.8400553],[76.9814042,30.8400921],[76.9815844,30.84007],[76.9816789,30.8400258],[76.9817561,30.8399447],[76.9818248,30.8398489],[76.9818934,30.8397163],[76.9822282,30.8390751],[76.9822883,30.8389941],[76.9823741,30.8388909],[76.9825801,30.8387877],[76.9828204,30.8387582],[76.9830007,30.8387509],[76.9831637,30.8386772],[76.9832839,30.8385666],[76.9833182,30.8384561],[76.9833526,30.8383087],[76.9833354,30.838235],[76.98331,30.8381247],[76.9832839,30.8380066],[76.9832753,30.8378886],[76.9833096,30.8377486],[76.9833697,30.8376528],[76.9834899,30.8375496],[76.9836616,30.8374244],[76.9845113,30.8370411],[76.9846572,30.8370043],[76.9848203,30.8370117],[76.984949,30.8370632],[76.9850863,30.837159],[76.9857558,30.8377855],[76.9858846,30.8378813],[76.9860906,30.837955],[76.9863137,30.8379844],[76.9865025,30.8380508],[76.9866485,30.8381539],[76.9866948,30.8382222],[76.9867085,30.8382424],[76.9867563,30.8383903],[76.9867808,30.8385198],[76.9868201,30.8386551],[76.9868888,30.8388025],[76.9869832,30.8389425],[76.9876784,30.8397089],[76.9877559,30.8398195],[76.9877643,30.8399447],[76.9877471,30.8402395],[76.9877728,30.8403869],[76.9878501,30.8405122],[76.9879703,30.8405932],[76.9881591,30.8406448],[76.9885711,30.8407627],[76.9886912,30.8408585],[76.9887599,30.8409691],[76.9887771,30.8411165],[76.9887513,30.8412639],[76.9886226,30.8415955],[76.9886311,30.8417797],[76.9887084,30.8419197],[76.9887946,30.8420114],[76.9890245,30.8420344],[76.9892663,30.8419787],[76.9895839,30.8419124],[76.9897555,30.8418829],[76.9901675,30.8418755],[76.9903392,30.8418755],[76.9905194,30.8418092],[76.9906224,30.8417502],[76.9908799,30.8415881],[76.9909657,30.8415586],[76.9911975,30.8415439],[76.9913262,30.8415807],[76.9914121,30.8416913],[76.9914636,30.8418387],[76.991455,30.8419713],[76.9913691,30.842104],[76.9912061,30.8422292],[76.9908627,30.842384],[76.9907254,30.8424945],[76.9906825,30.8426124],[76.9906825,30.8427082],[76.9907254,30.8428335],[76.9907941,30.8431357],[76.9907941,30.8432683],[76.990631,30.8437326],[76.9905967,30.8438284],[76.9905108,30.8439168],[76.9901589,30.8442484],[76.9901246,30.8443516],[76.9901418,30.8444695],[76.9902276,30.8445726],[76.9903735,30.8446684],[76.9905452,30.84472],[76.9913949,30.8447716],[76.9915151,30.8447569],[76.9916524,30.84472],[76.991867,30.8445726],[76.9919957,30.8444989],[76.992133,30.8444695],[76.9922875,30.8444768],[76.9924077,30.8445358],[76.9925107,30.8446463],[76.992648,30.8448158],[76.9927167,30.8449632],[76.9928454,30.8450664],[76.9929828,30.8450958],[76.9931544,30.8451106],[76.9933261,30.8451327],[76.9934634,30.8451843],[76.9936179,30.8452801],[76.9937209,30.8454496],[76.9938497,30.8455969],[76.9940213,30.8456854],[76.994193,30.8457296],[76.9943818,30.8458033],[76.9944762,30.8458991],[76.994562,30.8460464],[76.9945363,30.8462012],[76.9944505,30.8463338],[76.9943217,30.8465328],[76.9940556,30.8468349],[76.9937884,30.846981],[76.9934379,30.84707],[76.9925935,30.8471993],[76.992477,30.8472712],[76.9924249,30.8473507],[76.9922618,30.8479034],[76.9920987,30.8482129],[76.9919871,30.8484855],[76.9917897,30.848714],[76.9916352,30.848854],[76.9914721,30.8489719],[76.9912747,30.8491487],[76.9912061,30.8493624],[76.9912661,30.8495393],[76.9914292,30.8496351],[76.9915751,30.8496645],[76.9917726,30.8496351],[76.991927,30.8495835],[76.9921159,30.8495393],[76.992545,30.8494877],[76.9927339,30.8494214],[76.992854,30.8493477],[76.9930085,30.8492003],[76.9931287,30.8491193],[76.9932746,30.8490824],[76.9934634,30.8490972],[76.9936608,30.8491782],[76.9937896,30.8493035],[76.9938325,30.8494361],[76.9938754,30.8495982],[76.9938668,30.8497677],[76.9939012,30.8498709],[76.9940041,30.849974],[76.9941329,30.8500846],[76.9942187,30.8502393],[76.9942273,30.8504235],[76.9941672,30.8505562],[76.9937896,30.8512267],[76.9937552,30.8514551],[76.9938067,30.8516541],[76.9938668,30.8518309],[76.9940385,30.8523099],[76.9941071,30.8524646],[76.9942515,30.8526235],[76.9943483,30.8527209],[76.9995358,30.8572355],[77.0000638,30.8578877],[77.0002183,30.8579982],[77.0004414,30.8580645],[77.0006303,30.8581455],[77.0007504,30.8582782],[77.0007848,30.858455],[77.0007161,30.8586024],[77.0005616,30.8588234],[77.0004758,30.8589929],[77.0003299,30.8593613],[77.0003299,30.8595307],[77.0004414,30.8596928],[77.0005874,30.8598402],[77.0006989,30.8599728],[77.0006989,30.8601644],[77.0006389,30.8603044],[77.0005359,30.8603854],[77.0003814,30.8604886],[77.0000209,30.8606506],[76.999875,30.8607391],[76.9996776,30.8609012],[76.9994458,30.8610853],[76.9991197,30.8614022],[76.9989137,30.8615716],[76.9985875,30.8617558],[76.9984502,30.8618737],[76.9983987,30.861999],[76.9984158,30.8621389],[76.9984931,30.8622568],[76.9986648,30.86236],[76.9988793,30.8624558],[76.9994716,30.862581],[76.9996346,30.8626326],[76.9997891,30.8627357],[76.9999436,30.8628831],[77.0003601,30.8634336],[77.0004849,30.8636394],[77.0004045,30.8638943],[77.0001586,30.8640027],[76.9999193,30.8640131],[76.9996259,30.8640816],[76.9993876,30.8642601],[76.9992128,30.8643772],[76.9990038,30.8645098],[76.9987949,30.8646034],[76.9985015,30.8646397],[76.9981668,30.8646103],[76.9979522,30.8646324],[76.9977891,30.8646766],[76.997609,30.8647692],[76.996828,30.8654765],[76.9967334,30.8655386],[76.9965875,30.8655533],[76.9963214,30.8655533],[76.996021,30.8655386],[76.9958323,30.8655501],[76.9957036,30.8655796],[76.9956006,30.8656533],[76.9955405,30.8657564],[76.9955062,30.8659038],[76.9955148,30.8660217],[76.9955833,30.8661132],[76.995712,30.8662311],[76.9958579,30.8663785],[76.9960983,30.8665921],[76.9962871,30.8667026],[76.9964074,30.8667289],[76.9965877,30.8667289],[76.9967765,30.8666553],[76.9969996,30.8665669],[76.9972485,30.8665447],[76.9975575,30.8666258],[76.9978408,30.8667289],[76.9979781,30.8668615],[76.9980468,30.8670384],[76.9980639,30.8672962],[76.9980639,30.8674804],[76.998021,30.8677014],[76.9979865,30.8678593],[76.9979695,30.867974],[76.9979781,30.8682098],[76.9979524,30.8683497],[76.9978837,30.8684897],[76.9977549,30.8685781],[76.997549,30.8686813],[76.9973687,30.8687476],[76.9971799,30.8689318],[76.9971198,30.8690644],[76.9971284,30.8692338],[76.9972657,30.8698232],[76.9972915,30.8700074],[76.9972485,30.8701768],[76.9971627,30.8703242],[76.9970855,30.8704052],[76.9969222,30.8704968],[76.9967591,30.870541],[76.9964931,30.8706073],[76.9961927,30.8706957],[76.9958923,30.870762],[76.995609,30.8707693],[76.9954459,30.8707988],[76.9950875,30.8708482],[76.9947713,30.8709366],[76.9939863,30.8712641],[76.9935937,30.8714139],[76.9933776,30.8715324],[76.9932574,30.8716429],[76.9931458,30.8717902],[76.9931544,30.8719744],[76.9932488,30.8721364],[76.9934377,30.8722396],[76.9937404,30.8722928],[76.9943303,30.8722248],[76.9945277,30.8722027],[76.9946908,30.8722617],[76.9948796,30.8723722],[76.9950513,30.8725048],[76.9953174,30.8727258],[76.9954461,30.8728584],[76.9954976,30.8730205],[76.9954461,30.8731678],[76.9952487,30.8735362],[76.9951231,30.8737244],[76.9948592,30.8738913],[76.9943591,30.8738675],[76.9940118,30.8738794],[76.9937201,30.8740821],[76.9934978,30.8743921],[76.9933261,30.8747296],[76.9927854,30.8758493],[76.9926909,30.8760335],[76.9925364,30.8761882],[76.9923219,30.8763282],[76.991867,30.876446],[76.9916266,30.8765271],[76.991558,30.8766376],[76.9915408,30.8767775],[76.9915837,30.8769617],[76.9916696,30.8770869],[76.9919871,30.8775584],[76.9921416,30.8777499],[76.9921845,30.8779488],[76.9922017,30.8781919],[76.9922275,30.8786118],[76.992236,30.8789065],[76.9923133,30.8791053],[76.9924592,30.8793558],[76.9925364,30.8795179],[76.9925107,30.8796947],[76.9923648,30.8798567],[76.991927,30.8803576],[76.991824,30.880505],[76.9917897,30.8806597],[76.9918069,30.8808217],[76.9918927,30.880969],[76.9920558,30.8810722],[76.9921674,30.8812121],[76.9922017,30.8813595],[76.992176,30.8815436],[76.9919442,30.8821697],[76.9919145,30.8823221],[76.9919563,30.882456],[76.9920968,30.8825488],[76.9922532,30.8825896],[76.9923819,30.8825896],[76.9925193,30.8825675],[76.9926309,30.8825012],[76.9926995,30.882376],[76.993266,30.8815362],[76.9933347,30.8814478],[76.9934205,30.8813595],[76.9935491,30.8813111],[76.9937552,30.8813226],[76.9939698,30.8813374],[76.9941157,30.8813226],[76.9942616,30.8812637],[76.994399,30.8811237],[76.9946135,30.8809248],[76.9947423,30.8808291],[76.9949054,30.8807112],[76.9953258,30.8805081],[76.9956206,30.8803666],[76.9957738,30.8802351],[76.9958589,30.8800744],[76.9958751,30.8799188],[76.9958665,30.8797273],[76.9959008,30.8795579],[76.9959867,30.87944],[76.9960983,30.8793221],[76.9962442,30.8791453],[76.9963815,30.8789906],[76.9964377,30.8789056],[76.9965058,30.8788106],[76.9965568,30.8786499],[76.9965568,30.8784892],[76.9965228,30.8783065],[76.9965085,30.8781356],[76.996535,30.8778857],[76.9965957,30.877716],[76.9966905,30.8775468],[76.9968021,30.8773848],[76.9969308,30.8772522],[76.9971111,30.8771785],[76.9972913,30.8771269],[76.9974801,30.8771269],[76.9977205,30.8772006],[76.9979608,30.8772743],[76.9981668,30.8772964],[76.9983642,30.8772743],[76.9993512,30.8770017],[76.9997375,30.8768691],[76.9999435,30.8767586],[77.0001151,30.8766334],[77.0002267,30.8764934],[77.0003125,30.8763534],[77.0003984,30.8762135],[77.0005357,30.876103],[77.0007074,30.8760588],[77.0009931,30.8760315],[77.0015296,30.8759578],[77.0017441,30.875967],[77.0018514,30.8760591],[77.0018729,30.8761696],[77.0017656,30.8763445],[77.0016047,30.8765103],[77.0014867,30.8768142],[77.0014437,30.877118],[77.0014223,30.8773114],[77.0014223,30.8774956],[77.0014759,30.8776705],[77.0014545,30.8778731],[77.0013794,30.8780389],[77.0011326,30.8782783],[77.0010146,30.8784072],[77.0008751,30.8785637],[77.0008537,30.8787111],[77.0008751,30.8789136],[77.0008751,30.8791254],[77.0008537,30.8793464],[77.0008858,30.8795582],[77.0008537,30.8797424],[77.0008107,30.8798989],[77.0007786,30.8800646],[77.0008429,30.8801935],[77.0008322,30.8803225],[77.0008,30.8804053],[77.0007737,30.8804705],[77.0007747,30.8805672],[77.000819,30.8807301],[77.0008441,30.880933],[77.0007817,30.8810923],[77.0006201,30.8812231],[77.0001665,30.8815667],[77.000096,30.881693],[77.0000918,30.8817955],[77.0001325,30.8819296],[77.0001622,30.8821339],[77.0001092,30.8823059],[76.9999677,30.8825312],[76.9999498,30.8826638],[76.9999683,30.8827652],[77.0000153,30.8828399],[77.0001663,30.8830096],[77.0003321,30.8831717],[77.0004283,30.8832829],[77.0004488,30.8834707],[77.0004126,30.883551],[77.0003763,30.8836267],[77.0002701,30.8837463],[76.9999175,30.8839365],[76.9997432,30.884017],[76.9995099,30.8841471],[76.9992953,30.8843232],[76.9991949,30.8844214],[76.9990093,30.8845942],[76.9989445,30.8846711],[76.9988294,30.8848571],[76.9988298,30.8849473],[76.9988465,30.8850355],[76.9990352,30.8853793],[76.9991487,30.8856127],[76.9991719,30.8857872],[76.9991557,30.8859789],[76.9991278,30.886213],[76.9990807,30.8863822],[76.9989506,30.8866044],[76.9988795,30.8866924],[76.998437,30.8871202],[76.9982334,30.8873108],[76.998146,30.8874049],[76.9981131,30.88749],[76.9980969,30.8875858],[76.9980969,30.8881213],[76.998129,30.8885313],[76.9981741,30.8886206],[76.998239,30.8886867],[76.998364,30.8887578],[76.9985086,30.8887742],[76.9986385,30.8887503],[76.9987346,30.8886978],[76.9988238,30.8886148],[76.9988894,30.8884699],[76.9989327,30.8881096],[76.9990085,30.887959],[76.9990939,30.88789],[76.9992167,30.8878337],[76.9998088,30.8876997],[76.9999509,30.8876877],[77.0002936,30.8876964],[77.0004375,30.8876751],[77.0005525,30.8876224],[77.0006495,30.8875242],[77.0006899,30.8874003],[77.0007249,30.8871925],[77.0008119,30.8869767],[77.0010075,30.8865542],[77.0011839,30.886374],[77.0013616,30.8863113],[77.0015315,30.8863279],[77.0016842,30.8863744],[77.001825,30.8864799],[77.00196,30.8865503],[77.0021142,30.8866211],[77.002276,30.8866438],[77.0025059,30.8866297],[77.003,30.8865731],[77.0032054,30.8865051],[77.0033347,30.8864022],[77.0036145,30.8859113],[77.0039374,30.885358],[77.004025,30.885257],[77.004141,30.8851779],[77.004292,30.8851467],[77.0044425,30.8851516],[77.0045971,30.8851941],[77.0048478,30.8853071],[77.0053352,30.885508],[77.0056182,30.8855549],[77.0058272,30.8855679],[77.0060237,30.8855522],[77.0069363,30.8853465],[77.0071255,30.8853188],[77.0073115,30.8853403],[77.0074567,30.8854179],[77.0075608,30.8855319],[77.0076112,30.885662],[77.0078602,30.8862654],[77.0078717,30.8863936],[77.007796,30.8866173],[77.0076406,30.8868706],[77.0073843,30.8872857],[77.0072316,30.8875558],[77.0070499,30.8879107],[77.007001,30.8880309],[77.0069768,30.8881637],[77.0069831,30.8883027],[77.0070463,30.8884517],[77.007526,30.8891424],[77.0075743,30.8892973],[77.0075738,30.8894298],[77.0075048,30.8896019],[77.0073908,30.8897534],[77.0070633,30.8901611],[77.0069529,30.8903387],[77.0069033,30.8904607],[77.006889,30.8906515],[77.0068572,30.8908508],[77.0067555,30.8910363],[77.0065359,30.891279],[77.006187,30.8916834],[77.0059434,30.8919678],[77.0059041,30.8920699],[77.0058842,30.8921912],[77.0059097,30.8923123],[77.0060362,30.8926789],[77.0060484,30.892805],[77.0059992,30.8929424],[77.0058709,30.89308],[77.005512,30.8931842],[77.0053495,30.8932583],[77.0052096,30.893406],[77.005113,30.8935257],[77.0048394,30.8938531],[77.0047536,30.8939964],[77.0047375,30.8941057],[77.0047375,30.8942622],[77.004759,30.8944648],[77.0047693,30.8948026],[77.0047942,30.8949977],[77.0048198,30.8950989],[77.0048912,30.8952055],[77.0050077,30.895299],[77.0051456,30.8953484],[77.0052894,30.8953443],[77.0054096,30.8952972],[77.0055175,30.8952049],[77.0055933,30.895065],[77.0056698,30.8948839],[77.0057563,30.8945866],[77.0058669,30.8944533],[77.0059783,30.894384],[77.0061136,30.8943525],[77.0063539,30.8943537],[77.0069448,30.8944048],[77.0070744,30.8944017],[77.0072308,30.8943572],[77.0073462,30.8942677],[77.0074498,30.8941181],[77.0075875,30.8939557],[77.0077483,30.8937956],[77.0079752,30.893636],[77.0083142,30.8933612],[77.0084605,30.8932754],[77.0086421,30.8931954],[77.008814,30.8931985],[77.0089408,30.8932389],[77.0090442,30.8933189],[77.0091478,30.8934657],[77.0092436,30.8936178],[77.0094367,30.8937375],[77.0101331,30.8940736],[77.0102088,30.8941355],[77.0102946,30.8942834],[77.0103261,30.8944861],[77.0103701,30.8946397],[77.0104158,30.8947438],[77.0105193,30.8948372],[77.0106438,30.8948846],[77.0107853,30.8948931],[77.0109097,30.8948702],[77.0110864,30.8948526],[77.0112565,30.8948733],[77.0114433,30.8949249],[77.0116452,30.8950156],[77.0121917,30.8954896],[77.0122945,30.8956063],[77.0123296,30.89574],[77.0123168,30.8958734],[77.0123007,30.8959113],[77.0122342,30.8959868],[77.0121053,30.8960601],[77.0119713,30.8960775],[77.0118688,30.8960651],[77.0117555,30.8960091],[77.0116503,30.8959137],[77.0115737,30.8957395],[77.0115587,30.8955152],[77.0115202,30.8952825],[77.0114625,30.895177],[77.0113708,30.8950885],[77.0112312,30.8950337],[77.011051,30.8950172],[77.0107973,30.8950533],[77.010402,30.8951243],[77.0102335,30.8951014],[77.0101049,30.8950362],[77.0100244,30.8949351],[77.0099322,30.8946387],[77.0098413,30.8944951],[77.0097468,30.8944061],[77.0096029,30.8943262],[77.0087786,30.8940669],[77.008664,30.894054],[77.0084839,30.8940904],[77.0083321,30.8941792],[77.0082551,30.8942911],[77.0081911,30.8944803],[77.0082014,30.8946108],[77.0081632,30.8947263],[77.0080609,30.8949246],[77.0079318,30.8949942],[77.0077152,30.8950449],[77.0068563,30.8951966],[77.0066899,30.8952955],[77.006595,30.8953834],[77.0065274,30.8954736],[77.0063581,30.8959012],[77.0063048,30.8960894],[77.0063203,30.8962641],[77.0064259,30.8964398],[77.0064858,30.8966364],[77.006498,30.8967581],[77.0064403,30.8968636],[77.0063268,30.8969706],[77.0060928,30.8971125],[77.0059056,30.8972239],[77.0056715,30.8973318],[77.00544,30.8974707],[77.0051906,30.8976857],[77.0050948,30.8978271],[77.0050282,30.8979802],[77.0050365,30.8980944],[77.005092,30.8981826],[77.0051717,30.8982757],[77.0052306,30.8983235],[77.0053451,30.8984994],[77.0054753,30.8985707],[77.005624,30.8985572],[77.0057242,30.8985047],[77.0058277,30.8984152],[77.0058662,30.8982913],[77.0059307,30.8980748],[77.0059391,30.8980093],[77.0059202,30.8975684],[77.0059309,30.8973687],[77.0060221,30.8972549],[77.0063824,30.8971129],[77.0065038,30.8970451],[77.006636,30.8969274],[77.0067091,30.8967977],[77.0067073,30.8966946],[77.0066201,30.8965328],[77.0065743,30.8962638],[77.0065875,30.8961134],[77.0066434,30.8959557],[77.0067051,30.8958715],[77.0069283,30.895726],[77.0072566,30.895553],[77.0074561,30.8954738],[77.0076515,30.8954352],[77.0078746,30.8954462],[77.0082458,30.8953892],[77.0083725,30.8953339],[77.0084625,30.8952308],[77.0085763,30.8949822],[77.0088081,30.894892],[77.0089888,30.8948941],[77.0091419,30.894913],[77.0093097,30.8949996],[77.0094299,30.8951263],[77.0095396,30.895376],[77.0096509,30.8955364],[77.0097143,30.8956248],[77.0097887,30.8957179],[77.0098546,30.8958138],[77.009963,30.8958676],[77.0100467,30.8958898],[77.0101422,30.8959049],[77.0102443,30.8958918],[77.0103361,30.8958705],[77.0104336,30.8958577],[77.0105367,30.8958369],[77.0106436,30.8958333],[77.0108478,30.8959009],[77.0109791,30.8959894],[77.0110271,30.8961401],[77.0110243,30.8963389],[77.0110262,30.8964924],[77.0110098,30.8966077],[77.0110142,30.8967365],[77.0110076,30.8969],[77.0110151,30.8971299],[77.0110577,30.8973484],[77.0111133,30.8974442],[77.0112083,30.8975215],[77.0113554,30.8975783],[77.0115262,30.8975898],[77.0117282,30.8975463],[77.0118954,30.8975083],[77.0120785,30.8974983],[77.0122114,30.8975304],[77.0124551,30.8976449],[77.0128264,30.8978297],[77.0130158,30.8978808],[77.0132384,30.8978675],[77.0134391,30.8978336],[77.0136179,30.897773],[77.0137234,30.8977021],[77.0137988,30.8975973],[77.0138337,30.897483],[77.0138538,30.8973814],[77.0138776,30.8972697],[77.0140228,30.8968668],[77.0140657,30.8966881],[77.0140776,30.8965115],[77.0140631,30.8963761],[77.0140312,30.8962724],[77.0140309,30.8961688],[77.0140709,30.8960782],[77.0141209,30.8960233],[77.0141674,30.8959692],[77.0141999,30.8959155],[77.0142967,30.8957548],[77.014357,30.8956642],[77.0143958,30.895608],[77.0144352,30.8955591],[77.0145133,30.8955047],[77.0146817,30.8954301],[77.0149435,30.8953821],[77.0151272,30.8953619],[77.0151709,30.8953576],[77.0154516,30.8953242],[77.015868,30.895306],[77.0161849,30.8953009],[77.0162993,30.8953173],[77.0163959,30.8953512],[77.0165155,30.8954447],[77.0165913,30.8955696],[77.0166534,30.8957473],[77.0166444,30.8959348],[77.0165155,30.8962732],[77.0164229,30.8965632],[77.0163304,30.8968337],[77.0163063,30.8969441],[77.0163089,30.8970684],[77.0163674,30.8974082],[77.0163815,30.8975927],[77.0163167,30.8977796],[77.0162377,30.8979616],[77.0161631,30.8980959],[77.016075,30.8982662],[77.016058,30.8984184],[77.0160318,30.8988338],[77.015874,30.8991692],[77.0158008,30.899464],[77.0158236,30.8997481],[77.0159371,30.9000237],[77.0160946,30.9004065],[77.0162287,30.9007262],[77.0162495,30.9009736],[77.0162346,30.9011414],[77.016178,30.9013678],[77.0161406,30.9014805],[77.0161044,30.9015994],[77.016076,30.9017135],[77.0157362,30.9026548],[77.0156768,30.9028374],[77.0156116,30.9030279],[77.0155588,30.9032716],[77.0155736,30.9034408],[77.0156058,30.9036157],[77.0156809,30.9038366],[77.0157775,30.9040852],[77.0158526,30.9043613],[77.0159062,30.9046191],[77.0159706,30.9049229],[77.0160135,30.9051898],[77.0160564,30.9054016],[77.0161315,30.9055673],[77.0162603,30.9057054],[77.0164473,30.9057646],[77.0165937,30.905755],[77.0167532,30.9056901],[77.0171588,30.9054431],[77.0174385,30.9052529],[77.0175734,30.9051269],[77.0177409,30.9050678],[77.017864,30.905045],[77.0180182,30.9050457],[77.0180843,30.9050297],[77.0182279,30.9049437],[77.0183403,30.9048548],[77.0183842,30.9047516],[77.0184027,30.9044108],[77.018447,30.904223],[77.0185398,30.9040806],[77.0187137,30.9039899],[77.0189232,30.9039475],[77.0193044,30.9039464],[77.0194463,30.9039232],[77.019827,30.903819],[77.020056,30.9036962],[77.0201646,30.9035585],[77.02025,30.9033923],[77.0202943,30.9032014],[77.0204552,30.9029253],[77.0204982,30.902778],[77.0205947,30.9026031],[77.0207986,30.9023453],[77.0210453,30.9020599],[77.0212063,30.9017929],[77.0212384,30.9014984],[77.0212378,30.9012735],[77.0213153,30.9010435],[77.0214548,30.900781],[77.0215208,30.9006015],[77.0215329,30.9002978],[77.0215362,30.900061],[77.0216411,30.8998419],[77.0217766,30.8997486],[77.0219494,30.899728],[77.0221534,30.8997616],[77.0224003,30.8998283],[77.0231615,30.9000241],[77.0235728,30.900123],[77.0237414,30.9001758],[77.0238816,30.9002885],[77.0239109,30.9003884],[77.0239261,30.9004742],[77.0239121,30.9005387],[77.023867,30.9006422],[77.0238392,30.9006981],[77.0237994,30.9007779],[77.0237295,30.9009184],[77.0235815,30.9012137],[77.0234445,30.9016283],[77.0234037,30.9017684],[77.0234593,30.901931],[77.0235559,30.9020783],[77.0236739,30.902198],[77.0237704,30.9022808],[77.0238026,30.9023729],[77.0237919,30.902465],[77.023749,30.9025846],[77.0237061,30.9027688],[77.023631,30.9030173],[77.0235451,30.9033579],[77.0235559,30.9035512],[77.0235773,30.9039103],[77.0235988,30.904122],[77.023631,30.9044074],[77.023631,30.9045915],[77.0236202,30.9047848],[77.0236095,30.9049321],[77.023631,30.9051346],[77.0236739,30.9053555],[77.0236739,30.905466],[77.0236417,30.9056869],[77.0236524,30.9058066],[77.0236739,30.9059079],[77.023749,30.9060736],[77.0238563,30.9061748],[77.0240494,30.9062209],[77.0243176,30.9062117],[77.0246502,30.9062209],[77.025133,30.9061564],[77.0256587,30.906046],[77.0261844,30.9059907],[77.0266029,30.9059815],[77.0268282,30.9060367],[77.0270427,30.9060828],[77.0272037,30.9060091],[77.0273324,30.9059079],[77.0274397,30.9056869],[77.0274719,30.90542],[77.0275148,30.9050978],[77.027665,30.9048492],[77.0279225,30.9045823],[77.0282122,30.9043337],[77.0283946,30.9042509],[77.028577,30.9042141],[77.0288345,30.9041588],[77.0292314,30.9039839],[77.0296928,30.9037354],[77.030079,30.9035144],[77.0301863,30.9033579],[77.0301756,30.903137],[77.0301648,30.9027872],[77.0300468,30.9023453],[77.0300146,30.9021612],[77.0300254,30.9017653],[77.0300146,30.9014523],[77.029843,30.9011946],[77.0297464,30.9010012],[77.0297786,30.9007803],[77.0300146,30.9005225],[77.0303043,30.9003936],[77.0306262,30.9004028],[77.0310231,30.9003292],[77.0313128,30.9000898],[77.0316025,30.8996664],[77.0317849,30.8993626],[77.0319244,30.8990772],[77.0319458,30.8988746],[77.0319351,30.8986537],[77.0319566,30.8984327],[77.0320209,30.8982854],[77.032214,30.8981289],[77.0325145,30.897954],[77.0328685,30.8977054],[77.0330616,30.8974937],[77.0331796,30.8972175],[77.0332226,30.8970886],[77.033362,30.8969689],[77.0335659,30.8968861],[77.033995,30.8967296],[77.034274,30.8965823],[77.0345422,30.8963153],[77.0347675,30.8959747],[77.0348319,30.8957537],[77.0348212,30.8954039],[77.0348533,30.8950908],[77.0350035,30.8948515],[77.0352396,30.8946581],[77.0355293,30.8945384],[77.0359262,30.8943819],[77.0362695,30.894253],[77.0364305,30.8941241],[77.0366236,30.8940229],[77.0368274,30.8939768],[77.0370313,30.8940413],[77.0372351,30.8940873],[77.0375785,30.8941426],[77.0377179,30.8941241],[77.0378574,30.8940505],[77.0380183,30.8939676],[77.0382222,30.8938111],[77.038426,30.8936178],[77.0386728,30.8933968],[77.0388767,30.8932035],[77.0391449,30.8930746],[77.0394453,30.8930286],[77.0396384,30.8931114],[77.0398315,30.8932955],[77.0399388,30.8933968],[77.0400783,30.8934521],[77.0401963,30.8934521],[77.040325,30.8933692],[77.0405611,30.8931851],[77.0408186,30.8929457],[77.0410868,30.8927431],[77.0413336,30.892605],[77.0415803,30.8924761],[77.0417305,30.8923012],[77.0418056,30.8920526],[77.0418378,30.8918133],[77.041988,30.891666],[77.0422455,30.8915371],[77.0424923,30.8913437],[77.0426639,30.8911964],[77.0426961,30.8910675],[77.0427283,30.8909294],[77.0428034,30.8907913],[77.0429536,30.8906624],[77.0431575,30.8906164],[77.0434471,30.8905519],[77.0436295,30.8905703],[77.0437154,30.89069],[77.0437475,30.8908373],[77.0437368,30.8910215],[77.0437046,30.8912332],[77.0437368,30.8914174],[77.0438441,30.8915831],[77.0440158,30.8916936],[77.0443162,30.8916844],[77.0446058,30.8916936],[77.0448526,30.8917856],[77.0449814,30.8919237],[77.0452067,30.8923104],[77.0452281,30.8925314],[77.0451637,30.8927063],[77.0450135,30.8928905],[77.044917,30.893093],[77.0448741,30.8933784],[77.0448097,30.8937651],[77.0447882,30.8940873],[77.044799,30.8942438],[77.0449384,30.8944096],[77.0451316,30.8944648],[77.0453032,30.8944096],[77.045432,30.8943175],[77.0455929,30.894253],[77.0458719,30.8942622],[77.0460757,30.894253],[77.0462688,30.8941978],[77.0465263,30.8940413],[77.0467731,30.8939216],[77.0470091,30.8937651],[77.047331,30.8935625],[77.0475455,30.8935073],[77.0477709,30.8933968],[77.0480069,30.8933324],[77.048318,30.8933232],[77.0486721,30.8932771],[77.0489832,30.8931759],[77.0491656,30.893047],[77.0493158,30.892872],[77.0494875,30.8925958],[77.0496806,30.8924577],[77.0498737,30.8923933],[77.0501205,30.8923657],[77.0505925,30.8922276],[77.05085,30.8920711],[77.050968,30.8918225],[77.0508715,30.8915371],[77.05085,30.8912332],[77.0509895,30.8909846],[77.0512255,30.8907913],[77.0515689,30.890644],[77.0518049,30.8905703],[77.0520409,30.8905427],[77.0528563,30.8904875],[77.0531245,30.8905059],[77.0533177,30.8905243],[77.0535644,30.8905059],[77.0537468,30.8903678],[77.0539721,30.8901284],[77.0541974,30.8899719],[77.0544335,30.8899074],[77.0546588,30.8899074],[77.0548626,30.8899535],[77.0551094,30.8899995],[77.0552596,30.8899535],[77.0553776,30.8898706],[77.0554527,30.8897233],[77.0555707,30.8895023],[77.0557102,30.8893182],[77.0558282,30.8891985],[77.0560106,30.8890051],[77.0561286,30.8888486],[77.0562359,30.8886921],[77.0576843,30.8875412],[77.0579203,30.8874399],[77.0581349,30.8873663],[77.0583602,30.8873663],[77.0585963,30.8874583],[77.0587679,30.8875872],[77.0588537,30.887799],[77.0589396,30.8879831],[77.0590683,30.8881305],[77.0593044,30.8882778],[77.0595726,30.8883422],[77.0597872,30.888333],[77.0599481,30.888287],[77.0600339,30.8881949],[77.0601734,30.8879279],[77.0602807,30.8877898],[77.060388,30.8876609],[77.0605811,30.887486],[77.0607527,30.8873018],[77.0609673,30.8871453],[77.0611712,30.8870256],[77.0613428,30.8869703],[77.0614716,30.8869611],[77.0615896,30.8869888],[77.0619329,30.8871821],[77.0620724,30.8872189],[77.0621904,30.8872282],[77.062287,30.8871913],[77.0624264,30.887044],[77.0625552,30.8869151],[77.0626088,30.8867586],[77.0626839,30.886556],[77.0628449,30.8864271],[77.0630058,30.8863627],[77.0633062,30.886335],[77.0635852,30.8862522],[77.0638534,30.8861233],[77.0641752,30.8858102],[77.0643147,30.8856813],[77.0644971,30.8856353],[77.064658,30.8856721],[77.0648297,30.8857734],[77.0651301,30.8861141],[77.0653018,30.886243],[77.0654305,30.886243],[77.0655915,30.8862246],[77.0658168,30.8861601],[77.0659991,30.8861785],[77.0661601,30.886243],[77.0662781,30.8863719],[77.0663532,30.8865284],[77.0664819,30.8867125],[77.0666321,30.8868507],[77.0668038,30.8869796],[77.0670184,30.8870624],[77.0672544,30.8870716],[77.0674261,30.886998],[77.0675334,30.8868599],[77.0676192,30.8866481],[77.0676299,30.8863811],[77.0676621,30.8861417],[77.0677587,30.8859391],[77.067866,30.8857274],[77.0678445,30.8855616],[77.0677587,30.8854419],[77.0676085,30.8852946],[77.0674905,30.8851657],[77.0674368,30.8849723],[77.0675119,30.8847606],[77.0675977,30.8845488],[77.0677909,30.884024],[77.0679196,30.8838951],[77.0680805,30.8837938],[77.0682737,30.8837385],[77.0684668,30.8836925],[77.068617,30.8836188],[77.0686921,30.8834715],[77.0688852,30.8831769],[77.0691105,30.8830019],[77.0694109,30.8829375],[77.0696684,30.8830203],[77.0698508,30.8831769],[77.0700654,30.8833794],[77.0702907,30.8836188],[77.0704945,30.8837109],[77.0707628,30.8838766],[77.0710739,30.8840516],[77.0711919,30.8841068],[77.0714172,30.8841989],[77.0759448,30.8868138],[77.0815345,30.8900639],[77.0816632,30.8901468],[77.081792,30.8901836],[77.0819637,30.8901836],[77.0822426,30.8901376],[77.0824357,30.8900824],[77.0826503,30.8900087],[77.0828541,30.8899535],[77.0830687,30.8899351],[77.0832833,30.8899995],[77.0834228,30.8901376],[77.0834657,30.890331],[77.0835086,30.8905243],[77.0836159,30.8906716],[77.0838734,30.8907729],[77.0840772,30.8908926],[77.0841523,30.8910123],[77.0842918,30.8913161],[77.0843884,30.8914634],[77.0844957,30.8915647],[77.0846888,30.8916936],[77.0848819,30.8917488],[77.0849892,30.891712],[77.0851716,30.8916015],[77.085354,30.8915002],[77.0855578,30.8914818],[77.0857187,30.8915094],[77.0861372,30.8916844],[77.0863947,30.8917488],[77.0865663,30.891758],[77.0867273,30.891712],[77.0868989,30.8915647],[77.0870599,30.8914542],[77.0872852,30.8914174],[77.087607,30.891399],[77.0878967,30.8913437],[77.0881864,30.8912332],[77.0884975,30.8911596],[77.0888087,30.8911504],[77.0890125,30.8912332],[77.0892378,30.8913897],[77.0894738,30.8914726],[77.0896562,30.8914634],[77.090021,30.8914266],[77.090418,30.891399],[77.0906647,30.8914542],[77.0908471,30.8916291],[77.0909115,30.8918041],[77.091051,30.8921723],[77.0910939,30.8923012],[77.0911797,30.8923933],[77.0913192,30.8924761],[77.0915123,30.8925314],[77.0917376,30.8926327],[77.09192,30.8927708],[77.0920166,30.8929457],[77.0920595,30.893093],[77.0920917,30.8933048],[77.0921453,30.8941886],[77.0921561,30.8943175],[77.092199,30.8944096],[77.0922633,30.89452],[77.0924028,30.894741],[77.0925208,30.8948883],[77.092553,30.8950448],[77.0925101,30.8952473],[77.092435,30.8954039],[77.0921668,30.8957169],[77.0916518,30.8963337],[77.0914801,30.8965362],[77.0912977,30.8966835],[77.0911046,30.8968032],[77.0907077,30.897015],[77.0902463,30.8972267],[77.0899566,30.8973832],[77.0898708,30.8975305],[77.0898815,30.8976594],[77.089903,30.8977791],[77.0899566,30.8978896],[77.0901819,30.8982302],[77.0902034,30.8983407],[77.0902034,30.8984327],[77.0901712,30.898534],[77.0901176,30.8986261],[77.0899996,30.8986905],[77.0896884,30.898801],[77.0893022,30.8989391],[77.0891198,30.8990956],[77.0890232,30.8992337],[77.0889803,30.8993718],[77.0889696,30.8995099],[77.0889803,30.8995927],[77.0890447,30.8997124],[77.0891627,30.8998689],[77.0893987,30.9000806],[77.0896455,30.9003292],[77.0897528,30.900587],[77.089785,30.9007343],[77.0897742,30.9008723],[77.0897206,30.9010933],[77.0896348,30.9012958],[77.0895919,30.9014247],[77.0895704,30.9015536],[77.0895275,30.9017009],[77.0893666,30.9018574],[77.0891412,30.9020047],[77.0890554,30.9021243],[77.088991,30.9022993],[77.0890018,30.9024466],[77.089034,30.902557],[77.0891091,30.9026951],[77.0892163,30.9028056],[77.0893773,30.9029621],[77.0894738,30.9030818],[77.0895919,30.903183],[77.0897528,30.9032751],[77.0898386,30.9033763],[77.0898601,30.9034776],[77.0898601,30.9036249],[77.0898494,30.9037906],[77.0898557,30.9039183],[77.0898632,30.9040648],[77.0898965,30.9044437],[77.0899107,30.9046006],[77.0899183,30.9047144],[77.0899012,30.9048283],[77.0898501,30.904961],[77.0897929,30.9050554],[77.0896869,30.9051614],[77.0895834,30.9052735],[77.089532,30.9053535],[77.0895022,30.90545],[77.0894953,30.9055489],[77.089506,30.9056593],[77.0895597,30.9057698],[77.0896777,30.9058711],[77.0898494,30.9059631],[77.0900317,30.9059907],[77.0901927,30.9059723],[77.0903429,30.9059171],[77.0904931,30.9058158],[77.090817,30.9055828],[77.0909372,30.9055153],[77.0910633,30.9054659],[77.0911576,30.9054448],[77.0912927,30.9054566],[77.0914839,30.9055262],[77.0915873,30.9055923],[77.0916724,30.905665],[77.0917458,30.9057261],[77.0918389,30.9057732],[77.0919476,30.9058013],[77.0920859,30.9058144],[77.0922362,30.9058066],[77.092391,30.9057884],[77.0924994,30.9057606],[77.0926067,30.9057514],[77.0927032,30.9057698],[77.092832,30.9058618],[77.0929285,30.9059631],[77.0929929,30.9061288],[77.0930251,30.9062577],[77.0930573,30.906451],[77.0931002,30.9065707],[77.093186,30.9066719],[77.0933148,30.9067732],[77.0935079,30.9068008],[77.0937868,30.9068192],[77.0940551,30.9068284],[77.0942589,30.9068468],[77.0944306,30.9069205],[77.0946237,30.9070401],[77.0948061,30.9071598],[77.0950421,30.9072427],[77.0952138,30.9072427],[77.0953747,30.9072058],[77.0956107,30.9071322],[77.0957609,30.9071046],[77.0959541,30.9071046],[77.0960721,30.9071322],[77.0962223,30.9072519],[77.0962867,30.9073255],[77.0973059,30.908154],[77.0974097,30.908243],[77.0974454,30.9082736],[77.0975608,30.9083437],[77.0977475,30.9084082],[77.0978802,30.9084372],[77.0980181,30.908455],[77.0981431,30.9084723],[77.0982971,30.908488],[77.0984175,30.9085031],[77.0985241,30.9085276],[77.0986582,30.9085808],[77.0988463,30.9086739],[77.0990255,30.908795],[77.0991923,30.9089113],[77.0997131,30.9093335],[77.0999134,30.9094925],[77.1000433,30.9095954],[77.100251,30.9097671],[77.100434,30.9098896],[77.1006836,30.9100111],[77.1009537,30.9101515],[77.1014365,30.9103632],[77.1017691,30.9105933],[77.1020174,30.9108555],[77.1020742,30.9109507],[77.1021156,30.9110684],[77.1021298,30.9111859],[77.102129,30.9112859],[77.1021092,30.9113874],[77.1020503,30.911482],[77.1019836,30.9115772],[77.1018999,30.9116764],[77.1018448,30.9117432],[77.1017763,30.9118303],[77.1017245,30.9119226],[77.1016795,30.9120139],[77.1016507,30.912121],[77.1016287,30.9122635],[77.1016388,30.9123826],[77.1016529,30.9125146],[77.1016861,30.9127381],[77.1016795,30.9129038],[77.1016709,30.9130324],[77.1016292,30.9131416],[77.1015653,30.9132943],[77.1013722,30.9137191],[77.1012522,30.9140045],[77.1011428,30.9142854],[77.1011208,30.9144109],[77.1010926,30.9145539],[77.1010807,30.9146484],[77.1010847,30.9147305],[77.1011251,30.9148074],[77.1011651,30.9148733],[77.1014791,30.9154528],[77.1020013,30.9162189],[77.1026669,30.9172013],[77.1027158,30.917269],[77.1027513,30.917345],[77.1027647,30.9174118],[77.1027517,30.917474],[77.1027112,30.9175682],[77.1026461,30.9176398],[77.1025312,30.9177251],[77.1023484,30.917865],[77.1021875,30.9179571],[77.1020695,30.9180491],[77.1019589,30.9181556],[77.1013655,30.9188226],[77.1009706,30.9192615],[77.1008648,30.9194167],[77.1008158,30.9195073],[77.1008144,30.9195966],[77.1008357,30.9196756],[77.1008756,30.919748],[77.101015,30.9198781],[77.1011452,30.9199689],[77.1012446,30.9200586],[77.1012784,30.9201187],[77.1012841,30.9201922],[77.1012648,30.9202949],[77.1012099,30.9203874],[77.1011419,30.9204546],[77.1010644,30.9204982],[77.1009522,30.9205402],[77.1008035,30.9205711],[77.1005889,30.9206171],[77.1004475,30.920689],[77.1003239,30.9207888],[77.1002749,30.9208484],[77.1002261,30.9209285],[77.1000937,30.921225],[77.0999457,30.9215425],[77.0998087,30.9218665],[77.0996667,30.9222127],[77.0996081,30.9223456],[77.0995574,30.9224374],[77.0994888,30.9225208],[77.0994055,30.9226176],[77.0993385,30.9226907],[77.099243,30.9228004],[77.0990442,30.9229947],[77.0989574,30.9230891],[77.0989389,30.9231545],[77.0989305,30.9232367],[77.0989402,30.9233151],[77.0989536,30.9233751],[77.0989889,30.9234381],[77.0990497,30.9235028],[77.0991108,30.9235515],[77.0992214,30.9236147],[77.0994588,30.9236898],[77.0995589,30.9237556],[77.099677,30.9238016],[77.0998272,30.92382],[77.1000525,30.923774],[77.1018013,30.9232586],[77.1019837,30.9231482],[77.1022519,30.9229825],[77.1025201,30.9228076],[77.102842,30.9227064],[77.1033033,30.9226972],[77.1038398,30.9227708],[77.1042904,30.9229549],[77.1048161,30.9232678],[77.105374,30.9236176],[77.1057924,30.9239581],[77.106007,30.9242618],[77.1061357,30.9246024],[77.1062323,30.9249613],[77.1062859,30.9252926],[77.1063074,30.9254675],[77.1063396,30.9255963],[77.1063932,30.9257344],[77.1064683,30.9258172],[77.10664,30.9259001],[77.1068331,30.9259001],[77.1070906,30.925808],[77.1074017,30.9256608],[77.107788,30.9254951],[77.1080776,30.9253571],[77.1083244,30.925173],[77.1085175,30.9250257],[77.1087643,30.9249061],[77.1090862,30.9248601],[77.10929,30.924814],[77.1095368,30.9247404],[77.1097728,30.9246484],[77.1099659,30.9246392],[77.1102449,30.9247312],[77.1116718,30.9256608],[77.112101,30.9259185],[77.1123048,30.9260473],[77.1124121,30.9262038],[77.1124336,30.926305],[77.1124336,30.9263879],[77.1123799,30.9265627],[77.1123692,30.9266916],[77.1123584,30.9268112],[77.1124336,30.9269309],[77.1126159,30.9270045],[77.1129914,30.9271241],[77.1133884,30.9272162],[77.1137103,30.9273358],[77.114,30.9274923],[77.1141394,30.9276303],[77.1141931,30.9277408],[77.114236,30.9278144],[77.1142682,30.9280077],[77.1142575,30.9281917],[77.1141931,30.9283482],[77.1141072,30.9285226],[77.1140536,30.9286611],[77.1140775,30.9287527],[77.1141177,30.9288775],[77.1141824,30.9290292],[77.1142682,30.9291857],[77.114396,30.9292808],[77.1144949,30.9293415],[77.1145893,30.9293673],[77.1148503,30.929429],[77.1151338,30.9294851],[77.1152462,30.9294846],[77.1153676,30.9294396],[77.115467,30.9293848],[77.1155123,30.9293184],[77.1157495,30.9289659],[77.1159133,30.9287833],[77.1160491,30.928725],[77.1162323,30.9286975],[77.1165794,30.9287314],[77.1168538,30.9287439],[77.1170469,30.9286243],[77.1171323,30.9284509],[77.1173001,30.9282485],[77.1174058,30.9281527],[77.1175737,30.9280817],[77.1177393,30.9281151],[77.1180028,30.9283595],[77.1182033,30.9286602],[77.1183631,30.928945],[77.1184846,30.9291397],[77.1186563,30.9292133],[77.1188601,30.9292133],[77.1190532,30.9291581],[77.1193644,30.928928],[77.1198901,30.9285783],[77.1207484,30.9281457],[77.1219178,30.9275567],[77.1222504,30.9272622],[77.1223685,30.9271609],[77.1225401,30.9270781],[77.122701,30.9270597],[77.1228191,30.9270597],[77.1229049,30.9270597],[77.1230551,30.9271149],[77.1231302,30.9271701],[77.1231946,30.9272898],[77.1232482,30.9274094],[77.1233126,30.9275475],[77.1233877,30.9277868],[77.1234735,30.9279708],[77.1234843,30.9281089],[77.1234521,30.9283114],[77.123334,30.9285138],[77.1233126,30.9286795],[77.1233233,30.9288175],[77.1233984,30.9289924],[77.1236345,30.9293145],[77.1238168,30.9294894],[77.1239885,30.9295998],[77.1242245,30.9296274],[77.1244177,30.9295814],[77.124879,30.9294526],[77.1251794,30.9293973],[77.1255013,30.9293881],[77.125748,30.9294342],[77.1258661,30.9295078],[77.1259626,30.9296458],[77.1259841,30.9298115],[77.1259841,30.9299956],[77.1259304,30.9301704],[77.1258768,30.9303545],[77.1258875,30.9305017],[77.1259304,30.9306214],[77.1260055,30.930741],[77.1261772,30.9309159],[77.126381,30.9311091],[77.126542,30.9312196],[77.1267673,30.9312748],[77.1270999,30.9313208],[77.1272823,30.9313944],[77.1273895,30.9314865],[77.1275934,30.9316889],[77.1277329,30.9317994],[77.1278723,30.931827],[77.1281084,30.9318454],[77.1286985,30.9317717],[77.1289238,30.9317625],[77.1290954,30.9317994],[77.1292134,30.931873],[77.1293851,30.9320662],[77.1294817,30.9321491],[77.129589,30.9322043],[77.1298035,30.9322779],[77.1300288,30.9323883],[77.1301254,30.9324988],[77.1301469,30.9326],[77.1301469,30.9327012],[77.1300932,30.9329037],[77.130061,30.9330417],[77.1300932,30.9331614],[77.130179,30.9333731],[77.13034,30.9337228],[77.1305009,30.9339436],[77.1306297,30.9340449],[77.1307906,30.9341553],[77.1308657,30.9343025],[77.1309301,30.9344498],[77.1310588,30.9349099],[77.1310695,30.9351952],[77.1310803,30.9352964],[77.1311554,30.9354437],[77.1312197,30.9356093],[77.1312197,30.9357474],[77.1311339,30.9358946],[77.1309301,30.9360142],[77.1307048,30.9360602],[77.130458,30.9361063],[77.1302434,30.9361523],[77.1301039,30.9362811],[77.1300074,30.9364099],[77.1299967,30.9365664],[77.1300181,30.9367688],[77.1300396,30.9369989],[77.130061,30.9371093],[77.1301361,30.9372106],[77.1303078,30.9373578],[77.1305975,30.9375602],[77.1310374,30.9377995],[77.1312841,30.9379652],[77.1314236,30.9380756],[77.131445,30.9382412],[77.1314343,30.9384069],[77.1313914,30.9385541],[77.1312841,30.9387013],[77.1311554,30.9388394],[77.1309408,30.9391523],[77.1308228,30.9393915],[77.1307584,30.93964],[77.1307477,30.9398792],[77.1307584,30.9401001],[77.1307799,30.9402933],[77.130812,30.9404314],[77.1308442,30.9405694],[77.1307691,30.9406982],[77.1306189,30.9408271],[77.1302863,30.9409743],[77.1300718,30.9410939],[77.129825,30.9412411],[77.1296962,30.9413056],[77.1295568,30.9413056],[77.1293744,30.9412964],[77.1290632,30.941278],[77.1288916,30.9412964],[77.1286556,30.941324],[77.1283122,30.94137],[77.1280655,30.9413516],[77.1268638,30.9411399],[77.1266171,30.9411031],[77.1264025,30.9411583],[77.1262523,30.941278],[77.1260806,30.9414252],[77.1258982,30.941646],[77.1257266,30.9417933],[77.1254584,30.9418669],[77.1250936,30.9419405],[77.1249219,30.9420785],[77.1247073,30.9423086],[77.1245679,30.942465],[77.1244928,30.9426675],[77.1244498,30.9428699],[77.1244498,30.9429803],[77.1244713,30.9430815],[77.1245357,30.9432656],[77.1246537,30.9436152],[77.1246752,30.9438453],[77.1246537,30.9440753],[77.1245249,30.9444342],[77.1244284,30.944563],[77.1241709,30.9447195],[77.1237954,30.9450231],[77.1236345,30.945382],[77.1236023,30.9455936],[77.1235808,30.9457869],[77.1235164,30.9459617],[77.1234843,30.9461457],[77.123495,30.9463666],[77.123495,30.9465782],[77.1235057,30.9468082],[77.1235272,30.9471395],[77.123495,30.9472959],[77.1233877,30.9474339],[77.123098,30.9475904],[77.1227976,30.9477008],[77.1226903,30.9478204],[77.1226581,30.9479216],[77.1226581,30.9480412],[77.1226367,30.9482437],[77.1225187,30.9483817],[77.1222719,30.9484645],[77.1220573,30.9485749],[77.1218964,30.9487221],[77.121714,30.9489062],[77.1215745,30.9490534],[77.1214887,30.9492466],[77.1214672,30.9494214],[77.1213707,30.9496515],[77.121199,30.9497803],[77.1210381,30.9498355],[77.1209093,30.9498539],[77.1207269,30.9498447],[77.1205553,30.9497987],[77.1203836,30.9498355],[77.1202549,30.9499091],[77.1198901,30.9500747],[77.1159312,30.9518321],[77.1157702,30.9519426],[77.1150728,30.9523198],[77.1148905,30.9524118],[77.114751,30.9524578],[77.1146437,30.9524762],[77.1139249,30.9524854],[77.1137961,30.9524946],[77.1137425,30.9525682],[77.1137317,30.9526418],[77.1137317,30.9527246],[77.1136781,30.9528074],[77.1135493,30.9529179],[77.1134742,30.9530007],[77.1134528,30.9530743],[77.1133562,30.9531479],[77.1132489,30.9532583],[77.1130344,30.9533043],[77.1128412,30.9533319],[77.1125945,30.9533687],[77.1124657,30.9534147],[77.1123692,30.9535251],[77.1123155,30.9536631],[77.1120151,30.9550248],[77.1120366,30.9551537],[77.112058,30.9553101],[77.1120795,30.9554665],[77.1121653,30.9555953],[77.112219,30.9557425],[77.112219,30.9558621],[77.1121761,30.9559725],[77.1120473,30.9561105],[77.1118113,30.9562117],[77.1116074,30.9562485],[77.1099874,30.9566166],[77.1097728,30.9566534],[77.109526,30.9566534],[77.10929,30.956635],[77.1090647,30.956589],[77.1088501,30.9565798],[77.1086463,30.9565982],[77.1084853,30.9566626],[77.1083566,30.9567454],[77.1082171,30.9568742],[77.1082064,30.957003],[77.1082386,30.9571318],[77.1082922,30.957233],[77.108539,30.9572974],[77.1088394,30.9573986],[77.1090432,30.9575458],[77.1092471,30.9577114],[77.1093544,30.957877],[77.1094402,30.958061],[77.1095904,30.9582267],[77.1097835,30.9583003],[77.1101269,30.9582911],[77.1103522,30.9582911],[77.1105238,30.9583463],[77.1106418,30.9584383],[77.1106847,30.9585395],[77.1107062,30.9586407],[77.1107062,30.9588339],[77.1107062,30.9590455],[77.1107813,30.9593031],[77.1108671,30.9595699],[77.1109852,30.9597447],[77.1111246,30.9598827],[77.1113392,30.9599931],[77.1116289,30.9600207],[77.1118757,30.9600575],[77.1120902,30.9601495],[77.1121868,30.9602323],[77.1122833,30.9603795],[77.112337,30.9605727],[77.1123263,30.9606463],[77.1123048,30.9607199],[77.1122404,30.9608303],[77.112101,30.9610235],[77.1118542,30.9613272],[77.1117147,30.9614376],[77.1115109,30.9615756],[77.111307,30.9616124],[77.1110388,30.9616124],[77.1106847,30.9616124],[77.1103843,30.96164],[77.1099337,30.9616952],[77.1095475,30.9617228],[77.1093222,30.9618056],[77.1091827,30.961916],[77.1091183,30.9620724],[77.1090754,30.9622748],[77.1090003,30.9625416],[77.1088608,30.962836],[77.1086248,30.9630108],[77.1083244,30.9630752],[77.1080455,30.9630844],[77.1076378,30.963112],[77.1074339,30.9631856],[77.1073266,30.9632868],[77.1072623,30.9634432],[77.1071871,30.9638664],[77.1071335,30.9642435],[77.1070974,30.96455],[77.1070738,30.9649214],[77.107077,30.9650711],[77.1070788,30.9651534],[77.1071071,30.9652558],[77.1074017,30.9663227],[77.1074282,30.9664024],[77.1074446,30.9664515],[77.1074983,30.9665803],[77.1075734,30.9667275],[77.1076592,30.9668287],[77.1076922,30.9668589],[77.1078191,30.9669749],[77.107906,30.9670863],[77.1079811,30.9672059],[77.1080562,30.9672979],[77.1081742,30.9674082],[77.1083137,30.9674634],[77.1084424,30.9674542],[77.108893,30.967353],[77.1090218,30.9673255],[77.1092149,30.9673438],[77.1093651,30.9673714],[77.1096119,30.9674174],[77.1098801,30.9674082],[77.1100839,30.9673071],[77.1103307,30.9672151],[77.1105775,30.9671599],[77.1108564,30.9671599],[77.111189,30.9672795],[77.1113821,30.9674082],[77.1115645,30.9675278],[77.1117576,30.9675738],[77.1124657,30.9676842],[77.112691,30.967767],[77.1128198,30.9678958],[77.1128734,30.9680338],[77.1128842,30.9681718],[77.1128091,30.9685122],[77.1127983,30.968687],[77.1128305,30.9688618],[77.1129485,30.9692113],[77.1131095,30.9695609],[77.1132811,30.9697817],[77.1136781,30.9702601],[77.1139356,30.9706188],[77.1141716,30.9708396],[77.1143862,30.971088],[77.1144935,30.971272],[77.1146222,30.9716767],[77.1146759,30.9718699],[77.1147295,30.9719895],[77.1147939,30.9720907],[77.1149012,30.9721735],[77.1150728,30.9722839],[77.1153196,30.9724127],[77.1154913,30.9724771],[77.1156415,30.9724955],[77.1158024,30.9724679],[77.1159097,30.9724219],[77.1159741,30.9723391],[77.1159955,30.9722379],[77.1160384,30.9720355],[77.1160706,30.9718423],[77.116135,30.9716859],[77.1162745,30.9715296],[77.1164247,30.97141],[77.1165749,30.9713364],[77.1168216,30.9713456],[77.1170791,30.9713548],[77.1173366,30.9714376],[77.1175083,30.9715848],[77.1177121,30.9717043],[77.1179053,30.9717411],[77.1181198,30.9716859],[77.1182915,30.9715756],[77.1183881,30.9714008],[77.1183773,30.9712536],[77.1183022,30.9709776],[77.1183022,30.9708028],[77.1183666,30.9705636],[77.1185919,30.9704348],[77.1188494,30.9704257],[77.1191391,30.9705268],[77.119418,30.9706464],[77.1196862,30.9706832],[77.1199437,30.9706556],[77.1201905,30.9706004],[77.120448,30.970628],[77.120684,30.9707292],[77.1211132,30.9709132],[77.1214458,30.9710788],[77.1216711,30.9712904],[77.1219071,30.9715296],[77.1221753,30.9717871],[77.1223792,30.9720447],[77.1225508,30.9723483],[77.1226796,30.9725415],[77.1228191,30.9727622],[77.1229049,30.9729094],[77.1229049,30.9730106],[77.1228513,30.9730934],[77.1227654,30.9731762],[77.1226581,30.9732866],[77.1225401,30.9734246],[77.1223255,30.9735809],[77.1221861,30.9738385],[77.122229,30.9741145],[77.1224006,30.9742709],[77.1226367,30.9744732],[77.1227547,30.9746112],[77.1228834,30.9748044],[77.1231087,30.9749884],[77.1233233,30.9751356],[77.1234628,30.9753103],[77.1235701,30.9754851],[77.1237525,30.9756691],[77.1239349,30.9758255],[77.1240958,30.975945],[77.1242782,30.9760278],[77.1245249,30.976083],[77.1247717,30.9761566],[77.1249112,30.9762946],[77.1249434,30.9764418],[77.1249112,30.9765798],[77.1247073,30.9767361],[77.1244928,30.9767821],[77.124128,30.9767729],[77.1238383,30.9766993],[77.1236023,30.9767085],[77.1233984,30.9767361],[77.1230015,30.9767453],[77.1227332,30.9767177],[77.1223792,30.9767913],[77.1220788,30.9768925],[77.121832,30.9770213],[77.1214887,30.9771225],[77.1212205,30.9772329],[77.121081,30.9774168],[77.1209093,30.9776192],[77.1206733,30.9777756],[77.1204694,30.9778584],[77.1203407,30.9779595],[77.120051,30.9783183],[77.1199759,30.9784287],[77.1199223,30.9785207],[77.1199008,30.978677],[77.119933,30.9788702],[77.1200725,30.9791461],[77.1203085,30.9794221],[77.1204694,30.9795417],[77.1206518,30.9795785],[77.1208771,30.9795325],[77.1212419,30.9794129],[77.1214994,30.9794129],[77.1217247,30.9794681],[77.1219393,30.9795049],[77.122229,30.9794497],[77.1226474,30.9793209],[77.1229585,30.9793025],[77.1234199,30.9793669],[77.1237847,30.9796521],[77.1240314,30.9798636],[77.1241065,30.9800844],[77.1240851,30.9802408],[77.1239992,30.9804431],[77.1236452,30.9807191],[77.12298,30.9812066],[77.1228083,30.9814549],[77.1227332,30.9816941],[77.1226689,30.9820712],[77.1226259,30.9823012],[77.1224436,30.9825035],[77.1223685,30.9826599],[77.1224221,30.9829082],[77.1225294,30.9831382],[77.1226796,30.9833313],[77.1229049,30.9833957],[77.1231731,30.9833773],[77.1234413,30.9833313],[77.1236666,30.9833313],[77.1238919,30.9834601],[77.1240314,30.9834877],[77.1242782,30.9835613],[77.1244928,30.983736],[77.124643,30.9842787],[77.1246215,30.9844443],[77.1245357,30.9846558],[77.1244928,30.984757],[77.1242996,30.9848582],[77.1241602,30.984895],[77.1238168,30.9848674],[77.123613,30.9848674],[77.1233233,30.9848306],[77.1230015,30.9846926],[77.1227225,30.9845731],[77.1225294,30.9845823],[77.1224006,30.9846282],[77.1222826,30.9847386],[77.1221431,30.9848858],[77.1219178,30.985033],[77.1216818,30.9851617],[77.1213921,30.9852077],[77.1212205,30.9851801],[77.1210488,30.9850881],[77.120845,30.9848582],[77.1206518,30.9847018],[77.1204694,30.9846558],[77.1200939,30.9846742],[77.119697,30.9848122],[77.1194717,30.9848766],[77.1189781,30.9852721],[77.1187314,30.9854653],[77.1186241,30.9855756],[77.1186026,30.9856584],[77.1185919,30.9857136],[77.1186348,30.9858792],[77.1187528,30.9860171],[77.1189781,30.9861643],[77.1192356,30.9864126],[77.1193858,30.9865874],[77.1195682,30.9867989],[77.1196862,30.9869277],[77.1197613,30.9870657],[77.1197184,30.9872312],[77.1196219,30.9873508],[77.119418,30.9874704],[77.1191713,30.9875623],[77.1188816,30.9876267],[77.1184417,30.9876911],[77.1182164,30.9876359],[77.1179589,30.9874704],[77.1178409,30.9873692],[77.1177658,30.98736],[77.11768,30.9873968],[77.1176048,30.9874152],[77.1174546,30.9875071],[77.1173795,30.9875807],[77.1172723,30.9877003],[77.1172723,30.9877739],[77.1172723,30.9878659],[77.1172508,30.987967],[77.1172508,30.9880406],[77.1172508,30.988151],[77.1172401,30.9882981],[77.117283,30.9884177],[77.1173474,30.9885465],[77.1174439,30.9887764],[77.1175297,30.988942],[77.1175512,30.9891351],[77.1174976,30.9892731],[77.1173581,30.9894754],[77.1172723,30.9897145],[77.1171113,30.9899997],[77.1169289,30.9901376],[77.1167787,30.990156],[77.11665,30.9901652],[77.1164461,30.9902664],[77.1163067,30.9903124],[77.1161457,30.99034],[77.1158882,30.9904411],[77.1156522,30.9905515],[77.1155235,30.9906895],[77.115502,30.9908366],[77.1155127,30.9909102],[77.1155556,30.9909838],[77.1156415,30.9911125],[77.1157595,30.9912137],[77.1159097,30.9912781],[77.1161886,30.9912505],[77.1164139,30.9912229],[77.1166213,30.9913243],[77.1167764,30.9914136],[77.1169854,30.9915393],[77.1171805,30.9916532],[77.1172828,30.9916952],[77.1173746,30.9917236],[77.1174833,30.9917533],[77.117573,30.9917621],[77.1176578,30.9917624],[77.117724,30.9917477],[77.1178114,30.9917209],[77.1178791,30.9916939],[77.1179315,30.991657],[77.1180724,30.991532],[77.1181662,30.9914761],[77.1182714,30.9914335],[77.1183646,30.9914145],[77.1184599,30.9914057],[77.1185658,30.9913985],[77.1186457,30.991396],[77.1187724,30.9913813],[77.1189996,30.9913793],[77.119182,30.9912137],[77.1193107,30.9910206],[77.1194073,30.9909102],[77.1195253,30.9907906],[77.1196862,30.9906895],[77.1198364,30.9905699],[77.1200188,30.9905147],[77.1201261,30.9905239],[77.1202549,30.9905699],[77.1204265,30.9906343],[77.1206304,30.9906987],[77.1207591,30.9906987],[77.1209415,30.9906711],[77.121081,30.9906251],[77.1212097,30.9905883],[77.1214136,30.9905239],[77.1216174,30.9905515],[77.1217784,30.9906711],[77.1219822,30.990855],[77.1221431,30.990947],[77.1222934,30.9910022],[77.1226045,30.990993],[77.1228083,30.9909378],[77.12298,30.9908182],[77.1230658,30.9906803],[77.1231195,30.9904779],[77.123216,30.9901928],[77.123377,30.9900457],[77.1236559,30.9898893],[77.1238919,30.9897881],[77.1241924,30.9897605],[77.1244069,30.9897881],[77.1245893,30.9898893],[77.1247824,30.9900273],[77.1249005,30.9901652],[77.1250614,30.9903124],[77.1251794,30.9904135],[77.125394,30.9905883],[77.125512,30.9906619],[77.1257051,30.9907355],[77.1258553,30.990763],[77.1259412,30.990855],[77.1259197,30.990993],[77.1258661,30.9911493],[77.125791,30.9912505],[77.1257373,30.9913057],[77.12563,30.9913609],[77.1255227,30.9913885],[77.1252867,30.9914436],[77.1250614,30.9915172],[77.1248897,30.9915816],[77.1247824,30.9917104],[77.1246859,30.9918943],[77.1245786,30.9920139],[77.1242245,30.9922162],[77.1240422,30.9923266],[77.1239241,30.9924737],[77.123849,30.9926393],[77.1237632,30.9928692],[77.123613,30.9930072],[77.1233662,30.9931083],[77.1231087,30.9932371],[77.12298,30.9933566],[77.1228727,30.9934762],[77.1227118,30.993559],[77.1224436,30.9936877],[77.1220573,30.9938165],[77.1218213,30.9939085],[77.1217462,30.9939728],[77.1216925,30.994074],[77.1216925,30.994166],[77.1215531,30.9943407],[77.1212956,30.9945339],[77.1209415,30.9947362],[77.1205875,30.9948833],[77.1204373,30.9949937],[77.1203943,30.9950949],[77.1203729,30.9952052],[77.1202978,30.9954903],[77.1201583,30.9956375],[77.1199008,30.9957295],[77.119579,30.9958214],[77.1193751,30.995941],[77.1193,30.9960697],[77.1192571,30.9962077],[77.119182,30.996456],[77.1191283,30.9965572],[77.1189996,30.9966399],[77.118667,30.9967963],[77.1183666,30.996925],[77.1182057,30.9970262],[77.1181306,30.9971182],[77.1180662,30.9972469],[77.1179482,30.9974309],[77.1177121,30.9976056],[77.1172615,30.9978815],[77.1170362,30.9979275],[77.1168216,30.9979275],[77.1165212,30.9978355],[77.1161565,30.9977251],[77.1159741,30.9977159],[77.1155986,30.9977619],[77.1149656,30.9978999],[77.1146115,30.9980102],[77.1144613,30.9981298],[77.1143862,30.9982218],[77.1143755,30.9983505],[77.1143647,30.9984885],[77.1143004,30.998654],[77.1141716,30.9987552],[77.1139141,30.9988747],[77.1136674,30.9989667],[77.113485,30.9991046],[77.1134635,30.9991874],[77.1134528,30.999307],[77.1134421,30.9993989],[77.1134528,30.9994725],[77.113485,30.9995828],[77.1135064,30.9997208],[77.1135279,30.999822],[77.1134742,30.9998863],[77.1133777,30.9999599],[77.1131846,31.000107],[77.1130679,31.0002254],[77.112966,31.0003749],[77.1128868,31.0005082],[77.1127809,31.0006083],[77.1126783,31.0006554],[77.1125743,31.0006864],[77.1124517,31.0006692],[77.1123263,31.0006267],[77.1121935,31.0005726],[77.1120152,31.0004853],[77.1118917,31.0004508],[77.1117925,31.0004422],[77.1117026,31.0004531],[77.1115779,31.0004979],[77.1114841,31.0005761],[77.111413,31.0006669],[77.1113379,31.0007818],[77.1112641,31.0008726],[77.1111742,31.0009497],[77.1110482,31.001006],[77.1108168,31.0010394],[77.1105023,31.0010727],[77.1102502,31.001098],[77.109982,31.0011049],[77.1096682,31.0010382],[77.1094214,31.0009738],[77.1091559,31.0009071],[77.1089306,31.0008266],[77.1087831,31.0007795],[77.1086315,31.0007634],[77.1085203,31.0007692],[77.1083928,31.0008221],[77.1082962,31.0008842],[77.1082252,31.0009692],[77.1081755,31.001106],[77.1081661,31.0012876],[77.1081796,31.0014267],[77.1081796,31.0015336],[77.1081474,31.0016819],[77.1080977,31.0017819],[77.1079395,31.0019647],[77.1078684,31.0020521],[77.1077812,31.0021486],[77.1076713,31.0022762],[77.1074594,31.0025337],[77.1073762,31.002636],[77.1072897,31.0027141],[77.107209,31.0027498],[77.1070651,31.0027831],[77.1068545,31.0027452],[77.1067634,31.0026958],[77.1065421,31.0026509],[77.1064502,31.0026596],[77.1063718,31.002682],[77.1061465,31.002728],[77.1060499,31.002736],[77.1059587,31.002728],[77.1057991,31.0026527],[77.1056449,31.0025406],[77.1054249,31.0023544],[77.1052882,31.0022164],[77.1052238,31.002075],[77.1051554,31.0019405],[77.1051178,31.0018704],[77.1050541,31.0017934],[77.1049368,31.0017313],[77.1048415,31.0017095],[77.1046933,31.0017072],[77.1045773,31.0017394],[77.1044567,31.0018038],[77.1043816,31.0018716],[77.1042582,31.0019877],[77.1041549,31.0020762],[77.1040094,31.0021492],[77.1038559,31.0021877],[77.1036064,31.0021797],[77.103424,31.002167],[77.1033073,31.0021406],[77.1032162,31.0020762],[77.1030981,31.0018876],[77.1029466,31.0017842],[77.1027883,31.0017348],[77.1024665,31.0016704],[77.1021875,31.0015417],[77.102048,31.0014497],[77.1019086,31.0013669],[77.1017369,31.0013577],[77.1016189,31.0013577],[77.1015331,31.0014037],[77.101415,31.0015049],[77.1012863,31.0016888],[77.1012756,31.0017992],[77.1012756,31.0018727],[77.1013077,31.0019739],[77.1013828,31.0020659],[77.1017691,31.0023417],[77.1018764,31.0024429],[77.1019407,31.0025165],[77.1019944,31.0026268],[77.1020373,31.002774],[77.102048,31.0029487],[77.1020373,31.003151],[77.102048,31.0032705],[77.1021017,31.0034085],[77.1021982,31.0034913],[77.1022841,31.0035556],[77.1024986,31.00362],[77.1027347,31.0037395],[77.1027883,31.0038591],[77.1027883,31.0039786],[77.102681,31.0043557],[77.1026381,31.0045764],[77.1025308,31.0047879],[77.1025201,31.004935],[77.1025201,31.0050914],[77.1025416,31.0052201],[77.1026381,31.0053764],[77.1027347,31.0054592],[77.1030351,31.0055695],[77.1033248,31.0056891],[77.1034428,31.0057994],[77.1035393,31.0059374],[77.1036788,31.0061397],[77.1038076,31.0062041],[77.1040007,31.0062133],[77.1042796,31.0062592],[77.1044513,31.0063512],[77.1045479,31.0064799],[77.1046873,31.0066914],[77.1048053,31.0068294],[77.1049663,31.0069581],[77.105213,31.0071144],[77.1054276,31.0072524],[77.1055242,31.0073443],[77.1055242,31.0074363],[77.1055242,31.0075282],[77.1054491,31.0076478],[77.1052881,31.0077765],[77.1050843,31.0079512],[77.1048268,31.0080984],[77.1045693,31.0081903],[77.1043011,31.0083283],[77.1041509,31.008411],[77.1040972,31.008503],[77.1040758,31.0086317],[77.1040329,31.008788],[77.1039363,31.0089903],[77.1037647,31.0091191],[77.1036359,31.0091743],[77.1035715,31.0092478],[77.1035501,31.0093122],[77.1035286,31.0094317],[77.1035286,31.0094777],[77.1035501,31.0095513],[77.103593,31.0096616],[77.1036144,31.009772],[77.1036359,31.0098731],[77.1036359,31.0099651],[77.103593,31.010057],[77.1034642,31.0101766],[77.1033033,31.0102501],[77.1031531,31.0103145],[77.1030565,31.0104156],[77.1030351,31.0105812],[77.1030565,31.0107191],[77.1031424,31.0108754],[77.1032926,31.0110225],[77.1034321,31.0111237],[77.1036895,31.0111881],[77.1038934,31.0112984],[77.1040007,31.0114455],[77.1040007,31.0115926],[77.1039578,31.011749],[77.1038934,31.0119053],[77.1037432,31.0120432],[77.1034857,31.012172],[77.1032819,31.0123099],[77.1031638,31.0124846],[77.1030458,31.0126225],[77.1028205,31.0127329],[77.1025952,31.0128892],[77.1023699,31.0130823],[77.1021794,31.0132765],[77.1021419,31.0133305],[77.1020977,31.0134145],[77.1020561,31.0135536],[77.102048,31.01368],[77.1021084,31.0138443],[77.1021916,31.0139753],[77.1022948,31.0141248],[77.1023418,31.0142984],[77.1023766,31.014596],[77.1024115,31.0148328],[77.1024209,31.0149374],[77.1024665,31.0150535],[77.1025416,31.0154454],[77.1025201,31.0155741],[77.1024879,31.0156293],[77.1023592,31.0157672],[77.10193,31.0162178],[77.1016833,31.0164936],[77.1015009,31.0166683],[77.1014043,31.0168614],[77.1013721,31.0170913],[77.1014043,31.0172936],[77.1014472,31.0174223],[77.1015652,31.0175878],[77.1017584,31.0176246],[77.1020051,31.0176062],[77.1023163,31.0175234],[77.1025416,31.0175418],[77.1027883,31.0176246],[77.1030136,31.0177717],[77.1032282,31.017974],[77.1033462,31.0181303],[77.1033999,31.018259],[77.1034964,31.0187187],[77.1035072,31.0188199],[77.1035393,31.0189486],[77.103593,31.0191141],[77.1036788,31.019252],[77.1038612,31.0194911],[77.1040543,31.0197301],[77.1041294,31.0199416],[77.1041831,31.0201623],[77.1042367,31.0204565],[77.1041938,31.020622],[77.1041187,31.0207507],[77.1039256,31.0209622],[77.1037861,31.0211185],[77.1037217,31.021284],[77.1036895,31.0214955],[77.1036681,31.0216885],[77.1036466,31.0218816],[77.1036466,31.0220471],[77.1036681,31.022185],[77.1037217,31.0223413],[77.103829,31.0224701],[77.1039363,31.0225068],[77.1041415,31.0226103],[77.1042474,31.0226539],[77.1043172,31.0227185],[77.1043681,31.0227896],[77.1043869,31.0228746],[77.1043869,31.0229757],[77.104344,31.0231137],[77.1043118,31.023224],[77.1042582,31.0233067],[77.1041294,31.0235182],[77.1040758,31.0236837],[77.1040758,31.0237297],[77.1041294,31.02384],[77.1042153,31.0239779],[77.1043977,31.0241066],[77.1046015,31.0241802],[77.1047517,31.0242445],[77.104859,31.0244008],[77.1050092,31.0246399],[77.1053203,31.0250444],[77.1054491,31.0252375],[77.1054598,31.0253662],[77.1054383,31.0254765],[77.1054062,31.0256144],[77.1053418,31.0257248],[77.1051701,31.0258259],[77.1049663,31.0259362],[77.104859,31.0260374],[77.1047517,31.0262028],[77.1047088,31.026304],[77.1046122,31.0264603],[77.1044728,31.0265798],[77.1043333,31.0266441],[77.1040114,31.0266901],[77.1037968,31.0267269],[77.1036681,31.0268372],[77.1033784,31.0270763],[77.1030673,31.0274072],[77.1027454,31.0276463],[77.1025416,31.0277106],[77.1023163,31.0277566],[77.1020802,31.0277382],[77.101812,31.0276922],[77.1014472,31.0275176],[77.1009537,31.0272417],[77.1007284,31.0271222],[77.1005245,31.0271038],[77.1001919,31.0270946],[77.0999881,31.0270119],[77.0996555,31.0269108],[77.0994302,31.0267637],[77.0991727,31.026635],[77.099001,31.0266258],[77.0988187,31.0267269],[77.0987543,31.0267729],[77.0986685,31.0269108],[77.0985934,31.0270395],[77.0985934,31.0271774],[77.0986577,31.0272969],[77.0988723,31.0275084],[77.0990869,31.0276922],[77.0992907,31.0279037],[77.099516,31.0280784],[77.0997199,31.0282071],[77.0999559,31.0283174],[77.1001276,31.0284645],[77.1002027,31.0286484],[77.1002456,31.0288415],[77.1002456,31.0289702],[77.1002456,31.0290897],[77.1002778,31.0291816],[77.1003314,31.0292368],[77.1004173,31.0293563],[77.1004387,31.0294942],[77.1004387,31.0295677],[77.1003851,31.0297148],[77.1003207,31.0298527],[77.1001919,31.0299447],[77.0999559,31.0299998],[77.0996662,31.0301377],[77.0993873,31.03034],[77.0992371,31.0304319],[77.099162,31.0305239],[77.0991298,31.0306342],[77.0991298,31.0307353],[77.099162,31.0307997],[77.0992371,31.0309008],[77.0993766,31.0310111],[77.0994624,31.0310571],[77.0995804,31.0310939],[77.0997199,31.0310847],[77.0998701,31.0310847],[77.1001383,31.0310755],[77.1003529,31.0311031],[77.1005138,31.0311858],[77.1006211,31.0312961],[77.1007498,31.0313881],[77.1008893,31.0314616],[77.1010395,31.03148],[77.1011468,31.0314616],[77.1012756,31.0313881],[77.1015974,31.0312318],[77.1018335,31.0311582],[77.1020051,31.031149],[77.1021661,31.0312042],[77.1024962,31.0313127],[77.1029493,31.0314616],[77.1030887,31.0314892],[77.1032497,31.0314984],[77.1034964,31.0315168],[77.104108,31.0315811],[77.1043977,31.0315627],[77.10458,31.0314984],[77.1047624,31.0314064],[77.1049341,31.0313329],[77.105095,31.0312685],[77.1052345,31.0312226],[77.1053418,31.0311398],[77.1053632,31.0310571],[77.1053525,31.0309743],[77.1052774,31.0307905],[77.1052238,31.030625],[77.1052452,31.0304963],[77.1053847,31.0303308],[77.1055135,31.0302297],[77.1056637,31.0301745],[77.1058675,31.0301285],[77.1061786,31.0301745],[77.1064147,31.0302573],[77.1065863,31.0302573],[77.1067687,31.0302021],[77.1068546,31.0300734],[77.1069189,31.0299539],[77.1069833,31.0296873],[77.1070691,31.0295402],[77.1072301,31.0294574],[77.1074232,31.0294206],[77.1076807,31.0294206],[77.1081527,31.0294115],[77.1083781,31.0293563],[77.1085283,31.0292736],[77.108657,31.0291265],[77.108775,31.0290253],[77.1089252,31.0289518],[77.1090754,31.0289242],[77.109569,31.0289426],[77.1097513,31.0290529],[77.1099015,31.0291816],[77.1100732,31.0292736],[77.1102341,31.0292919],[77.1103951,31.0292644],[77.1105345,31.0291265],[77.1106311,31.0289518],[77.1107384,31.0287863],[77.1109101,31.0286852],[77.1110603,31.0286484],[77.1112319,31.028676],[77.1113714,31.0287679],[77.1114358,31.0288782],[77.1114465,31.0289702],[77.1114465,31.0290989],[77.1114358,31.0292092],[77.1114358,31.0293287],[77.1115001,31.0294206],[77.1116074,31.0295402],[77.1117469,31.0297056],[77.1118113,31.029816],[77.1118327,31.0299263],[77.111822,31.0300274],[77.111822,31.0301377],[77.1118327,31.0302297],[77.1118649,31.0303308],[77.1119508,31.0304319],[77.1121653,31.0305514],[77.1123155,31.0306434],[77.1123692,31.0307537],[77.1124121,31.0308548],[77.112455,31.0310111],[77.1124979,31.0311214],[77.1125838,31.0311674],[77.1127232,31.0312226],[77.1129914,31.0313145],[77.1131202,31.0314064],[77.1132382,31.0315351],[77.1133991,31.0316822],[77.1135386,31.0317466],[77.1137854,31.0317466],[77.1140536,31.0316179],[77.1142038,31.0313881],[77.1143433,31.0312042],[77.1145257,31.0310571],[77.1146437,31.0309376],[77.1147081,31.0307813],[77.1147724,31.0305239],[77.1148797,31.0303584],[77.1150728,31.0302665],[77.1152874,31.0302756],[77.1154591,31.0303952],[77.1155878,31.0305606],[77.1156522,31.0307077],[77.1157917,31.0308548],[77.1159204,31.030956],[77.1161028,31.0310755],[77.116253,31.0312226],[77.1162959,31.0314064],[77.1163174,31.0315811],[77.1163603,31.0317282],[77.1164676,31.0318937],[77.1165963,31.0320316],[77.1168216,31.0322063],[77.1171972,31.0323442],[77.1177336,31.0325004],[77.1184846,31.0326751],[77.1187743,31.0327395],[77.1188494,31.0328406],[77.1189781,31.0329141],[77.1192571,31.0329877],[77.1196541,31.033098],[77.1198043,31.0332175],[77.1198901,31.0333646],[77.1199974,31.0335025],[77.1200618,31.0335944],[77.120169,31.0336588],[77.120448,31.0338059],[77.1205875,31.0338978],[77.1208664,31.0341093],[77.1210166,31.0342563],[77.1212634,31.0344034],[77.1214565,31.0345229],[77.1215316,31.03467],[77.1215852,31.0348631],[77.1216496,31.0351205],[77.1217569,31.0355066],[77.1219071,31.0358743],[77.1219929,31.0361409],[77.1220359,31.036334],[77.122068,31.036481],[77.1220359,31.0366465],[77.1219975,31.0367306],[77.1219393,31.036858],[77.1218749,31.0369683],[77.1218749,31.037051],[77.1219286,31.0371797],[77.1220251,31.0373728],[77.1221217,31.0375842],[77.1221306,31.0378068],[77.1221324,31.0378692],[77.1221217,31.0379519],[77.1221968,31.0380438],[77.1222826,31.0381266],[77.122347,31.0382001],[77.122465,31.0382369],[77.1227761,31.0383012],[77.1230766,31.0384575],[77.1232589,31.0386138],[77.1234413,31.0387884],[77.1236881,31.0388896],[77.1240636,31.0389723],[77.1244606,31.0390366],[77.1249112,31.0391469],[77.1252076,31.0392848],[77.1253604,31.0394319],[77.1256448,31.0396548],[77.125799,31.0397743],[77.1259894,31.0398984],[77.126153,31.0401053],[77.1263838,31.0403351],[77.1265608,31.0405396],[77.1267458,31.0407832],[77.1269389,31.0410498],[77.1272393,31.0413899],[77.1275398,31.0415922],[77.1279474,31.041822],[77.1281513,31.0421345],[77.1282049,31.0423735],[77.1282264,31.0426125],[77.12828,31.0428791],[77.1283766,31.0431181],[77.1286234,31.0433479],[77.1293315,31.0437799],[77.1301469,31.0442303],[77.130576,31.0445429],[77.1309891,31.0449106],[77.1312439,31.0451772],[77.1315684,31.0455367],[77.1316837,31.0456356],[77.1323892,31.0461515],[77.1327325,31.0463997],[77.1330544,31.0466111],[77.1334299,31.0467857],[77.1336015,31.0468776],[77.1336874,31.0469696],[77.1337625,31.0470982],[77.1337625,31.0472177],[77.1337088,31.0473556],[77.1335908,31.0476589],[77.1335586,31.0478152],[77.1335908,31.0480082],[77.1336445,31.0481461],[77.1338268,31.048431],[77.1340736,31.0488079],[77.1343526,31.049102],[77.1345993,31.0492583],[77.1348032,31.0493778],[77.1349212,31.0494973],[77.1350929,31.0496352],[77.1352431,31.0497179],[77.1354362,31.0497822],[77.1357044,31.0498006],[77.1358439,31.0498558],[77.1360692,31.0499385],[77.136273,31.050012],[77.1364769,31.050012],[77.1367773,31.0499752],[77.1370777,31.0499109],[77.1373352,31.049819],[77.1375927,31.0496995],[77.1377858,31.0496352],[77.1383008,31.0495708],[77.1387192,31.0494973],[77.138923,31.0494973],[77.1390947,31.0495249],[77.1392342,31.0495984],[77.1394058,31.0497271],[77.1395882,31.0499017],[77.1397921,31.050012],[77.1399959,31.0500304],[77.1401783,31.0499661],[77.1404895,31.0498282],[77.140704,31.0497638],[77.1408864,31.0497363],[77.1410795,31.0498006],[77.1412727,31.0499109],[77.1415302,31.0500672],[77.1417876,31.0501775],[77.1419915,31.050205],[77.1422383,31.0501683],[77.1426674,31.0500396],[77.1429678,31.0499661],[77.1431609,31.0499477],[77.1433326,31.0500304],[77.1434292,31.0501683],[77.1435472,31.0503337],[77.1436759,31.0504348],[77.1438476,31.0505084],[77.1441265,31.0504992],[77.1442875,31.050444],[77.1444699,31.0503429],[77.1446415,31.0502326],[77.1447917,31.0501315],[77.1449527,31.0500488],[77.1451029,31.0499936],[77.1452477,31.0499707],[77.1454354,31.0500304],[77.1456178,31.0500855],[77.1462508,31.0502786],[77.1465834,31.0504164],[77.146798,31.0505451],[77.1469482,31.0506187],[77.147077,31.0507565],[77.1471628,31.0508668],[77.1471735,31.0509587],[77.1471843,31.0511885],[77.1472272,31.0514918],[77.1472915,31.0517676],[77.1473452,31.0519606],[77.1474203,31.0520893],[77.1475276,31.0522547],[77.1475705,31.0523558],[77.1475598,31.0524753],[77.1475061,31.0525856],[77.147313,31.0527878],[77.147195,31.0529165],[77.1471306,31.0530544],[77.1471091,31.0532014],[77.1471306,31.0533485],[77.1472379,31.0534956],[77.1473559,31.0535783],[77.1474417,31.0536794],[77.1474417,31.0537713],[77.1473988,31.0538816],[77.147313,31.054047],[77.1472272,31.0541665],[77.1471735,31.0542125],[77.1470877,31.0542584],[77.1469375,31.0543044],[77.1467873,31.0543687],[77.14668,31.0544147],[77.146562,31.0544974],[77.1464869,31.0545985],[77.1464654,31.0547272],[77.146444,31.0548467],[77.1463903,31.0549845],[77.1463045,31.05515],[77.1462616,31.0552327],[77.1461865,31.0553338],[77.1460899,31.0554808],[77.1459504,31.0557014],[77.1458646,31.0558669],[77.1457895,31.0560599],[77.1457573,31.0562253],[77.1457573,31.056354],[77.145811,31.0564827],[77.1458968,31.056593],[77.1460363,31.0566849],[77.1461328,31.0568411],[77.1461757,31.0569514],[77.1462294,31.0570617],[77.1463367,31.0571812],[77.1464976,31.0573466],[77.1466264,31.0574753],[77.1467122,31.0575948],[77.1467229,31.0577142],[77.1466907,31.0578521],[77.1465727,31.0579532],[77.1464761,31.0580175],[77.1463152,31.0580819],[77.1459504,31.0582381],[77.1458539,31.0583484],[77.1458217,31.0584495],[77.145811,31.0585322],[77.145768,31.0587069],[77.1456822,31.0589182],[77.1455749,31.0591021],[77.1454462,31.0592491],[77.145296,31.0593686],[77.1451136,31.0594237],[77.1449097,31.0594513],[77.1446952,31.0594329],[77.1442445,31.0594329],[77.1438047,31.0594697],[77.1434077,31.0594697],[77.1430215,31.059387],[77.1427854,31.0593226],[77.1425387,31.0593134],[77.1422704,31.0593778],[77.141852,31.0595432],[77.1414443,31.0597546],[77.1411332,31.0599476],[77.1409937,31.0601314],[77.1409186,31.0603336],[77.1409293,31.0605174],[77.1409723,31.0606828],[77.140983,31.060885],[77.1409615,31.0610229],[77.1408757,31.0611791],[77.1407362,31.0613262],[77.1405216,31.0614181],[77.1403178,31.0614732],[77.1401676,31.0615376],[77.1400496,31.0616295],[77.1398994,31.0617489],[77.1397492,31.0618317],[77.1395882,31.0618776],[77.1393522,31.0619236],[77.1391805,31.0619787],[77.139084,31.0620706],[77.1390196,31.0621901],[77.1389981,31.0623187],[77.138966,31.0624658],[77.138923,31.0625853],[77.1388479,31.0626956],[77.138687,31.0628977],[77.1385905,31.063054],[77.1385583,31.0631734],[77.138569,31.0632837],[77.1386334,31.063394],[77.1387621,31.0635135],[77.1389338,31.063587],[77.139202,31.0637432],[77.1393522,31.0638995],[77.1394058,31.0640557],[77.1394058,31.0642028],[77.1393629,31.0643406],[77.1392556,31.0646347],[77.1391913,31.0647725],[77.1390625,31.064938],[77.1388479,31.0650666],[77.1385475,31.0652045],[77.1383866,31.0652964],[77.138333,31.0654067],[77.1383222,31.0655169],[77.1383544,31.0656272],[77.1384724,31.0657559],[77.1387299,31.0658294],[77.1389767,31.0658754],[77.1391054,31.066004],[77.1393093,31.066243],[77.1394595,31.0663716],[77.1398028,31.0664543],[77.1401139,31.0665279],[77.1404573,31.0666657],[77.1409079,31.0668036],[77.1414121,31.066923],[77.1415731,31.0669598],[77.1416589,31.0670884],[77.1416482,31.0671803],[77.141616,31.0672722],[77.1415194,31.0674101],[77.1414443,31.0675112],[77.1412619,31.0676582],[77.1410688,31.0678788],[77.1403822,31.0685588],[77.1401676,31.0687978],[77.1401247,31.0690551],[77.140189,31.0691837],[77.1403393,31.069294],[77.1405109,31.0694778],[77.1407684,31.0697167],[77.1411332,31.0701762],[77.1412619,31.070507],[77.1413478,31.0707643],[77.1413263,31.0710033],[77.1412405,31.0712606],[77.1411976,31.0715179],[77.1410903,31.0718671],[77.1409615,31.0722898],[77.1402588,31.0747158],[77.140189,31.0750006],[77.1401676,31.075166],[77.1401354,31.0753039],[77.1400603,31.0754417],[77.1399423,31.0755612],[77.1397814,31.0756806],[77.1396311,31.0758001],[77.1395775,31.0758736],[77.139556,31.0759839],[77.139556,31.0760666],[77.139556,31.0762136],[77.139599,31.0763239],[77.1396419,31.0763882],[77.1396633,31.0764801],[77.1396311,31.0765536],[77.1395882,31.0766363],[77.1395453,31.0768109],[77.1394809,31.0771049],[77.1394684,31.0772714],[77.1394595,31.0773898],[77.1394488,31.0776655],[77.1394166,31.0779503],[77.1394166,31.0781433],[77.139438,31.0783454],[77.1394166,31.0785292],[77.1393951,31.0787222],[77.1392556,31.0789243],[77.1390625,31.0790805],[77.1389123,31.0792],[77.1388479,31.0792643],[77.1388265,31.0793195],[77.1387836,31.0793654],[77.1386656,31.0794205],[77.1385261,31.0795216],[77.1384402,31.0796319],[77.1383651,31.0797238],[77.1383008,31.0798983],[77.1380969,31.0803578],[77.138054,31.0806242],[77.1379682,31.0811204],[77.1378716,31.0815431],[77.1377965,31.0818923],[77.1377,31.082122],[77.137657,31.0823425],[77.137657,31.0824987],[77.1376892,31.0826365],[77.1377536,31.0827468],[77.1378716,31.0829306],[77.1379896,31.0831603],[77.1381077,31.0833808],[77.1381613,31.0835094],[77.1381613,31.0836656],[77.1380969,31.0838126],[77.1379682,31.0839137],[77.1378394,31.0840424],[77.1377214,31.0841434],[77.1375176,31.0842904],[77.1373352,31.0844374],[77.1372493,31.0845293],[77.1371742,31.0846304],[77.1370348,31.0847039],[77.1368202,31.0847958],[77.1366485,31.0849336],[77.1365734,31.0850255],[77.136552,31.0851541],[77.136552,31.0853287],[77.1365734,31.0854757],[77.1365842,31.0856595],[77.136552,31.0858341],[77.1365305,31.0859076],[77.1364769,31.0859994],[77.136391,31.0861097],[77.1362945,31.0862108],[77.1361979,31.0863026],[77.1360799,31.0863302],[77.1359619,31.0863302],[77.1357473,31.0863578],[77.1354898,31.0863853],[77.1353718,31.0863761],[77.1352645,31.0862843],[77.1350821,31.0861832],[77.134889,31.0861097],[77.1347281,31.0860546],[77.134492,31.0860821],[77.1342882,31.0861097],[77.1340736,31.0861189],[77.1339234,31.0861005],[77.1336552,31.0860821],[77.1334192,31.0860913],[77.1332368,31.0861556],[77.133108,31.0862108],[77.1329256,31.0862659],[77.1327754,31.0862659],[77.1326145,31.0862567],[77.1323248,31.0862751],[77.1320566,31.0863302],[77.1318206,31.0862843],[77.1315953,31.0862108],[77.131445,31.086174],[77.1313163,31.0861648],[77.1311983,31.0862016],[77.1310052,31.0862659],[77.1307906,31.086321],[77.1305653,31.0863578],[77.1304044,31.086367],[77.1302756,31.0863486],[77.1301576,31.0862751],[77.1300074,31.0861556],[77.1298572,31.0860729],[77.1297284,31.0860454],[77.1295675,31.0860729],[77.1294066,31.0861556],[77.1293315,31.08622],[77.1292778,31.086321],[77.1292242,31.0864405],[77.1292134,31.0865048],[77.1292456,31.0866058],[77.1292778,31.0867345],[77.1292778,31.0868264],[77.1292349,31.0869182],[77.1291813,31.0870285],[77.1291062,31.0871939],[77.1290954,31.0873776],[77.1291383,31.0875338],[77.1292242,31.0876992],[77.1293637,31.0879289],[77.1294602,31.0880943],[77.1296319,31.0881954],[77.1297606,31.0883056],[77.1298143,31.0884618],[77.1298894,31.0886639],[77.1299859,31.088811],[77.1301469,31.0889396],[77.1304151,31.0890682],[77.130576,31.089059],[77.1307262,31.0890039],[77.1309086,31.0889396],[77.1310588,31.0889304],[77.1312519,31.0889763],[77.1314236,31.089059],[77.1315416,31.0891968],[77.1316274,31.0893347],[77.1317133,31.0894633],[77.131842,31.0895919],[77.1320244,31.0896838],[77.1321102,31.0897757],[77.1321532,31.0898584],[77.1321532,31.0899411],[77.1321532,31.0900789],[77.1321532,31.0902075],[77.1321532,31.0903361],[77.1320888,31.0905474],[77.1320029,31.0907128],[77.1318527,31.0909609],[77.1317669,31.0911171],[77.1317025,31.0912365],[77.1315953,31.0913468],[77.1314987,31.0913743],[77.1313592,31.0913743],[77.1311661,31.0913376],[77.1310052,31.0913284],[77.1307906,31.0913376],[77.1305975,31.0913468],[77.1304687,31.0913927],[77.1303078,31.0915213],[77.1302327,31.0915948],[77.1301361,31.0917235],[77.1300503,31.091797],[77.1299323,31.0918521],[77.1298357,31.0918613],[77.1296641,31.0918613],[77.1295031,31.0918705],[77.1292993,31.0919256],[77.1291383,31.092045],[77.1290525,31.092192],[77.1289989,31.092339],[77.1289881,31.0924676],[77.1290311,31.0926698],[77.1291276,31.0928351],[77.1292993,31.0930005],[77.1294817,31.0931475],[77.129589,31.0933313],[77.1295675,31.0934599],[77.1295246,31.0935885],[77.129428,31.0937998],[77.1294066,31.0939927],[77.1294388,31.0941857],[77.1295568,31.0944246],[77.1296962,31.0944981],[77.1299108,31.0945164],[77.1301469,31.0945072],[77.1303614,31.0946083],[77.1304473,31.0947737],[77.1304473,31.0948931],[77.1303936,31.0950309],[77.1302327,31.0952422],[77.130061,31.0953984],[77.129943,31.095573],[77.1299537,31.0957934],[77.1300288,31.0959588],[77.1301576,31.0961885],[77.1302971,31.0963814],[77.1305224,31.0965744],[77.1305895,31.0967136],[77.1305812,31.0969155],[77.1304935,31.0972255],[77.1303791,31.0975575],[77.1302622,31.0976574],[77.1300281,31.0977392],[77.1297831,31.0977612],[77.1296436,31.0978609],[77.1295191,31.0980008],[77.1293426,31.098242],[77.1292157,31.0983142],[77.1290311,31.0983474],[77.1288118,31.0983091],[77.1284896,31.098288],[77.1282589,31.0983227],[77.1280685,31.0983867],[77.125012,31.0998773],[77.1247503,31.0999368],[77.1245142,31.0999276],[77.1241486,31.0997714],[77.1239388,31.0996874],[77.1237467,31.0996489],[77.1234797,31.0997096],[77.1233198,31.0998295],[77.1231881,31.0999806],[77.1230697,31.1002974],[77.1229968,31.1004648],[77.1229016,31.1006835],[77.1228753,31.1007264],[77.1227118,31.1009932],[77.122465,31.1011953],[77.1221539,31.1013423],[77.1219178,31.101425],[77.1216818,31.1015536],[77.1216183,31.101641],[77.1216047,31.1017797],[77.1216393,31.1018968],[77.1217512,31.1020254],[77.1219418,31.1021005],[77.1220728,31.1021109],[77.1222535,31.102057],[77.1225086,31.101961],[77.1228942,31.1018384],[77.1232268,31.1018292],[77.1234843,31.1017833],[77.1238812,31.1016822],[77.1242353,31.1016179],[77.1245035,31.1016179],[77.124761,31.1016455],[77.1249219,31.101719],[77.1251472,31.1018843],[77.1253189,31.1021232],[77.1254369,31.1023069],[77.1254476,31.1024631],[77.1254154,31.102656],[77.1253208,31.1028637],[77.1252715,31.103031],[77.1253044,31.1031966],[77.1254231,31.1033482],[77.1256455,31.103401],[77.1258642,31.1033652],[77.1259943,31.1032603],[77.1261282,31.1029736],[77.1262471,31.1026724],[77.1263325,31.1024387],[77.1263445,31.1021966],[77.1263329,31.1019868],[77.1263682,31.1017648],[77.1265062,31.1015043],[77.1266814,31.1012321],[77.1267995,31.1010024],[77.1269819,31.1008554],[77.1274325,31.1005431],[77.1278509,31.1002491],[77.1286985,31.0997714],[77.1290847,31.0996612],[77.1293744,31.0996244],[77.1296319,31.0996795],[77.1298786,31.0998265],[77.130061,31.0999919],[77.130222,31.1001021],[77.1303292,31.1001664],[77.1305546,31.1001848],[77.1308657,31.1001664],[77.1311983,31.1001389],[77.1315094,31.1000654],[77.1316489,31.0999827],[77.1317669,31.0997898],[77.1318098,31.099652],[77.1319386,31.0990824],[77.1319922,31.0989354],[77.1321102,31.0988619],[77.1322926,31.0987884],[77.1325179,31.0987241],[77.1328183,31.0987425],[77.1331938,31.098816],[77.1333977,31.0989538],[77.133505,31.09911],[77.1336874,31.0993396],[77.1339127,31.0995417],[77.134138,31.099652],[77.1343418,31.0998173],[77.1344813,31.0999735],[77.1346959,31.1000929],[77.1349856,31.1001297],[77.1352216,31.1001205],[77.1355649,31.100047],[77.1359726,31.0999],[77.1361657,31.0998357],[77.1363481,31.0998357],[77.1364769,31.0999276],[77.1366271,31.1000286],[77.1368846,31.1001205],[77.1371099,31.1001389],[77.1373459,31.1002124],[77.1375176,31.1003594],[77.1375927,31.1004604],[77.1376249,31.1005615],[77.1377,31.1006809],[77.1377965,31.1008554],[77.1378356,31.1010416],[77.1378197,31.1012071],[77.1377529,31.1014529],[77.1376673,31.1016528],[77.1375871,31.1018732],[77.1375026,31.1022086],[77.1376364,31.1023879],[77.1378823,31.1024907],[77.1383115,31.1029867],[77.1388357,31.103241],[77.1389802,31.1035961],[77.138966,31.1039329],[77.1388853,31.1041833],[77.1387784,31.1043152],[77.1385023,31.1045152],[77.1384307,31.1045656],[77.1382739,31.1047873],[77.1381303,31.1049876],[77.1380149,31.1052018],[77.1379466,31.1054103],[77.1380143,31.105621],[77.1380969,31.1057702],[77.1382149,31.1059539],[77.1384067,31.1062301],[77.1386756,31.1065476],[77.1388844,31.1068156],[77.1390164,31.1070428],[77.1390444,31.1072687],[77.1390209,31.1074398],[77.1389298,31.1079035],[77.1388448,31.1083641],[77.1388482,31.1086125],[77.1389249,31.1087765],[77.1389761,31.1088506],[77.1390177,31.1088759],[77.1390718,31.108887],[77.1392608,31.1088908],[77.1396315,31.1088932],[77.1399421,31.1088493],[77.1402162,31.1087796],[77.1404803,31.1084724],[77.1405961,31.1080505],[77.1405713,31.1077826],[77.1406548,31.1074987],[77.1409891,31.1073461],[77.1412513,31.1070604],[77.1413496,31.1066245],[77.1413364,31.10631],[77.1417364,31.1058827],[77.1420022,31.1054762],[77.1422682,31.1053442],[77.1426155,31.105272],[77.1429693,31.1053964],[77.1434683,31.1057358],[77.143914,31.1058618],[77.1443133,31.1058768],[77.1445231,31.1057221],[77.1446666,31.1052026],[77.1448024,31.1048883],[77.1450707,31.1046954],[77.145414,31.1045208],[77.1458539,31.1044106],[77.1461543,31.1043739],[77.1464332,31.1042361],[77.1466907,31.1040799],[77.1468946,31.1039697],[77.1471199,31.1039605],[77.1475061,31.1040523],[77.1479031,31.1042177],[77.1482679,31.1043279],[77.1485727,31.1043762],[77.1489707,31.104371],[77.1492604,31.1043896],[77.1495934,31.1043546],[77.1498373,31.1042656],[77.1512559,31.1033579],[77.1515275,31.1031041],[77.1518802,31.1028911],[77.1528017,31.1025415],[77.1528406,31.1025339],[77.1530323,31.1025195],[77.1532066,31.1025539],[77.153337,31.1026248],[77.1534597,31.1026569],[77.1535844,31.1026621],[77.1537224,31.1026332],[77.153988,31.1025472],[77.1541352,31.1024971],[77.1542855,31.1024524],[77.1544215,31.1024278],[77.1545997,31.1024341],[77.1547318,31.1024799],[77.1549801,31.1025893],[77.1551893,31.1026812],[77.1553898,31.1027322],[77.1554863,31.1027322],[77.1557244,31.102679],[77.1560516,31.1025871],[77.1562427,31.1025668],[77.1563283,31.1025764],[77.1564647,31.102633],[77.1566203,31.1026606],[77.1570253,31.1026698],[77.1576046,31.1026928],[77.1580257,31.1027548],[77.1582294,31.1027699],[77.1587655,31.1026327],[77.1592488,31.1024911],[77.1594495,31.1024188],[77.1598376,31.1023812],[77.160061,31.1023344]]}}]}
