{"type":"FeatureCollection","metadata":{"route":"Kandy–Ella Railway","relationIds":[],"contributingWayIds":[],"coordinateCount":18,"calculatedLengthKm":114.72,"preparedAt":"2026-08-16"},"features":[{"type":"Feature","properties":{"name":"Kandy–Ella Railway"},"geometry":{"type":"LineString","coordinates":[[80.6337,7.2906],[80.616,7.279],[80.596,7.266],[80.575,7.208],[80.567,7.162],[80.548,7.104],[80.536,7.049],[80.555,6.984],[80.572,6.895],[80.665,6.937],[80.741,6.95],[80.807,6.917],[80.841,6.865],[80.907,6.82],[80.952,6.77],[80.99,6.823],[81.016,6.844],[81.0475,6.8762]]}}]}