{"type":"FeatureCollection","features":[{"type":"Feature","properties":{"routeName":"Konkan Railway journey","osmRelationIds":[337228],"contributingWayIds":[1314987910,1315478120,1314987856,1315621093,236364887,817667266,1314987855,842279913,89184241,1289154826,1289154827,1289154818,1289154819,1289154800,1289154801,1289154807,1289154805,236188798,1289154811,1289154812,802938677,659100408,643740473,643740461,643740470,558731013,398294950,558731012,643716982,1152890621,1153117118,1153117119,1153117120,1153117121,235867416,384538404,384538410,384543908,384543909,122269602,643710691,1013444812,1013444801,643710710,643710717,595314741,856527014,1013286337,1013286332,1013286334,1013286335,561690013,561526185,1013286349,595314747,376927960,1058064647,1058064646,643074998,621732914,621732913,602887032,643074996,1058064651,1058064654,1058064657,603597147,614488865,614488866,563239084,548960658,560631402,782020956,782020957,808530006,1188778406,808530008,699441062,781831339,781831338,699441063,699441056,628750524,628750525,1311408221,608390647,608390649,608390650,699441059,699441058,45095851,45095817,45095816,1007640413,1007640414,319935265,1200914828,661778951,661778955,319935266,782025323,782025324,377611184,658557426,658557405,658557389,312446323,700704019,700704037,700704038,1186697485,1186697488,1186697487,1186697486,700704041,700704042,700704044,1164802359,840526277,840526278,700704043,840536517,1164802356,1164802357,700704046,700704045,700704047,700704048,817344240,670173207,1494792573,640139687,817344242,817344241,670173205,128543795,1494629235,1494629232,1494629231,1346427283,1494629233,306742813,1347662362,1347662364,306742816,309412613,309412614,1347662373,1347662369,1347662370,1347662372,77630152,1494360622,1494360625,1494360626,1494360636,1494360637,1494360642,1494360643,1494360621,670042795,670042796,1494387563,1494387562,670042799,1494610457,670042800,1539700864,77630154,197474497,1494391707,1494391706,197474482,221957038,221957039,221957040,221957037,1494391696,1495040637,1495048206,1495040638,1495048209,1495048214,1495048213,1495048210,1495048215,1495048218,1495048220,1495048221,1495048236,1495066979,1495066981,1495066980,1495157004,1495157005,197474476,197474488,197474496,197474480,221470229,221470232,245752968,245752973,221427394,221427396,221427399,221427403,245752972,245752970,245752975,245752969,245752967,245752971,317142540,914314314,303592583,658572308,658572309,303592582,658572310,658572311,306571441,306571440,41438891,41438889,41438888,41438887,658572306,658572307,658572304,658572305,1539067104,1539067091,245754152,658572302,658572303,245754129,245754160,245754136,1539067096,1539067088,700726836,700726837,71402400,658572298,658572299,41438885,658572297,658572296,41438884,41438883,245754126,245754141,245754127,245754149,245754158,245754143,245754145,245754134,245754155,245754139,245754146,245754131,1539700862,1539700855,1539700856,1539700861,169098214,169098215,164935974,164935973,41438882,41438881,41438880,41438879,308433664,308433669,248803450,248803458,41438878,41438877,245757868,245757864,41438876,41438875,245757867,245757859,41438874,1353112918,1353112917,700792205,700792204,41438873,245757857,245757861,245757858,245757860,41438872,245757862,245757865,41438871,245757866,245757863,1539700849,41438870,1539700850,1539700851,41438869,248803453,248803451,248803463,248803454,248803452,248803460,41438868,41438867,317062985,317062984,248803456,248803455,41438866,316981991,316981993,248803459,248803462,248803457,248803461,308433671,41438865,308433665,41438864,316981992,316981990,41438863,308433674,308433668,41438862,316981994,316981989,41438861,41438860,41438859,1488760314,1488760315,700798338,700798339,308433670,308433667,308433672,308433673,700798340,700798341,41438076,1311408222,1311408258,1311408229,700805156,700805157,700805159,700805158,700805161,700805160,91860427,91860454,91860471,91860407,91860397,91860425,91860448,91860472,91860461,91860400,91860446,91860469,91860458,91860396,91860401,91860475,91860395,91860420,113782684,113782693,91860464,91860450,113782687,113782683,113782690,113782686,91860403,91860435,91860459,91860398,91860447,91860470,91860466,91860413,91860452,91860473,91860393,91860416,91860449,91860442,91860463,91860431,91860404,91860394,700820457,700820456,308528137,308528136,317084996,317084994,317084993,317084995,297637357,297637347,297637353,297637358,700820458,700820461,700820462,297637360,245087846,245087852,700820459,700820460,245087877,245087878,1459740866,1459740867,297637362,297637355,700820463,1459741125,1459741124,700820464,700820465,700820466,1539700847,700820467,994105777,700820468,700820470,700820469,700820471,700820472,700820473,700820474,700822770,700822771,700822772,700822773,308442723,308442721,1539700842,1539700841,1539700840,1539700839,1493390705,1493390706,306510148,306510146,1040524714,1040524715,1040952533,1040952534,317421206,317421207,302603487,675670882,1539573526,675670883,302603486,306537889,1539573532,892744458,306537890,1127677354,1127677353,317142539,939179785,939179786,939187835,1539700866,1539700869,1539700872,1539700875,1314425674,1314425673,939187836,1311408215,1311408214,1311408213,1311408212,248803466,365897354,1539067093,1539700854,248803472,1034581700,1034581701,1328053779,1328053778,248803469,1157976360,1157976359,200654603,200654602,248803471,1112197602,1490214011,1490214012,1112197601,248803468,1311408207,1311408196,805802326,1311408198,1335281057,1311408206,1212959454,1212959455,805802325,1020306626,1362264299,1362264297,1362264298,1362264300,1327838788,1327838787,1369837453,1369837452,1020306627,1307107810,1307107809,1381700807,1381700806,202295801,202295803,202295802,1311207640,1311207641,1268992752,202295804,1262259770,1262259771,700833709,1349188946,700833710,1467719307,1539573543,1539700876,45078432,1262255593,1262255594,1262255595,1262255596,1262255597,1262255591,1262255592,1381591494,1381591495,1262255598,45078433,124351638,124351640,1327189215,1327189213,1327189214,1327189212,248803467,248803470,657035734,781065792,1226230225,1226230224,781065793,1311408202,313758453,1311408211,818103273],"source":"OpenStreetMap","licence":"ODbL","orientation":"Mumbai CSMT to Madgaon","coordinateCount":3361,"calculatedDistanceKm":565.72},"geometry":{"type":"LineString","coordinates":[[72.8353965,18.9405387],[72.8353869,18.9406335],[72.8351879,18.9425296],[72.835137,18.9430169],[72.8351288,18.9431236],[72.8351241,18.9432305],[72.8351228,18.9433375],[72.8351249,18.9434445],[72.8351305,18.9435514],[72.8351396,18.943658],[72.8351521,18.9437644],[72.8351681,18.9438703],[72.8352164,18.9441224],[72.8352912,18.944351],[72.8354151,18.944654],[72.8356014,18.9449604],[72.8357869,18.945231],[72.8359366,18.9454309],[72.8360185,18.9455403],[72.8361875,18.94574],[72.8366136,18.9463025],[72.8369183,18.9466565],[72.837038,18.9468042],[72.837207,18.9470231],[72.837325,18.9471873],[72.8373883,18.9472792],[72.8375119,18.9474505],[72.837692,18.947757],[72.8378874,18.9482311],[72.8379578,18.9485343],[72.8379985,18.9487772],[72.838074,18.9495974],[72.8381379,18.9502291],[72.8381848,18.9509825],[72.8381797,18.9518303],[72.8381225,18.9538301],[72.838085,18.9542462],[72.8380708,18.9545442],[72.8380497,18.9550058],[72.8380668,18.9554001],[72.8381149,18.9557423],[72.8381893,18.9561305],[72.8382932,18.9565237],[72.8388472,18.9583756],[72.838981,18.9587699],[72.8390928,18.9591785],[72.8393298,18.9600594],[72.8394009,18.960348],[72.8394613,18.9605501],[72.839504,18.9606645],[72.8395206,18.9607052],[72.8395391,18.9607495],[72.8395868,18.9608485],[72.8396357,18.9609461],[72.8397222,18.9610998],[72.8398452,18.9612742],[72.8399735,18.9614277],[72.8410966,18.9625865],[72.8422925,18.9638294],[72.8424682,18.9640098],[72.8434317,18.964994],[72.8436967,18.9653056],[72.8438832,18.9655629],[72.8439898,18.9657445],[72.8440879,18.9659355],[72.844186,18.9661569],[72.8442814,18.9664287],[72.8443431,18.9666568],[72.8443823,18.9668862],[72.8444188,18.9671792],[72.8444244,18.9673131],[72.844437,18.9677076],[72.8444388,18.9679226],[72.8444575,18.9687726],[72.844461,18.9689358],[72.8444821,18.9698957],[72.8445149,18.9703701],[72.8445793,18.9708125],[72.844662,18.9711596],[72.8447447,18.971449],[72.8448975,18.9719328],[72.8451069,18.9725756],[72.8451378,18.9727349],[72.8451872,18.9731691],[72.8451636,18.9734851],[72.8450988,18.9738489],[72.8444218,18.9767565],[72.8442643,18.9774327],[72.8440688,18.9782724],[72.8430603,18.9824118],[72.8427062,18.9836292],[72.8425882,18.9843901],[72.8426097,18.9848974],[72.8426649,18.9852303],[72.8427147,18.9854496],[72.8428042,18.9857386],[72.8429441,18.986044],[72.8430943,18.9862972],[72.8432532,18.986503],[72.8435313,18.9868035],[72.8437593,18.9870174],[72.8442308,18.9873784],[72.8442765,18.9874126],[72.8444877,18.9875708],[72.8480198,18.9901601],[72.8511284,18.9927395],[72.8518794,18.9934902],[72.8523836,18.9941496],[72.8529308,18.9951843],[72.8539388,18.997364],[72.8543429,18.9982378],[72.854563,18.9987319],[72.854762,18.9992614],[72.8549042,18.9997024],[72.8550083,19.0000524],[72.8550325,19.0001468],[72.855113,19.0004607],[72.8552095,19.0009006],[72.8552922,19.0013939],[72.8553346,19.0017421],[72.8553494,19.0019987],[72.8553601,19.0023351],[72.8553565,19.002842],[72.8553372,19.0034113],[72.8552816,19.0042331],[72.855206,19.0053897],[72.855185,19.0058882],[72.8551336,19.0070396],[72.8551385,19.0076955],[72.8551869,19.0083715],[72.8552986,19.0093069],[72.8554661,19.0101584],[72.8557183,19.0110836],[72.8558856,19.0116325],[72.8561898,19.0123312],[72.8563796,19.0126974],[72.8565868,19.0130457],[72.8567989,19.0133499],[72.8570759,19.0137041],[72.8573145,19.0140782],[72.857495,19.0143035],[72.8578131,19.0147198],[72.85817,19.0151246],[72.8589443,19.0160682],[72.8595548,19.0168121],[72.8597363,19.0170431],[72.8600818,19.0176486],[72.8603004,19.0180396],[72.8604617,19.0183515],[72.8606844,19.0188747],[72.8609013,19.019521],[72.8610516,19.0201273],[72.8610956,19.0203439],[72.8611795,19.0208624],[72.8611934,19.0210341],[72.8612153,19.0213787],[72.8612197,19.0217551],[72.8612124,19.0221495],[72.8611787,19.0225314],[72.8610956,19.0232356],[72.8610438,19.023764],[72.860989,19.0243511],[72.8609662,19.0245106],[72.8609082,19.0248699],[72.8608565,19.0251263],[72.8607623,19.0256938],[72.8606826,19.026411],[72.8606281,19.0269203],[72.8605399,19.0276663],[72.8605044,19.0280607],[72.8604348,19.0286721],[72.8603976,19.0290974],[72.8603909,19.0295822],[72.8604067,19.0300386],[72.8604297,19.0304663],[72.8604928,19.0310625],[72.8605439,19.0313825],[72.8606197,19.0317302],[72.8607308,19.0322018],[72.8609046,19.0327891],[72.8612825,19.0337854],[72.8617278,19.034683],[72.8621462,19.0353118],[72.8626062,19.0359002],[72.8630116,19.0363641],[72.8634251,19.0368241],[72.8644195,19.0379507],[72.8651412,19.0387683],[72.8659597,19.0397897],[72.8671455,19.0412046],[72.8678439,19.0421777],[72.8684447,19.0432121],[72.8686999,19.0438398],[72.8689,19.0443736],[72.8691334,19.0451418],[72.8692782,19.0457553],[72.8693989,19.0463993],[72.8694391,19.0474971],[72.8694203,19.048491],[72.8693372,19.048955],[72.8690395,19.0512089],[72.869018,19.0516804],[72.8690233,19.0518338],[72.8690287,19.0519872],[72.8690636,19.0526134],[72.8690985,19.0529785],[72.8691173,19.053112],[72.869185,19.0535056],[72.8692773,19.0538962],[72.8695069,19.0546008],[72.8698404,19.0554099],[72.8700403,19.0557839],[72.8703469,19.0563433],[72.8705918,19.0567419],[72.8717332,19.0583803],[72.8721719,19.0589731],[72.8727208,19.0596554],[72.8729925,19.0599762],[72.8734244,19.0604418],[72.873803,19.0608317],[72.8742592,19.0612664],[72.8747619,19.0617178],[72.8753195,19.0621756],[72.87598,19.062683],[72.8761285,19.0627912],[72.87639,19.0629816],[72.8766376,19.0631497],[72.8769101,19.063303],[72.8774612,19.0636167],[72.8780245,19.0639231],[72.8782657,19.0640669],[72.8784808,19.0642],[72.8787458,19.0643733],[72.8793034,19.0648111],[72.8804586,19.0657153],[72.8807948,19.0659824],[72.8812306,19.0662986],[72.8819561,19.0667784],[72.8822499,19.06696],[72.8825446,19.0671097],[72.8827111,19.0671813],[72.8828715,19.0672308],[72.8829046,19.0672392],[72.8829646,19.0672543],[72.8830965,19.0672876],[72.8833319,19.0673223],[72.8835804,19.0673173],[72.8838445,19.0672901],[72.8840642,19.0672456],[72.8849132,19.0670444],[72.8884677,19.0661596],[72.8885727,19.0661346],[72.888988,19.0660321],[72.8901084,19.0657601],[72.891521,19.065417],[72.8923927,19.0651891],[72.8951965,19.064506],[72.8966527,19.0641479],[72.8984048,19.0637078],[72.8989451,19.0635576],[72.8992153,19.0634674],[72.8995555,19.0633232],[72.9000132,19.0630829],[72.9003088,19.0629236],[72.9013038,19.06247],[72.9024406,19.0619536],[72.9075381,19.0597141],[72.9076668,19.0596569],[72.9078759,19.0595567],[72.909046,19.0589834],[72.9095449,19.0587353],[72.9109219,19.0580211],[72.9126139,19.0569451],[72.9141034,19.055911],[72.9157646,19.0548469],[72.9163315,19.0544837],[72.9167573,19.0542498],[72.9174503,19.0538497],[72.9184572,19.0532068],[72.918549,19.0531473],[72.9201741,19.0521137],[72.9208824,19.051657],[72.9222168,19.0507952],[72.9224056,19.0506762],[72.9228888,19.0503981],[72.9234784,19.0500685],[72.9240632,19.0497572],[72.9247474,19.0494516],[72.9249459,19.0493658],[72.9256154,19.0490994],[72.9259019,19.0490047],[72.9264955,19.0487854],[72.9271069,19.0485928],[72.9285915,19.0481137],[72.9289994,19.0479644],[72.9294031,19.0478499],[72.9296913,19.0477997],[72.9301308,19.0477695],[72.9304984,19.0477821],[72.9308421,19.0478139],[72.931312,19.0479207],[72.9316303,19.0480053],[72.9319176,19.0481208],[72.9321897,19.0482465],[72.9324129,19.0483685],[72.9327114,19.0485501],[72.9329657,19.0487709],[72.9334856,19.0492364],[72.9340337,19.0495765],[72.9344236,19.0497492],[72.9347664,19.0498809],[72.9370115,19.0504934],[72.9375125,19.0506465],[72.949516,19.0549019],[72.9505229,19.0552141],[72.9567878,19.0570419],[72.9578586,19.057334],[72.9611324,19.058162],[72.9785117,19.0622591],[72.9806207,19.0627488],[72.9812162,19.0628674],[72.9818251,19.0629662],[72.9823427,19.0630245],[72.9828845,19.0630499],[72.9834397,19.0630271],[72.9839789,19.062989],[72.9845341,19.062913],[72.9849471,19.0628192],[72.9855721,19.0626367],[72.9861139,19.0624313],[72.9864814,19.0622995],[72.9894184,19.0609584],[72.9898583,19.0607759],[72.9902445,19.0606314],[72.9905637,19.0605325],[72.9910438,19.0604286],[72.9913871,19.0603728],[72.9919504,19.0603271],[72.9925351,19.0603424],[72.9929804,19.0603855],[72.9934122,19.0604691],[72.9939433,19.0606212],[72.9946728,19.0608925],[72.9951285,19.061074],[72.9954239,19.0611916],[72.9960188,19.0614467],[72.9964941,19.0616505],[72.9967757,19.0617798],[72.9970815,19.0619471],[72.9973819,19.0621372],[72.998039,19.062553],[72.9985917,19.0628832],[72.9990233,19.0630888],[72.9994951,19.0632696],[73.0000051,19.0634124],[73.000461,19.0635138],[73.0008366,19.0636241],[73.0012526,19.0637427],[73.0019433,19.0639167],[73.0022124,19.06398],[73.0025159,19.0640482],[73.0028103,19.0641164],[73.0033149,19.0642341],[73.0035062,19.0642761],[73.0040014,19.0644337],[73.0043476,19.0645025],[73.0046224,19.0645318],[73.0048653,19.0645228],[73.005114,19.0644859],[73.0053522,19.0644224],[73.0056146,19.0643292],[73.0059688,19.0641286],[73.0061182,19.0640291],[73.0062564,19.0639013],[73.0063926,19.0637572],[73.006479,19.0636544],[73.0065695,19.0635295],[73.0066782,19.0633345],[73.0067291,19.0632183],[73.0067778,19.0630761],[73.0068144,19.0629541],[73.0069029,19.062445],[73.0072783,19.061359],[73.0074978,19.0609492],[73.0076429,19.0607385],[73.0077774,19.0605712],[73.0079986,19.0603387],[73.0086947,19.0596742],[73.009669,19.0588491],[73.009926,19.0586315],[73.0103008,19.0583141],[73.0106285,19.0580366],[73.0110385,19.0576894],[73.0131082,19.0559367],[73.0131658,19.0558879],[73.0133304,19.0557407],[73.0135162,19.0555166],[73.0136579,19.0553045],[73.0138737,19.0550729],[73.0144769,19.0546288],[73.0149902,19.0543736],[73.015248,19.0541941],[73.0163267,19.0537322],[73.016542,19.053626],[73.0166345,19.0535803],[73.0168725,19.0534628],[73.0171316,19.0533172],[73.0173675,19.0531513],[73.0175733,19.0529808],[73.0178149,19.0527421],[73.017987,19.0525263],[73.0181512,19.0522871],[73.0182813,19.0520379],[73.0183563,19.0518237],[73.0184271,19.0515964],[73.0184632,19.0514533],[73.0185312,19.0510946],[73.0185384,19.0507482],[73.018557,19.0505707],[73.0186666,19.0499076],[73.0187176,19.0496699],[73.0187558,19.0494918],[73.0188496,19.0489511],[73.0188521,19.0486444],[73.0188278,19.0467336],[73.0188352,19.045224],[73.0188453,19.0445127],[73.0188461,19.0437772],[73.0188456,19.0435521],[73.0188446,19.0430292],[73.0188349,19.0427182],[73.018826,19.0424053],[73.0188021,19.0419956],[73.0186225,19.0398073],[73.0184721,19.0378224],[73.0184205,19.0372367],[73.0183867,19.0367794],[73.0182864,19.036017],[73.0182504,19.035761],[73.0182084,19.0354919],[73.0181615,19.0350386],[73.0181414,19.0347375],[73.0180837,19.0335632],[73.0180216,19.0322977],[73.018002,19.0319793],[73.0179925,19.0315192],[73.0179798,19.0312401],[73.0179562,19.0309579],[73.0179287,19.0307111],[73.0179275,19.0307049],[73.0178774,19.0304619],[73.017771,19.0300542],[73.017607,19.0296264],[73.0174129,19.0291252],[73.0173094,19.0288578],[73.0170338,19.0283304],[73.016713,19.0275004],[73.0165842,19.0271468],[73.0165059,19.0268667],[73.0164534,19.0265985],[73.0164156,19.0263502],[73.0163966,19.0260733],[73.0163904,19.0258229],[73.016413,19.0255148],[73.0164686,19.0251674],[73.0165508,19.0248622],[73.0166442,19.0245778],[73.0167773,19.0242776],[73.0169261,19.0239979],[73.0171107,19.0237142],[73.0173146,19.0234635],[73.0175203,19.0232337],[73.0177996,19.0229425],[73.0191051,19.0217733],[73.0204391,19.0205784],[73.0205278,19.0205003],[73.0208469,19.0201818],[73.0213021,19.0197039],[73.0218012,19.0192431],[73.0221337,19.0189497],[73.02283,19.0183233],[73.0231441,19.0180195],[73.0233897,19.0177228],[73.0236142,19.0174075],[73.0238146,19.0170694],[73.0240039,19.0166757],[73.0241159,19.0163765],[73.0242072,19.0160421],[73.0242461,19.0158692],[73.0243106,19.0155341],[73.0243455,19.0152706],[73.0245489,19.0132343],[73.0246387,19.0125868],[73.0246673,19.0121807],[73.024744,19.0115665],[73.0247729,19.0113351],[73.0249538,19.0091856],[73.0250054,19.0088512],[73.0253128,19.005869],[73.0253665,19.0054457],[73.0254584,19.0049259],[73.0255985,19.0045064],[73.0257819,19.0040854],[73.0261208,19.003529],[73.0264447,19.0031616],[73.0270135,19.0026782],[73.0281226,19.0018068],[73.0321413,18.9986129],[73.033452,18.9975219],[73.0348683,18.9963897],[73.0350075,18.9962458],[73.0351392,18.9960957],[73.0352631,18.9959397],[73.0353787,18.9957782],[73.0354859,18.9956115],[73.0355843,18.9954401],[73.0356739,18.9952644],[73.0357542,18.9950847],[73.0358252,18.9949016],[73.0358867,18.9947154],[73.0359386,18.9945266],[73.0359806,18.9943356],[73.0360128,18.994143],[73.036035,18.993949],[73.0360471,18.9937543],[73.0360493,18.9935593],[73.0360419,18.993373],[73.0360254,18.9931873],[73.0359998,18.9930026],[73.0359651,18.9928191],[73.0359214,18.9926374],[73.0358688,18.9924578],[73.0357989,18.9922807],[73.0356443,18.991936],[73.0354631,18.9915953],[73.0350689,18.9909399],[73.0673003,18.9723576],[73.0674213,18.9724432],[73.0692146,18.9738236],[73.0710232,18.975193],[73.0726882,18.9764388],[73.0737408,18.9772411],[73.0742607,18.9776303],[73.0754653,18.9784444],[73.0756323,18.9785442],[73.0775542,18.9796833],[73.0775876,18.9797055],[73.0793196,18.9807129],[73.080975,18.981663],[73.0817916,18.9821456],[73.0823339,18.9824593],[73.0827645,18.9827067],[73.0830292,18.9828454],[73.0833354,18.9829872],[73.0837182,18.983135],[73.0839442,18.9832028],[73.0840563,18.9832285],[73.0844391,18.9833039],[73.0848729,18.983337],[73.0852748,18.983334],[73.085699,18.9832858],[73.0861168,18.9832013],[73.0864422,18.9831108],[73.0867612,18.9830083],[73.0870674,18.9828605],[73.0881194,18.9823085],[73.0887623,18.9819742],[73.0941453,18.979256],[73.0960777,18.9782796],[73.0995264,18.9765383],[73.1018963,18.9753589],[73.1066936,18.9729398],[73.1122054,18.9701677],[73.1124989,18.9700199],[73.1128274,18.9698811],[73.1132197,18.9697575],[73.1136344,18.9696639],[73.1141001,18.9696428],[73.1145658,18.9696639],[73.1148943,18.9697243],[73.1151782,18.9698027],[73.1154844,18.9699203],[73.1157906,18.9700621],[73.1160139,18.9702099],[73.116183,18.9703366],[73.1163967,18.9704935],[73.1168035,18.9708426],[73.1173882,18.9713449],[73.1183055,18.972083],[73.1185791,18.9722961],[73.1188071,18.972428],[73.1191665,18.9726131],[73.1195152,18.9727679],[73.1197593,18.9728769],[73.1200945,18.9729784],[73.1206551,18.9731534],[73.1210333,18.9732726],[73.1215108,18.9734476],[73.1220231,18.9736708],[73.1224012,18.9738839],[73.1226909,18.974064],[73.1229377,18.9742466],[73.1236924,18.9748573],[73.1238426,18.9749791],[73.1242788,18.9753398],[73.1255582,18.9763798],[73.1266821,18.977303],[73.127012,18.9775701],[73.1277254,18.9781477],[73.1286857,18.9789416],[73.1289539,18.9791775],[73.1291363,18.9793753],[73.1293187,18.9795909],[73.1295493,18.9799536],[73.12967,18.9801844],[73.1297773,18.9804634],[73.1298685,18.9807449],[73.1299141,18.981029],[73.1299379,18.9812795],[73.1299406,18.9816752],[73.1299004,18.9819225],[73.1298159,18.9823169],[73.1296845,18.98271],[73.1294779,18.9831006],[73.1292446,18.9834316],[73.1290126,18.9836827],[73.1283689,18.9843067],[73.128029,18.9847005],[73.1275575,18.9851443],[73.1281744,18.9846275],[73.1283039,18.9845084],[73.1290206,18.9838222],[73.129191,18.9836421],[73.1297019,18.983055],[73.1300613,18.982691],[73.1305488,18.9821893],[73.1328075,18.9800466],[73.1345855,18.9783503],[73.1351031,18.9778182],[73.13558,18.9772347],[73.1357834,18.9769749],[73.1359904,18.9766951],[73.1362679,18.9763441],[73.1366308,18.9758175],[73.137909,18.973854],[73.1382621,18.9732955],[73.1400162,18.9706441],[73.1406064,18.9697537],[73.1421586,18.9673828],[73.1430888,18.9659528],[73.1433227,18.9655818],[73.1435341,18.9652122],[73.1437084,18.9648317],[73.1438264,18.9645273],[73.1439433,18.9641763],[73.1440308,18.9637631],[73.1441107,18.963226],[73.1442456,18.9623877],[73.1442818,18.9617257],[73.1445399,18.9583784],[73.1446112,18.9576162],[73.1452191,18.950758],[73.1454464,18.9485644],[73.1454708,18.9482594],[73.1455997,18.9462513],[73.1459666,18.9415275],[73.1459829,18.94093],[73.1459588,18.9403439],[73.1459191,18.9397776],[73.1453906,18.9340616],[73.1453305,18.9333944],[73.1451546,18.9314433],[73.1451546,18.9306923],[73.1452083,18.9299616],[73.1453481,18.9291525],[73.1455524,18.9283332],[73.1459501,18.9272279],[73.1465195,18.9261429],[73.1465392,18.9260955],[73.1485473,18.922124],[73.1505833,18.9183134],[73.1526541,18.914261],[73.1530081,18.9134643],[73.1532871,18.9126371],[73.153448,18.9119165],[73.1536626,18.9101809],[73.1536948,18.9076739],[73.1535124,18.9068314],[73.1533085,18.9063036],[73.153019,18.9057533],[73.1529396,18.9056025],[73.1526116,18.904979],[73.1521283,18.9040605],[73.1518494,18.9032891],[73.1517421,18.9025481],[73.1516987,18.9005634],[73.1517885,18.8905695],[73.1518601,18.8867231],[73.1519245,18.8840533],[73.1520747,18.8827438],[73.1523644,18.881617],[73.1528178,18.8801787],[73.1542418,18.8756347],[73.1544103,18.8749523],[73.1545257,18.8743071],[73.1545848,18.8737069],[73.1545875,18.8732145],[73.1545338,18.8726587],[73.154159,18.8704303],[73.1541156,18.8701927],[73.1540028,18.8698011],[73.1539757,18.8696632],[73.1536134,18.8677767],[73.1530164,18.8646003],[73.1529517,18.8643183],[73.1528293,18.8638559],[73.1527427,18.8635851],[73.1526408,18.8633282],[73.1525378,18.8630773],[73.1524232,18.8628435],[73.1523089,18.8626205],[73.1522405,18.8624746],[73.1520254,18.8620324],[73.1517068,18.8615977],[73.1508324,18.8603514],[73.1505749,18.860057],[73.1503066,18.8597904],[73.149966,18.8595544],[73.1496495,18.8593818],[73.1471202,18.8581863],[73.1467205,18.8580036],[73.1463021,18.857869],[73.1458837,18.8577751],[73.1454679,18.8577421],[73.1450013,18.8577649],[73.1445801,18.8578335],[73.1441106,18.8579991],[73.1427026,18.8585924],[73.1424049,18.858699],[73.1419891,18.8588107],[73.1416485,18.8588691],[73.1412569,18.8588919],[73.1407285,18.8588361],[73.1405166,18.8587955],[73.1401223,18.858666],[73.1396958,18.8584858],[73.1392801,18.858232],[73.1389233,18.8579274],[73.1385478,18.857473],[73.1382984,18.8570618],[73.138173,18.8568081],[73.1380778,18.8564914],[73.1380087,18.8562648],[73.1378821,18.8552799],[73.1377799,18.8541355],[73.137656,18.8525402],[73.1375795,18.8520622],[73.1375091,18.8518298],[73.1374411,18.8515649],[73.1372871,18.8511883],[73.1370485,18.8507694],[73.1366434,18.8502694],[73.1361768,18.8498658],[73.1355733,18.849447],[73.1351093,18.8492287],[73.1345647,18.8490662],[73.1339077,18.8489189],[73.128503,18.8480356],[73.1279853,18.8479264],[73.1274649,18.8477563],[73.1270358,18.8475609],[73.1266227,18.8473096],[73.1262713,18.8470405],[73.1258315,18.846609],[73.1242973,18.8449235],[73.1240237,18.8446417],[73.1235436,18.8442457],[73.1230634,18.8439056],[73.1225109,18.8435401],[73.1219155,18.843205],[73.1207567,18.8426262],[73.1205234,18.8424866],[73.1199682,18.8421642],[73.1196597,18.8420119],[73.1192252,18.8418697],[73.1186968,18.8417606],[73.1180262,18.8416438],[73.1152341,18.8413342],[73.1148156,18.8412834],[73.1143892,18.8412148],[73.1140324,18.8411869],[73.1136972,18.8411945],[73.1132733,18.8412377],[73.1128335,18.841324],[73.1125063,18.8413773],[73.1080109,18.8421007],[73.1054915,18.8425127],[73.1049853,18.8425551],[73.1045267,18.8425247],[73.1042504,18.8424764],[73.1038347,18.8423799],[73.1032821,18.842187],[73.1028208,18.8419433],[73.1024373,18.841687],[73.0985962,18.8389342],[73.0947554,18.8361352],[73.0938542,18.8354873],[73.0924035,18.8344443],[73.0917186,18.8339519],[73.0909769,18.8333457],[73.0902547,18.8325964],[73.0896378,18.8315861],[73.0878246,18.8286666],[73.0876583,18.8282401],[73.0875295,18.8278288],[73.0873904,18.8268774],[73.0873724,18.826732],[73.0873629,18.8266584],[73.0873174,18.8260346],[73.0871477,18.8244378],[73.0871327,18.824316],[73.0870666,18.823841],[73.0866338,18.8201203],[73.0862305,18.8165306],[73.0860725,18.815056],[73.085947,18.8141397],[73.0858076,18.81351],[73.0855608,18.8128702],[73.0851531,18.811946],[73.0847025,18.81123],[73.0838227,18.8101485],[73.0829108,18.8090415],[73.0808723,18.8064822],[73.0802286,18.8056494],[73.0796814,18.8047353],[73.0792844,18.8037705],[73.0790591,18.8030189],[73.0789357,18.8016072],[73.0785858,18.7953824],[73.0782652,18.7896781],[73.078233,18.7886116],[73.0782437,18.7876873],[73.078351,18.786829],[73.0785136,18.7861381],[73.0788836,18.7850825],[73.0804056,18.7807397],[73.0822885,18.775417],[73.0844128,18.7693679],[73.0848259,18.768352],[73.0856681,18.7667216],[73.0860543,18.7661172],[73.0868536,18.765015],[73.0908823,18.7601693],[73.0913866,18.7593769],[73.0916226,18.7589502],[73.0917245,18.7587115],[73.0920625,18.7577921],[73.0922019,18.7572486],[73.0923253,18.7563444],[73.0923521,18.7555266],[73.09232,18.7547444],[73.0922127,18.7541145],[73.0921698,18.7539164],[73.0918157,18.752997],[73.0914295,18.7521842],[73.0908984,18.7510972],[73.0904585,18.7501981],[73.0895036,18.7483287],[73.089335,18.7479242],[73.0892046,18.74758],[73.0890477,18.7471056],[73.0885752,18.7448509],[73.0883651,18.7438796],[73.0882278,18.7431964],[73.0882137,18.7431094],[73.0878609,18.7413667],[73.0878594,18.7413593],[73.086652,18.735396],[73.0863221,18.7337796],[73.0861762,18.7330868],[73.0860358,18.7323686],[73.0860195,18.7322848],[73.0859087,18.7314772],[73.0859015,18.7314402],[73.0854534,18.7292763],[73.0853608,18.728927],[73.0852746,18.7286416],[73.0851907,18.728364],[73.08501,18.7278562],[73.0847749,18.7273149],[73.0845615,18.7269484],[73.0843026,18.7265437],[73.0840967,18.7262476],[73.0837244,18.7258169],[73.0834525,18.7255291],[73.0830677,18.7251858],[73.0827151,18.7248934],[73.0823123,18.7246176],[73.0816376,18.7242129],[73.080995,18.7238539],[73.0771231,18.7218387],[73.0741762,18.7203242],[73.0735288,18.7199839],[73.0729895,18.71972],[73.0724582,18.7194765],[73.0720398,18.7193118],[73.0715893,18.7191548],[73.0711064,18.7190231],[73.070629,18.7189092],[73.0700481,18.7187988],[73.0694622,18.7187062],[73.0677567,18.7184558],[73.0666892,18.718278],[73.0659435,18.7181154],[73.0652757,18.7179401],[73.0647339,18.7177471],[73.0643181,18.717554],[73.0638943,18.7173457],[73.063425,18.7170916],[73.0626335,18.7166311],[73.0610355,18.7157011],[73.0598747,18.7150472],[73.0583585,18.7141593],[73.056476,18.7130712],[73.055027,18.7122198],[73.0534111,18.7112893],[73.0528687,18.7109587],[73.0523831,18.7106282],[73.0520038,18.7103228],[73.0516548,18.7099599],[73.0513703,18.7096474],[73.0511465,18.7093312],[73.0509417,18.7090222],[73.0508127,18.7087635],[73.0506806,18.7084888],[73.0505933,18.7082625],[73.0504871,18.7079283],[73.0504037,18.7076373],[73.0503278,18.707296],[73.0502709,18.7068757],[73.0502178,18.7060349],[73.0502064,18.7054888],[73.0501761,18.7047774],[73.0501419,18.7039044],[73.0501268,18.7029199],[73.050156,18.7021234],[73.0501685,18.7016552],[73.0502066,18.7012304],[73.0502597,18.7007741],[73.0503355,18.7003502],[73.0504493,18.6996495],[73.0505593,18.6990208],[73.0506731,18.6985034],[73.0508552,18.6975332],[73.0510031,18.696714],[73.051079,18.6962074],[73.0511738,18.6957762],[73.0512649,18.6953738],[73.0513597,18.6948744],[73.0514394,18.6943354],[73.0515607,18.6938324],[73.0516594,18.6933725],[73.0517959,18.6929197],[73.0519211,18.6925604],[73.0522132,18.6919388],[73.0522365,18.6918946],[73.052399,18.6915867],[73.0526418,18.6912166],[73.0528732,18.6909004],[73.0532373,18.6904297],[73.053537,18.6901063],[73.0540794,18.6895817],[73.0554146,18.6883816],[73.0567195,18.6872174],[73.0590523,18.6851476],[73.0605279,18.683854],[73.0617038,18.6828012],[73.0625649,18.6820646],[73.0629148,18.6817417],[73.0632932,18.6813926],[73.0642453,18.6805589],[73.0649925,18.6799265],[73.0655577,18.6793983],[73.066085,18.6789347],[73.0667943,18.6782843],[73.0673557,18.6777453],[73.067716,18.6773895],[73.0679512,18.6770949],[73.0681788,18.6767463],[73.0684216,18.6764085],[73.068615,18.676024],[73.068763,18.675715],[73.0690285,18.6750933],[73.0691575,18.6747232],[73.0692902,18.6743171],[73.0694268,18.673832],[73.0695671,18.6732642],[73.069734,18.6725491],[73.069844,18.6721286],[73.0701285,18.6710434],[73.0702494,18.6705111],[73.0702575,18.6704756],[73.070633,18.6689088],[73.0710541,18.6673384],[73.0713537,18.6660339],[73.0719682,18.6635254],[73.0721672,18.6627283],[73.0724652,18.6615345],[73.0726624,18.6607187],[73.0730152,18.659274],[73.0734432,18.6576321],[73.0736979,18.6565606],[73.0739824,18.6555723],[73.0740421,18.6554093],[73.0744073,18.6544114],[73.0745931,18.6539802],[73.0754099,18.6522986],[73.0754921,18.6521293],[73.076247,18.6507132],[73.0770891,18.6490384],[73.0776353,18.6479315],[73.0778705,18.6474031],[73.0781095,18.6468137],[73.0783029,18.6462278],[73.0786253,18.6451101],[73.0786716,18.6449224],[73.0789667,18.6437263],[73.0793005,18.6423534],[73.0795418,18.641373],[73.0796571,18.6409013],[73.0801957,18.6386513],[73.0807875,18.6362647],[73.0812009,18.6345861],[73.081383,18.6340074],[73.0816523,18.6332023],[73.0819937,18.6323468],[73.0823253,18.6317084],[73.0826743,18.631083],[73.0831067,18.630321],[73.084146,18.62884],[73.0847681,18.6280277],[73.0859001,18.6265048],[73.0860654,18.6262592],[73.0868228,18.6252489],[73.0876434,18.6241168],[73.0880487,18.6235272],[73.0881085,18.6234402],[73.0889331,18.6222404],[73.0892213,18.6217504],[73.0892468,18.6217072],[73.08954,18.6211549],[73.0897828,18.6205078],[73.0899876,18.6197961],[73.090109,18.6190843],[73.0901545,18.618387],[73.0902683,18.6173661],[73.0903593,18.6166759],[73.0904145,18.6164366],[73.0905566,18.6158203],[73.0907766,18.6152595],[73.0910952,18.6145693],[73.0919449,18.6131889],[73.0940236,18.6099536],[73.0947291,18.609098],[73.0952526,18.6086019],[73.0958595,18.6081705],[73.0966561,18.6076888],[73.0976423,18.6072143],[73.0984844,18.6068907],[73.1005176,18.606258],[73.1021638,18.6056972],[73.1031728,18.6052226],[73.1039466,18.6046978],[73.1044018,18.6043599],[73.1051073,18.6036984],[73.1083695,18.6002184],[73.1098792,18.5986006],[73.1103799,18.5979894],[73.1105965,18.5975899],[73.1109944,18.5967886],[73.111882,18.5947394],[73.1126956,18.592937],[73.1137786,18.5904107],[73.1147876,18.5881528],[73.1156828,18.5861466],[73.1166008,18.5840181],[73.1176781,18.5815517],[73.1185126,18.5796748],[73.1192594,18.5780597],[73.1200374,18.5762518],[73.1206671,18.5747417],[73.1212892,18.5733538],[73.1219947,18.5717429],[73.1224651,18.5708296],[73.1227067,18.5702787],[73.1229886,18.5696358],[73.1237169,18.5679962],[73.1243617,18.566601],[73.1245261,18.5661161],[73.1249646,18.5650484],[73.1252984,18.5644011],[73.1255943,18.563833],[73.1263726,18.5626618],[73.1274909,18.561208],[73.1298806,18.5580148],[73.1318758,18.5553466],[73.1334386,18.5534838],[73.1340937,18.5527712],[73.1350849,18.551693],[73.1372318,18.5494274],[73.1375732,18.5490246],[73.1379526,18.548478],[73.1383926,18.5477228],[73.1386809,18.5470323],[73.1391024,18.5457704],[73.1391607,18.545629],[73.139194,18.5455076],[73.139425,18.5447774],[73.1399857,18.5430045],[73.1408644,18.5402636],[73.1416092,18.537869],[73.1423086,18.5358295],[73.1423754,18.5355385],[73.1424892,18.5347976],[73.1425196,18.5343301],[73.142449,18.5336356],[73.1424051,18.5334118],[73.1423643,18.5332359],[73.1423013,18.5330213],[73.1421974,18.5326677],[73.1420682,18.5323768],[73.1419698,18.5322073],[73.1415374,18.5315456],[73.1408015,18.5307615],[73.1403691,18.5303515],[73.1395152,18.5295492],[73.1381614,18.5283446],[73.136787,18.5270539],[73.1358969,18.5262653],[73.1354658,18.5258668],[73.1351582,18.5255672],[73.1345048,18.524971],[73.133951,18.5242948],[73.1334503,18.5236258],[73.1329723,18.5227338],[73.1326764,18.5219138],[73.1324261,18.5210793],[73.1322668,18.5201298],[73.1323047,18.519245],[73.1324716,18.5176984],[73.1325323,18.5162237],[73.1324261,18.5152453],[73.1321833,18.5143677],[73.1316674,18.5131231],[73.1312502,18.5124253],[73.1308557,18.5118354],[73.1302412,18.5110873],[73.1285115,18.5091233],[73.1229493,18.5028595],[73.1217262,18.5014046],[73.1208997,18.5003856],[73.1201594,18.4992766],[73.1196337,18.4983507],[73.1187969,18.4966515],[73.1166404,18.4922967],[73.1135287,18.4860497],[73.1126922,18.4843703],[73.1111043,18.4811488],[73.107557,18.4739741],[73.1067475,18.4723369],[73.1060532,18.4710195],[73.1058195,18.4705436],[73.1056304,18.4700133],[73.105452,18.469226],[73.105368,18.4686669],[73.1053286,18.4680413],[73.1052563,18.466324],[73.1051967,18.4652591],[73.1048879,18.4610586],[73.1048564,18.460247],[73.1049216,18.459783],[73.105057,18.4593919],[73.1052317,18.4590263],[73.1054256,18.4586908],[73.1058847,18.4581893],[73.1073058,18.4567033],[73.1081173,18.4559224],[73.1097406,18.4542716],[73.1097772,18.4542339],[73.1115461,18.45238],[73.1124403,18.4515543],[73.1132073,18.4509255],[73.1138693,18.4504409],[73.1144817,18.449993],[73.115171,18.4494711],[73.1155276,18.4492795],[73.1158869,18.4491083],[73.1162232,18.4489642],[73.1165621,18.4488455],[73.1169184,18.4487266],[73.119074,18.4481304],[73.1194436,18.4480281],[73.1197264,18.4479458],[73.1201843,18.4478265],[73.1208064,18.4476059],[73.1211577,18.4475089],[73.1237623,18.4467897],[73.1293673,18.4452561],[73.1294496,18.4452328],[73.1300305,18.4451114],[73.1304006,18.4450123],[73.1306943,18.4449257],[73.1315557,18.4446932],[73.1324439,18.4444658],[73.1335056,18.4442027],[73.1340092,18.4440939],[73.1343811,18.4440393],[73.135285,18.4439861],[73.1360202,18.4439698],[73.1368667,18.4440029],[73.1395869,18.4441489],[73.1402783,18.4441512],[73.1407928,18.4441308],[73.1419596,18.4440022],[73.1424468,18.4439129],[73.1433437,18.4436807],[73.1438732,18.4435261],[73.1444528,18.4433226],[73.1445428,18.4432866],[73.1465785,18.442446],[73.1571904,18.4380242],[73.1575859,18.437858],[73.1595296,18.4370761],[73.1609738,18.4366289],[73.1618781,18.4364485],[73.1625247,18.4363564],[73.1631917,18.4362959],[73.1638587,18.4362659],[73.1651769,18.4363201],[73.1687485,18.4366861],[73.1723312,18.4370927],[73.1741285,18.4372622],[73.1751344,18.4372349],[73.1763334,18.4371263],[73.1773796,18.4369577],[73.1785009,18.4366364],[73.1799037,18.4360667],[73.1842414,18.4338622],[73.1851907,18.4332655],[73.1862494,18.432446],[73.1871334,18.431562],[73.1879583,18.4305992],[73.1892846,18.428407],[73.1900814,18.4268979],[73.190913,18.4256417],[73.1916828,18.4247082],[73.1926637,18.4237278],[73.1934704,18.4230951],[73.195135,18.4219583],[73.2040284,18.4157221],[73.2052488,18.414666],[73.208647,18.4116157],[73.2105849,18.4098826],[73.212315,18.4083356],[73.213019,18.407712],[73.2172493,18.4039331],[73.2181634,18.4029189],[73.2190029,18.4017708],[73.2193698,18.4011644],[73.219558,18.4008002],[73.2202135,18.399419],[73.220432,18.3989699],[73.2212443,18.3972483],[73.221695,18.3963142],[73.2219065,18.3958773],[73.2222698,18.3951116],[73.2233348,18.3928558],[73.2237762,18.391916],[73.2257546,18.3877228],[73.2265574,18.3860739],[73.2268632,18.385445],[73.2273092,18.3845068],[73.2277021,18.3836801],[73.2280593,18.3829451],[73.2290491,18.3807024],[73.2292761,18.3800748],[73.2294613,18.3794452],[73.2311874,18.371786],[73.232308,18.3665874],[73.2336917,18.360185],[73.2337483,18.3599319],[73.2349751,18.3543036],[73.2351913,18.3533659],[73.2355495,18.3521553],[73.2366124,18.3487211],[73.2387734,18.3417988],[73.2390573,18.3408947],[73.24125,18.3338535],[73.2416876,18.3324015],[73.2419394,18.3316209],[73.2420022,18.3314141],[73.2421265,18.3309274],[73.2422663,18.3303113],[73.2423395,18.3297836],[73.2423915,18.3292683],[73.242409,18.3289154],[73.2424109,18.3283244],[73.2424073,18.3282486],[73.2423722,18.3274912],[73.2421977,18.3248858],[73.2421916,18.324803],[73.2421421,18.3240659],[73.2420201,18.3224356],[73.2420133,18.3223457],[73.2419177,18.3210679],[73.2417148,18.3198115],[73.2415061,18.3188458],[73.2412166,18.3178853],[73.2402477,18.3149122],[73.2401462,18.3145049],[73.2399509,18.313596],[73.2398281,18.3127956],[73.2397832,18.3120498],[73.2397749,18.3115276],[73.2397798,18.3110372],[73.2398215,18.3104503],[73.2399191,18.3098527],[73.2400528,18.3092118],[73.2402554,18.3084303],[73.2405171,18.3076993],[73.2407992,18.307055],[73.2413677,18.3057724],[73.2421194,18.3041091],[73.2421818,18.3039708],[73.2422303,18.3038636],[73.2429537,18.3022136],[73.2446735,18.298391],[73.2458943,18.2956465],[73.245971,18.2954767],[73.2468376,18.2935606],[73.2492823,18.2881658],[73.2524568,18.2813827],[73.2531887,18.2798191],[73.2539567,18.2781612],[73.2540247,18.2780144],[73.2564008,18.27298],[73.258491,18.2685195],[73.2596085,18.2661363],[73.2604946,18.2643196],[73.2614311,18.2626911],[73.2624534,18.2611085],[73.2637224,18.259391],[73.2650186,18.257911],[73.2660221,18.2568418],[73.2679621,18.2550518],[73.2702414,18.2529125],[73.2708596,18.2523342],[73.2725428,18.2506822],[73.2732043,18.2500342],[73.2755705,18.2477516],[73.2761502,18.2472094],[73.2771107,18.2462965],[73.2791398,18.2443699],[73.2795019,18.2440222],[73.2803219,18.2432349],[73.2821503,18.2414911],[73.2822782,18.2413653],[73.2848914,18.2389051],[73.2853976,18.2384181],[73.2859199,18.2378904],[73.286479,18.2372611],[73.2865446,18.2371873],[73.2879227,18.2354756],[73.2885794,18.2346433],[73.2890032,18.2340937],[73.2915286,18.2307844],[73.2921142,18.2300595],[73.2939404,18.2277672],[73.2947985,18.2266015],[73.2951446,18.2260706],[73.2955196,18.2254114],[73.2958683,18.2247014],[73.2959198,18.2245796],[73.2961634,18.2239916],[73.2963277,18.223526],[73.2964688,18.22306],[73.2966074,18.2224585],[73.2967019,18.2219502],[73.2967827,18.2213167],[73.2968199,18.2205353],[73.2968439,18.2196955],[73.2968907,18.2177515],[73.2969923,18.2121158],[73.2970855,18.2069498],[73.2971575,18.2015188],[73.2971574,18.1993676],[73.2971703,18.1982427],[73.2972594,18.1958363],[73.297339,18.1918256],[73.2973416,18.1916987],[73.2974459,18.1861539],[73.2974665,18.1837223],[73.2974672,18.1836484],[73.2974864,18.1829872],[73.2974876,18.1829286],[73.2975398,18.1803484],[73.2975501,18.1798374],[73.2976249,18.176141],[73.2976454,18.1744293],[73.2976526,18.1740025],[73.2976706,18.1734042],[73.2977228,18.1728839],[73.2978225,18.1722527],[73.2979233,18.1716971],[73.2980723,18.1711465],[73.2982811,18.1704224],[73.2986145,18.1695851],[73.2989174,18.168948],[73.2993992,18.1681528],[73.2999788,18.1672689],[73.3005473,18.1664831],[73.3009739,18.165877],[73.302982,18.1631173],[73.3051897,18.1600463],[73.3052594,18.1599511],[73.3062336,18.1586283],[73.3062997,18.1585385],[73.3075354,18.1568607],[73.3076429,18.1567093],[73.3125361,18.1499491],[73.3146492,18.1470688],[73.3156637,18.1456691],[73.3159157,18.1453334],[73.317542,18.1431061],[73.3194746,18.1404433],[73.3198823,18.1398658],[73.3202821,18.1392568],[73.3207052,18.13849],[73.3211426,18.1375343],[73.3214609,18.1366675],[73.3217089,18.1357652],[73.3220398,18.1339053],[73.3226672,18.1303925],[73.3228342,18.1294835],[73.3230281,18.1285795],[73.3232418,18.1277311],[73.3234876,18.1268928],[73.3235961,18.126513],[73.3237449,18.1261333],[73.3238891,18.1257984],[73.3242994,18.1248717],[73.3245577,18.1243192],[73.3268042,18.1197435],[73.3275577,18.1182982],[73.3280153,18.1175026],[73.3283179,18.1169945],[73.3289535,18.1159401],[73.329585,18.1148806],[73.329833,18.114447],[73.3301257,18.113955],[73.3309881,18.1125157],[73.3324608,18.1100688],[73.3328039,18.1094796],[73.3330394,18.1090833],[73.3334804,18.1083386],[73.3336638,18.1080424],[73.3337719,18.107862],[73.3345309,18.1066086],[73.334616,18.1064651],[73.3365072,18.103244],[73.337111,18.1023073],[73.3376219,18.1017434],[73.3378574,18.1015134],[73.3383097,18.1011017],[73.3387675,18.1007922],[73.3394542,18.10041],[73.3401759,18.1001428],[73.3428507,18.0993673],[73.3487874,18.0977526],[73.350525,18.0972315],[73.3514765,18.0967761],[73.3522147,18.0962679],[73.3529031,18.0955918],[73.3533849,18.0949449],[73.3538855,18.0940279],[73.3540296,18.0936292],[73.354155,18.0931406],[73.3543031,18.0919404],[73.3544381,18.0903865],[73.3545791,18.0895677],[73.3547105,18.08911],[73.355216,18.0879772],[73.3557338,18.0872298],[73.3576595,18.0844499],[73.3621202,18.0780865],[73.3624094,18.0777803],[73.3626151,18.077548],[73.3654763,18.0742594],[73.3669244,18.0725312],[73.3676264,18.0716552],[73.368291,18.0706351],[73.3688865,18.0693965],[73.3691748,18.0686575],[73.3694183,18.0678228],[73.3709816,18.0610113],[73.3711933,18.0601045],[73.3713144,18.0595816],[73.3714121,18.05916],[73.3716525,18.0581221],[73.372198,18.0557668],[73.3725041,18.0544782],[73.3748588,18.0440787],[73.3752118,18.0427622],[73.3754092,18.0421155],[73.3758283,18.0411788],[73.3763351,18.0401872],[73.3764865,18.0399122],[73.3767216,18.0395486],[73.3772701,18.0387856],[73.377781,18.0381449],[73.3786036,18.0373143],[73.3798394,18.0362622],[73.3812852,18.0350613],[73.3844758,18.0324594],[73.3897879,18.0280139],[73.3913742,18.0267629],[73.391502,18.0266607],[73.3920643,18.0261642],[73.3926387,18.0256614],[73.3933586,18.0250262],[73.3940767,18.0242838],[73.3946795,18.0236057],[73.3951246,18.0229704],[73.395644,18.0219764],[73.3958902,18.0214975],[73.3965517,18.0198844],[73.3970715,18.0183729],[73.397374,18.0176552],[73.3976252,18.0169274],[73.3977657,18.0165167],[73.3979883,18.0159161],[73.3982622,18.0151331],[73.3996353,18.0113628],[73.4016542,18.0057982],[73.4020072,18.0048251],[73.4024389,18.0036353],[73.4029074,18.0023377],[73.4039766,17.9993507],[73.4047464,17.9972401],[73.4048818,17.996846],[73.4049998,17.9964289],[73.4051709,17.995818],[73.4052661,17.9953145],[73.4053366,17.9946998],[73.4053668,17.9937571],[73.4053571,17.9934523],[73.4053514,17.9932551],[73.4052801,17.9928128],[73.4051728,17.9921113],[73.4048295,17.9910195],[73.4040892,17.9894327],[73.4033275,17.9883867],[73.4027266,17.987703],[73.4019864,17.9870142],[73.4006631,17.9860429],[73.3997407,17.9854837],[73.3987555,17.9848912],[73.3970189,17.9837641],[73.39571,17.9827436],[73.3951199,17.9821721],[73.3941436,17.9808761],[73.3933282,17.9793862],[73.3926415,17.977631],[73.3919334,17.9754266],[73.3918476,17.9748909],[73.3916544,17.9737326],[73.391456,17.9728651],[73.3910134,17.9713496],[73.3907063,17.9699795],[73.3904132,17.9687536],[73.390206,17.9672623],[73.389521,17.9648664],[73.3881087,17.9581939],[73.3877794,17.956775],[73.3865583,17.9515552],[73.3862794,17.9507387],[73.3852065,17.9484932],[73.3846486,17.9476461],[73.3839619,17.9465335],[73.3833504,17.9454107],[73.3828461,17.9442522],[73.382535,17.9431754],[73.3823472,17.9424915],[73.3822346,17.9418077],[73.3821702,17.9408227],[73.3822131,17.9398581],[73.3826719,17.9307393],[73.3833429,17.9224702],[73.3836507,17.9180173],[73.3836717,17.9177138],[73.3838729,17.9148026],[73.3841957,17.9097138],[73.3842233,17.9093281],[73.3843211,17.9085479],[73.3845812,17.9035226],[73.3848631,17.8998924],[73.3850562,17.8984069],[73.3852816,17.8973911],[73.385582,17.8965845],[73.3858878,17.8956809],[73.3864188,17.8946855],[73.3869445,17.8936237],[73.3887257,17.8907282],[73.3912037,17.8877693],[73.3963191,17.8824395],[73.4040347,17.8744976],[73.4117502,17.8673317],[73.4150433,17.8643482],[73.4157875,17.8636589],[73.4164673,17.8628879],[73.4166419,17.8625625],[73.417055,17.8619396],[73.4172964,17.8614188],[73.4176504,17.8605814],[73.417761,17.8601958],[73.4178436,17.8599075],[73.4179791,17.8594202],[73.4181503,17.8587032],[73.4182351,17.8583484],[73.4183767,17.8574534],[73.4183948,17.8572409],[73.4184042,17.8569805],[73.4184236,17.8564981],[73.4183478,17.8551998],[73.4178114,17.8516868],[73.4176603,17.8508346],[73.4176337,17.8506847],[73.4175092,17.8496139],[73.4171864,17.8475279],[73.4169853,17.8462666],[73.4164627,17.8428944],[73.4163201,17.8421381],[73.4154296,17.8391661],[73.4144785,17.8365974],[73.4134179,17.8340339],[73.4113097,17.8285035],[73.411079,17.8276046],[73.4109342,17.8267569],[73.410902,17.8257048],[73.4110629,17.8235089],[73.4111603,17.8224473],[73.4112083,17.8219283],[73.4112177,17.8217949],[73.4113595,17.8202836],[73.4117329,17.8175928],[73.4123671,17.8153476],[73.413085,17.8128061],[73.4143748,17.8089267],[73.4181333,17.7962255],[73.4184229,17.7951733],[73.4186648,17.7943784],[73.4186053,17.7938504],[73.418777,17.7922925],[73.4188839,17.7917505],[73.4189368,17.791071],[73.4191571,17.7881994],[73.4193563,17.7841402],[73.4195416,17.7828372],[73.4196245,17.7815147],[73.4197211,17.7782658],[73.4200156,17.7768335],[73.420049,17.7753601],[73.4202738,17.7730048],[73.4204219,17.770499],[73.4205846,17.7690452],[73.4207433,17.7668414],[73.420837,17.7646978],[73.4209764,17.7636148],[73.4216505,17.7607899],[73.4218349,17.7598957],[73.4219139,17.7594236],[73.4226187,17.7556911],[73.4229609,17.7540402],[73.423115,17.7530349],[73.4244093,17.7459938],[73.4253468,17.7414509],[73.4256344,17.7400194],[73.4275777,17.7337109],[73.4293992,17.7283718],[73.429709,17.7270929],[73.4298862,17.7257904],[73.4299498,17.724597],[73.4298547,17.7233321],[73.4295251,17.7216465],[73.4292231,17.7208971],[73.4290747,17.7204808],[73.4289776,17.7202106],[73.4284219,17.7191353],[73.4278067,17.7179425],[73.4271229,17.7170198],[73.4262083,17.7160684],[73.4251339,17.7151349],[73.4244657,17.714607],[73.4237221,17.714131],[73.4231616,17.713809],[73.4226088,17.7135315],[73.4219586,17.7132451],[73.4212358,17.7129807],[73.4206007,17.712782],[73.4199281,17.7126037],[73.4190381,17.7124152],[73.4183116,17.7123211],[73.4175771,17.7122577],[73.417087,17.7122407],[73.415521,17.7122508],[73.4147952,17.7122689],[73.4143114,17.7122687],[73.4107693,17.7123337],[73.4065213,17.7124116],[73.4054257,17.7124129],[73.4049456,17.7124194],[73.4032886,17.7124408],[73.4024368,17.7124123],[73.4017423,17.7123546],[73.4011335,17.7122688],[73.4004899,17.7121408],[73.3998624,17.7119872],[73.3972929,17.7110351],[73.3960164,17.7101932],[73.3947399,17.709106],[73.392176,17.7061874],[73.3866071,17.6994102],[73.3833181,17.6952274],[73.3827817,17.6943484],[73.3820951,17.6931014],[73.3816015,17.6919873],[73.3813548,17.69119],[73.3811134,17.6902394],[73.3810008,17.6892786],[73.3810329,17.6881747],[73.3812368,17.6871218],[73.3816713,17.6858134],[73.3823526,17.6843619],[73.3831675,17.6829192],[73.3843364,17.6814561],[73.3852383,17.6804925],[73.3873311,17.6778627],[73.3889029,17.6761122],[73.3895665,17.6754906],[73.3905816,17.6742727],[73.3914093,17.6731411],[73.3920093,17.6723013],[73.3923952,17.6715645],[73.3927166,17.6707357],[73.392958,17.6700303],[73.3931458,17.6689876],[73.3932543,17.6677619],[73.3933282,17.6656345],[73.3933389,17.6640909],[73.3932906,17.6633446],[73.3931672,17.6624859],[73.3929822,17.6617833],[73.3926684,17.6609888],[73.3920435,17.6596415],[73.390646,17.6573333],[73.3896482,17.6560657],[73.3889615,17.6551865],[73.3880764,17.6540772],[73.3863222,17.6517513],[73.3854425,17.6506267],[73.3848953,17.6499213],[73.3844126,17.6491545],[73.3838976,17.6481117],[73.3835703,17.6472886],[73.3833289,17.6464145],[73.3829964,17.6446559],[73.3827817,17.6433268],[73.3827871,17.6422942],[73.3828998,17.6412717],[73.3832055,17.6403209],[73.3834791,17.6395745],[73.3839243,17.6387208],[73.3844983,17.6379181],[73.3852436,17.6370865],[73.3861712,17.6361527],[73.3906567,17.6321412],[73.3914774,17.6313948],[73.3920622,17.6306382],[73.3925289,17.6299736],[73.3932102,17.6289511],[73.3948379,17.6261267],[73.3958241,17.6246616],[73.3963913,17.6239305],[73.3966931,17.6235399],[73.3971397,17.6230365],[73.3973806,17.6227907],[73.3978917,17.622327],[73.3986001,17.6217341],[73.3990288,17.621397],[73.3997058,17.6208881],[73.4002389,17.6204155],[73.401391,17.6195541],[73.4023059,17.6189087],[73.4030097,17.6184171],[73.4037124,17.6178811],[73.4043924,17.6173696],[73.4055698,17.6164224],[73.406117,17.6158677],[73.406817,17.6152056],[73.4080133,17.6141446],[73.409003,17.61337],[73.4097796,17.6128558],[73.4106552,17.6124574],[73.411296,17.6121824],[73.4120964,17.611895],[73.4126483,17.6117359],[73.413223,17.6115805],[73.4137976,17.6114612],[73.4141207,17.6114246],[73.4161806,17.6110667],[73.4169906,17.6109439],[73.4178436,17.6107394],[73.4190988,17.6102793],[73.4199835,17.6099006],[73.420809,17.609537],[73.4216271,17.6089762],[73.423626,17.6076469],[73.4258727,17.6061929],[73.4274848,17.6051602],[73.4285126,17.6046171],[73.4296884,17.6040592],[73.4308356,17.6036094],[73.4322251,17.6031989],[73.4345156,17.6026474],[73.4360618,17.602203],[73.4368037,17.6019314],[73.4373256,17.6017241],[73.4379032,17.6014649],[73.4386961,17.6009825],[73.4394618,17.6004743],[73.4399974,17.6000801],[73.4405809,17.5995383],[73.4414068,17.5986752],[73.4419451,17.597974],[73.4424063,17.5972093],[73.4428632,17.5962909],[73.443127,17.5953315],[73.4433176,17.5947141],[73.4436704,17.5941088],[73.4442438,17.5932846],[73.4451283,17.5921433],[73.4456295,17.5915715],[73.4462411,17.5908139],[73.4469965,17.5900782],[73.447701,17.5894955],[73.4487144,17.5888596],[73.4493919,17.5884893],[73.4501585,17.5881042],[73.4515052,17.5875857],[73.4529245,17.5872598],[73.4545849,17.5869716],[73.4582211,17.5863322],[73.4592076,17.5861192],[73.4600209,17.5858723],[73.4612485,17.5853637],[73.462098,17.584944],[73.4628853,17.5844749],[73.463513,17.5840358],[73.4642321,17.5834578],[73.4649935,17.582722],[73.4669333,17.5810474],[73.469504,17.5788999],[73.4711523,17.5777545],[73.472848,17.5766276],[73.4750199,17.5751289],[73.4803599,17.5715259],[73.4818729,17.5705308],[73.4820766,17.5703968],[73.4837481,17.5692774],[73.4860495,17.5677351],[73.4869145,17.567098],[73.4876863,17.5664166],[73.488424,17.5656581],[73.4891315,17.5647375],[73.4898635,17.5635736],[73.4905248,17.5620906],[73.4912138,17.5603671],[73.4926193,17.5569529],[73.4931148,17.5559965],[73.493555,17.5553249],[73.4939628,17.5547502],[73.4943372,17.5542828],[73.4951453,17.5534235],[73.4958601,17.5528309],[73.4966241,17.5522458],[73.4973267,17.5518436],[73.4981029,17.5514184],[73.4996362,17.5507912],[73.5012886,17.5501566],[73.5028391,17.5495561],[73.5059922,17.5483312],[73.5090637,17.5471409],[73.50936,17.5470278],[73.510704,17.54651],[73.5121508,17.5459442],[73.5152152,17.5447812],[73.5156784,17.5446065],[73.5169028,17.5441447],[73.5172342,17.5440197],[73.5211512,17.5425423],[73.5221303,17.542164],[73.5252146,17.5410092],[73.525438,17.5409256],[73.5291805,17.5395244],[73.5311758,17.5387679],[73.5326275,17.5381976],[73.5342253,17.5375877],[73.536191,17.5367385],[73.5368746,17.5363673],[73.537707,17.5358583],[73.5388284,17.5349724],[73.5398019,17.5339698],[73.5406539,17.5328611],[73.5411001,17.5321604],[73.541376,17.5316199],[73.5416358,17.5310832],[73.5419314,17.5303048],[73.5421459,17.5296405],[73.5423344,17.5288685],[73.5424621,17.5279803],[73.5425442,17.5273438],[73.5425464,17.5254502],[73.5425124,17.523614],[73.5424926,17.5213944],[73.5424881,17.5209467],[73.5424672,17.5191327],[73.5424315,17.5171934],[73.5423991,17.5144156],[73.5423651,17.5127796],[73.5422191,17.511441],[73.5418713,17.5100321],[73.5414038,17.5088002],[73.5404935,17.5071958],[73.5371945,17.5027308],[73.5344985,17.4991288],[73.5335803,17.4980729],[73.5326734,17.4972224],[73.5314,17.4963034],[73.5307416,17.4958856],[73.5183835,17.4889065],[73.5167382,17.4876649],[73.5160429,17.4867279],[73.5156435,17.4860199],[73.5153816,17.4849872],[73.5151572,17.483509],[73.5151428,17.4825841],[73.5151512,17.4823254],[73.5151672,17.4818365],[73.5151769,17.4815372],[73.5153826,17.480396],[73.5154934,17.4799295],[73.5156181,17.4794409],[73.515877,17.4786132],[73.5161413,17.4778507],[73.5171014,17.4749279],[73.5172261,17.4744878],[73.5173536,17.4740986],[73.5175453,17.473513],[73.5175865,17.4733906],[73.5180061,17.4720966],[73.5184886,17.4706504],[73.5189589,17.4692067],[73.5202396,17.4652586],[73.5211884,17.46247],[73.5216735,17.4609017],[73.5218624,17.4602915],[73.5219683,17.4597629],[73.5221058,17.4587321],[73.5221032,17.4577943],[73.5219718,17.4568974],[73.5214672,17.4553957],[73.5199112,17.4519697],[73.5103756,17.4311626],[73.5085363,17.427389],[73.5082613,17.4263679],[73.5080373,17.4253955],[73.5078821,17.4242107],[73.5078658,17.4240863],[73.507914,17.4228948],[73.5081536,17.4212075],[73.5085499,17.4199119],[73.5094599,17.4176654],[73.5110085,17.4140789],[73.5122875,17.4109505],[73.5125863,17.4102382],[73.512859,17.4096373],[73.5131283,17.409044],[73.5149653,17.4046189],[73.5151822,17.4041272],[73.5165145,17.4009673],[73.5166264,17.4007018],[73.5169314,17.3999691],[73.5172975,17.3990463],[73.5183512,17.3965289],[73.5194562,17.3939912],[73.5207158,17.3909413],[73.5219485,17.3879435],[73.5232193,17.3849539],[73.5237078,17.3838913],[73.5241322,17.3831578],[73.5252436,17.3816962],[73.5297118,17.3748948],[73.5299594,17.3742811],[73.530148,17.3735253],[73.5314774,17.3657314],[73.5316748,17.364289],[73.5317725,17.3631874],[73.5317441,17.3618079],[73.5315496,17.3604621],[73.5310605,17.3583614],[73.5298164,17.3534388],[73.52849,17.3470541],[73.5283398,17.3454975],[73.5283715,17.3440351],[73.5286944,17.3422762],[73.5292757,17.3405143],[73.5300871,17.3386443],[73.5309888,17.3367621],[73.5345229,17.3294333],[73.5363543,17.3256518],[73.5372552,17.3237169],[73.5376654,17.3227994],[73.5379514,17.3220306],[73.5380531,17.321682],[73.538168,17.3212881],[73.5381855,17.3212011],[73.5383102,17.3205805],[73.5383976,17.3199791],[73.5384957,17.3192445],[73.5385166,17.3183652],[73.5384726,17.3175347],[73.5383577,17.316776],[73.5380888,17.3156095],[73.5380243,17.3153819],[73.5379962,17.3153025],[73.5378315,17.3148003],[73.537613,17.3142512],[73.5374044,17.3138157],[73.5372109,17.3134473],[73.5371255,17.3132979],[73.5369254,17.3129792],[73.5367611,17.3127356],[73.5366372,17.3125519],[73.5361122,17.3118369],[73.5333717,17.308565],[73.5329948,17.3080595],[73.5323292,17.3071456],[73.5316175,17.3061373],[73.5311534,17.3053403],[73.5309033,17.3045629],[73.5307782,17.3038641],[73.5307969,17.303084],[73.5308513,17.302315],[73.531014,17.3015115],[73.5314278,17.3003242],[73.5327845,17.2974821],[73.5346103,17.2942955],[73.535459,17.2929819],[73.5360968,17.2921242],[73.5383813,17.2892636],[73.54055,17.2866279],[73.5412989,17.2855872],[73.5421144,17.2841594],[73.5449304,17.2787661],[73.5463799,17.2759648],[73.5477772,17.2732093],[73.5502446,17.2684646],[73.5513684,17.2663036],[73.553108,17.262886],[73.5535222,17.2621064],[73.5540289,17.2611194],[73.5549803,17.2594578],[73.5550958,17.259212],[73.5554422,17.2584748],[73.5565917,17.2560621],[73.5573611,17.254662],[73.5576828,17.2539476],[73.5578397,17.2535136],[73.5580159,17.2530427],[73.5581533,17.2525804],[73.558282,17.2520004],[73.5583745,17.2515972],[73.5584767,17.2507809],[73.5585193,17.2495578],[73.5584228,17.2484978],[73.5582217,17.2476832],[73.5580206,17.2468552],[73.5577337,17.2458952],[73.5574936,17.2451781],[73.5568672,17.2438666],[73.555309,17.2407645],[73.554794,17.2398567],[73.554185,17.2388016],[73.5535975,17.2377054],[73.5532004,17.2367923],[73.5529967,17.2360005],[73.5528037,17.2353009],[73.5526679,17.2342854],[73.5526027,17.2337034],[73.5525686,17.2328561],[73.5526601,17.2313601],[73.5526885,17.2296816],[73.5526064,17.2286144],[73.5524099,17.2274436],[73.5519865,17.2260493],[73.5516762,17.2252435],[73.5510837,17.2240803],[73.5505534,17.2230845],[73.5502294,17.2224517],[73.54988,17.2215995],[73.5495752,17.2207717],[73.5492831,17.2193589],[73.5491042,17.2186301],[73.5489173,17.2179021],[73.5487702,17.2169641],[73.5487304,17.2153499],[73.5486935,17.2134372],[73.5485586,17.2122546],[73.5484992,17.2116175],[73.5483213,17.2108861],[73.5479904,17.2102195],[73.5477349,17.2096321],[73.5474721,17.2089582],[73.5470791,17.2079462],[73.5468248,17.2072605],[73.546782,17.2071585],[73.5467198,17.20701],[73.5466968,17.2069552],[73.5466105,17.2066889],[73.5464398,17.2059189],[73.5463364,17.2053953],[73.5462966,17.2049659],[73.5462378,17.2043255],[73.5462036,17.2041084],[73.5461818,17.2037738],[73.5461506,17.2027592],[73.5461231,17.2016694],[73.5460804,17.199219],[73.5460143,17.1978338],[73.5459969,17.1974688],[73.5459855,17.1972305],[73.5459277,17.1966344],[73.5459305,17.195974],[73.5459365,17.195299],[73.5459182,17.1944874],[73.545856,17.1939846],[73.5456367,17.1930852],[73.5449858,17.1908461],[73.5448674,17.1901422],[73.5447814,17.1891189],[73.5446739,17.1882493],[73.5445122,17.1874051],[73.5441949,17.1866327],[73.5438777,17.1860038],[73.5432523,17.1851077],[73.5425034,17.1843578],[73.5418567,17.1838604],[73.5388261,17.1815568],[73.537791,17.180825],[73.5343914,17.1784217],[73.5322605,17.176883],[73.5321274,17.1767869],[73.5313039,17.1762092],[73.5306082,17.175721],[73.5302299,17.1754556],[73.5288947,17.1744771],[73.5271661,17.1732195],[73.5260875,17.1726375],[73.5253093,17.172281],[73.5245062,17.1719468],[73.5233706,17.1716229],[73.5225531,17.1714823],[73.5218753,17.1713602],[73.520983,17.1712996],[73.5180556,17.1712789],[73.5123786,17.1712389],[73.5078802,17.1712071],[73.5054823,17.1712105],[73.5039951,17.1712267],[73.5025688,17.1712235],[73.5018253,17.1711929],[73.5010363,17.1710471],[73.5001107,17.1707709],[73.4988967,17.1702281],[73.4974087,17.1693651],[73.4962722,17.168646],[73.4959125,17.1684128],[73.4952399,17.1679104],[73.4861189,17.1611288],[73.4838595,17.1594313],[73.4827922,17.1585651],[73.4807358,17.1568579],[73.4795742,17.1553944],[73.4783561,17.1535362],[73.477473,17.1519099],[73.4769118,17.1505706],[73.4749557,17.1460581],[73.4736432,17.1432064],[73.4727492,17.1414004],[73.4718123,17.1396969],[73.4708541,17.1381938],[73.4701587,17.1373168],[73.469664,17.1368093],[73.4691692,17.1363307],[73.4677385,17.1351004],[73.4663078,17.1341572],[73.4637039,17.1326809],[73.4619613,17.1319109],[73.4612746,17.1316329],[73.4611908,17.131599],[73.4603634,17.1313074],[73.4589771,17.1308889],[73.4579908,17.1306523],[73.4566682,17.1303034],[73.4559379,17.1301137],[73.4556283,17.1300244],[73.4550413,17.1298695],[73.4547864,17.1297839],[73.4545061,17.1296844],[73.4542711,17.1295976],[73.4537235,17.129356],[73.453341,17.1291807],[73.4527006,17.1289288],[73.4519267,17.1285207],[73.4512987,17.1281418],[73.4507057,17.1276243],[73.4502201,17.1271068],[73.4495863,17.1263285],[73.4490946,17.1257242],[73.4486809,17.1251514],[73.4481892,17.1244286],[73.4478787,17.1240149],[73.4466103,17.1220854],[73.4457941,17.120899],[73.4451974,17.1200102],[73.4444925,17.1188968],[73.4440757,17.1183094],[73.4436266,17.1177834],[73.4429142,17.1171152],[73.4422189,17.1165375],[73.4417765,17.1161955],[73.4410363,17.1157086],[73.4403886,17.1153169],[73.4394455,17.1148982],[73.4383458,17.114468],[73.4375288,17.1141483],[73.4295398,17.1114707],[73.4280608,17.1109691],[73.4240095,17.1094227],[73.4232391,17.1090698],[73.4224365,17.1086555],[73.4215973,17.1081364],[73.4207557,17.1076006],[73.4202186,17.1072014],[73.4197616,17.1067604],[73.4193979,17.1062923],[73.4189914,17.1057626],[73.4181207,17.1044559],[73.3849506,17.0549755],[73.3838507,17.0534193],[73.3835672,17.0529951],[73.3826452,17.0515661],[73.3817007,17.0501693],[73.3811703,17.0493936],[73.3808875,17.0489687],[73.3802756,17.048027],[73.3796305,17.0470918],[73.3790875,17.0462826],[73.3786191,17.0454019],[73.3783341,17.0446554],[73.3782769,17.0445049],[73.3780661,17.0439499],[73.3779321,17.0431788],[73.3778597,17.0424783],[73.3778414,17.0419159],[73.3778799,17.0411858],[73.3779477,17.0407474],[73.3780698,17.0401771],[73.3786308,17.0377325],[73.3790225,17.0361716],[73.3792162,17.0352834],[73.379401,17.0344756],[73.3806907,17.0290654],[73.3810546,17.0272548],[73.3811889,17.0265898],[73.381444,17.024929],[73.3815489,17.0239862],[73.3816086,17.0231983],[73.3815347,17.0225459],[73.3814299,17.0221438],[73.381278,17.0217401],[73.381031,17.0211535],[73.3807654,17.0206505],[73.3803597,17.019936],[73.3802409,17.0197526],[73.3800557,17.0194988],[73.3798849,17.0192606],[73.3796507,17.0189736],[73.3794219,17.018677],[73.3792547,17.0184644],[73.3783739,17.0172756],[73.3775561,17.0162829],[73.3772542,17.0159267],[73.3768571,17.0154087],[73.3763622,17.0147982],[73.3759921,17.0143556],[73.3755548,17.0138224],[73.3751639,17.0132918],[73.3746038,17.0125405],[73.374112,17.0119115],[73.373544,17.0112074],[73.3729833,17.0105171],[73.3722348,17.0095521],[73.3717768,17.0089561],[73.3713054,17.0083594],[73.3708719,17.007858],[73.3703098,17.0071552],[73.369848,17.0065473],[73.3694996,17.0061098],[73.369084,17.0056631],[73.3686793,17.005303],[73.3683238,17.0049955],[73.3679851,17.0047644],[73.3676691,17.0045894],[73.367281,17.0043962],[73.3669433,17.0042631],[73.3666226,17.0041449],[73.3660919,17.0040197],[73.3656219,17.0039145],[73.3645733,17.0038132],[73.3642775,17.0037875],[73.3637246,17.0037447],[73.3627875,17.0036636],[73.3616128,17.0035701],[73.3607834,17.0035041],[73.3581322,17.0032923],[73.3523214,17.0028384],[73.3514844,17.0027861],[73.3504967,17.0027328],[73.3497595,17.0026692],[73.3490436,17.002573],[73.3483933,17.0024275],[73.3480264,17.0022938],[73.3477952,17.0021913],[73.3475626,17.0020865],[73.3473325,17.0019811],[73.3471067,17.0018673],[73.3468857,17.0017453],[73.3466698,17.0016153],[73.3464592,17.0014774],[73.3462544,17.0013319],[73.3460555,17.001179],[73.345863,17.0010188],[73.345677,17.0008517],[73.345498,17.0006779],[73.345326,17.0004976],[73.3451614,17.0003111],[73.3450048,17.0001191],[73.344856,16.9999214],[73.3447152,16.9997185],[73.3445827,16.9995105],[73.3444586,16.9992978],[73.3443432,16.9990808],[73.3442366,16.9988596],[73.3441389,16.9986347],[73.3440504,16.9984064],[73.343971,16.998175],[73.343901,16.9979408],[73.3438405,16.9977042],[73.3437895,16.9974656],[73.3437482,16.9972253],[73.3437165,16.9969837],[73.3436945,16.9967411],[73.3436823,16.9964978],[73.3436799,16.9962543],[73.3436873,16.9960093],[73.3437047,16.9957648],[73.3437319,16.9955211],[73.3437689,16.9952786],[73.3438157,16.9950377],[73.3438722,16.9947986],[73.3439383,16.9945618],[73.3440139,16.9943277],[73.344099,16.9940965],[73.3441933,16.9938686],[73.3442967,16.9936444],[73.3444092,16.9934242],[73.3445304,16.9932083],[73.3446603,16.992997],[73.3447986,16.9927907],[73.3449452,16.9925896],[73.3450998,16.9923942],[73.3452621,16.9922045],[73.345432,16.9920211],[73.3456092,16.991844],[73.3457934,16.9916736],[73.3459844,16.9915102],[73.3461818,16.9913539],[73.3463854,16.9912051],[73.3465948,16.9910638],[73.3468098,16.9909305],[73.34703,16.9908051],[73.3472552,16.990688],[73.3474849,16.9905793],[73.3477188,16.9904792],[73.3479565,16.9903878],[73.3481978,16.9903053],[73.3484423,16.9902317],[73.3486895,16.9901672],[73.3489392,16.990112],[73.3491909,16.9900659],[73.3494443,16.9900293],[73.349699,16.990002],[73.3512866,16.9899362],[73.3534669,16.9899211],[73.3547139,16.9899163],[73.3556398,16.9898689],[73.3563834,16.989801],[73.3573117,16.9896816],[73.3580365,16.9895819],[73.3587185,16.9894309],[73.3594524,16.9892082],[73.360358,16.988883],[73.361561,16.988315],[73.3633455,16.9874192],[73.3645405,16.9867734],[73.3655638,16.98622],[73.3668354,16.9856495],[73.3678659,16.9852998],[73.3685445,16.9851417],[73.3698656,16.9848946],[73.3733293,16.9842209],[73.3742563,16.9841093],[73.3750424,16.9840306],[73.3769231,16.9835993],[73.3778323,16.9833382],[73.3881077,16.9814579],[73.389686,16.9811997],[73.3917715,16.980752],[73.393845,16.9804111],[73.3948482,16.980262],[73.395827,16.980013],[73.39705,16.979721],[73.398386,16.979342],[73.399872,16.97878],[73.401238,16.978138],[73.4287575,16.9629651],[73.4303814,16.9620423],[73.4321551,16.9610344],[73.4388564,16.9573426],[73.4395238,16.9569293],[73.4411816,16.9558077],[73.4421894,16.9549998],[73.4481177,16.9512281],[73.448864,16.9507809],[73.4496616,16.9502566],[73.4497588,16.9501944],[73.4518703,16.9488771],[73.4520048,16.9488016],[73.452423,16.9485549],[73.4528719,16.9483369],[73.4535643,16.9480444],[73.4545299,16.9476014],[73.4550127,16.9473038],[73.4554526,16.94696],[73.4564611,16.9460602],[73.4573248,16.9453384],[73.4584224,16.9445968],[73.4588288,16.9443149],[73.4591077,16.9441216],[73.464149,16.940819],[73.465135,16.940217],[73.4660692,16.9397685],[73.467095,16.939339],[73.468701,16.938918],[73.470141,16.938709],[73.471413,16.938689],[73.47921,16.939516],[73.480521,16.939654],[73.4817745,16.9397224],[73.483177,16.9396764],[73.4943743,16.9389758],[73.4950741,16.9389335],[73.4977661,16.9387137],[73.499798,16.938633],[73.501593,16.938672],[73.503295,16.938815],[73.5095637,16.9397026],[73.512128,16.9400657],[73.5126269,16.9401363],[73.5154715,16.9405391],[73.5155411,16.940549],[73.5235241,16.9416793],[73.5266949,16.9421282],[73.527178,16.9421966],[73.5279763,16.9423097],[73.5569841,16.9464169],[73.560347,16.946893],[73.561387,16.947028],[73.562362,16.947092],[73.563323,16.947083],[73.564389,16.946995],[73.5649731,16.9469297],[73.5657498,16.9467697],[73.566463,16.9465753],[73.5671021,16.9463603],[73.568127,16.945861],[73.5694131,16.945196],[73.5719034,16.9433867],[73.5727909,16.9426167],[73.5740829,16.9414881],[73.5766818,16.9395249],[73.583844,16.934136],[73.584948,16.933292],[73.585964,16.932438],[73.5868881,16.9315766],[73.5876567,16.9307103],[73.5881674,16.930084],[73.5886103,16.9294525],[73.5893766,16.9281635],[73.5910211,16.9253176],[73.5912538,16.9249149],[73.5930719,16.9216692],[73.5939669,16.9201201],[73.5949066,16.9183988],[73.5953088,16.9177007],[73.6014935,16.9066733],[73.604368,16.901445],[73.604672,16.900853],[73.6050724,16.9000845],[73.6053839,16.8993176],[73.6057464,16.8982953],[73.6059883,16.8973204],[73.6061433,16.8965837],[73.6062339,16.895888],[73.6063351,16.895253],[73.6114114,16.8607443],[73.6116337,16.8592686],[73.61228,16.854512],[73.612416,16.853639],[73.612587,16.852737],[73.613364,16.849183],[73.613631,16.847959],[73.61386,16.846711],[73.614097,16.8453037],[73.614391,16.8416345],[73.614443,16.8409861],[73.6149584,16.8347114],[73.6152426,16.8307891],[73.6152827,16.8291863],[73.6153331,16.8280799],[73.6154494,16.8269749],[73.6156137,16.8257107],[73.6157477,16.8245627],[73.6163309,16.8177273],[73.6164986,16.8157619],[73.6167278,16.8130753],[73.6168192,16.8119579],[73.6176111,16.8026683],[73.6177872,16.8006031],[73.6182018,16.7947267],[73.6185906,16.7895487],[73.6187538,16.788377],[73.6188186,16.7876763],[73.6190195,16.7855043],[73.6190913,16.7848174],[73.6191343,16.7841309],[73.6194535,16.7799008],[73.6194552,16.7798809],[73.6195013,16.7792871],[73.6197178,16.7765013],[73.6207043,16.76071],[73.6207304,16.760205],[73.6207116,16.7596392],[73.6206593,16.7592124],[73.6205426,16.7582515],[73.6205045,16.7576976],[73.6204855,16.7568607],[73.6205081,16.7561701],[73.620563,16.7555924],[73.6206108,16.7550267],[73.6206083,16.7541692],[73.6205641,16.7531651],[73.6205092,16.7524179],[73.6204768,16.7498287],[73.6204676,16.7490886],[73.6203444,16.7392207],[73.6202313,16.7335139],[73.6201217,16.7270203],[73.6199596,16.7177827],[73.6199474,16.7150699],[73.6199417,16.7102312],[73.6198465,16.7089951],[73.6197774,16.7081715],[73.6196654,16.7072452],[73.6195915,16.7067365],[73.6195437,16.7061431],[73.6196891,16.7034533],[73.6197239,16.7022212],[73.6197279,16.7020788],[73.619731,16.7019703],[73.6197655,16.7007482],[73.6197005,16.6964723],[73.6196813,16.6950772],[73.6197563,16.6937559],[73.6198679,16.6926114],[73.6199834,16.6918134],[73.6201158,16.6905689],[73.6207876,16.6852341],[73.620817,16.6850009],[73.6210236,16.6833604],[73.6212605,16.681535],[73.6215966,16.6785821],[73.6218228,16.6771106],[73.6220275,16.6755774],[73.6222039,16.6738173],[73.622592,16.6708812],[73.6228811,16.6688273],[73.6235745,16.6632388],[73.6239843,16.6605642],[73.6265784,16.6402453],[73.6265927,16.6401334],[73.6267537,16.6390794],[73.6269492,16.6371475],[73.627183,16.6356899],[73.6274515,16.6335602],[73.6276319,16.6321037],[73.6276677,16.6318145],[73.6277502,16.6310484],[73.6284704,16.6251408],[73.6287796,16.6227407],[73.6294875,16.618104],[73.6298674,16.6151964],[73.6300693,16.6138729],[73.6304353,16.612669],[73.6307053,16.6117057],[73.630986,16.6108143],[73.6316081,16.6092072],[73.6321773,16.6080846],[73.633467,16.605918],[73.63431,16.604463],[73.635056,16.603314],[73.636025,16.601958],[73.6375086,16.5998249],[73.6556911,16.5757166],[73.6564647,16.5746908],[73.6590153,16.5711688],[73.6602802,16.56944],[73.6625621,16.5664168],[73.6636145,16.5650233],[73.6646974,16.5635875],[73.6684393,16.5586483],[73.6699344,16.5565514],[73.6707776,16.5553619],[73.6731878,16.5520873],[73.6753935,16.5490596],[73.6782721,16.5452032],[73.6812577,16.5411007],[73.6881578,16.5315745],[73.6898469,16.5293221],[73.6948331,16.52253],[73.6955325,16.5215989],[73.6963333,16.5206721],[73.6972433,16.5198267],[73.6983488,16.5190221],[73.6990218,16.5185429],[73.7030435,16.5155898],[73.7046394,16.5144013],[73.7052745,16.5140149],[73.7077639,16.5121809],[73.7108937,16.5098774],[73.7112569,16.5095783],[73.7118806,16.5091068],[73.718474,16.50431],[73.719108,16.503847],[73.719663,16.503443],[73.7265231,16.4984263],[73.730525,16.495592],[73.731151,16.49514],[73.7338116,16.4931477],[73.7348937,16.4923621],[73.7355268,16.4918744],[73.7360455,16.4913851],[73.7364865,16.4909214],[73.7368729,16.4904826],[73.7374867,16.4896834],[73.7379149,16.4890965],[73.7383512,16.4883733],[73.7385456,16.4880326],[73.7387036,16.4877553],[73.7388523,16.4874135],[73.7389689,16.4870974],[73.7392297,16.4863292],[73.73956,16.4850196],[73.7410133,16.4784395],[73.7433893,16.4683409],[73.7436176,16.4670705],[73.7437731,16.4658509],[73.7438745,16.4650611],[73.7438365,16.4637775],[73.7436276,16.4477727],[73.7435969,16.4461716],[73.7435512,16.4414552],[73.7435344,16.4403165],[73.7434834,16.4393913],[73.7433402,16.4380082],[73.7432002,16.4371698],[73.7431219,16.4366063],[73.7411173,16.4232247],[73.740072,16.4162972],[73.7399849,16.4157297],[73.7399735,16.4156552],[73.7390375,16.4095549],[73.7388523,16.4083326],[73.7386865,16.4075761],[73.7384993,16.4068197],[73.7381624,16.4058706],[73.7352107,16.3983727],[73.7336308,16.3942604],[73.7334645,16.3938539],[73.7323972,16.3913033],[73.7322697,16.3909828],[73.7309224,16.3875974],[73.7291847,16.3832119],[73.7290465,16.3828632],[73.728781,16.3821932],[73.7286034,16.381782],[73.7222807,16.3657614],[73.7189906,16.3574423],[73.7171846,16.3528298],[73.7160116,16.3499262],[73.715402,16.3481709],[73.7151663,16.347225],[73.7150593,16.3465159],[73.7149518,16.3456585],[73.7149458,16.3445873],[73.7150901,16.3436396],[73.7152622,16.3426046],[73.7155796,16.3415188],[73.7160019,16.3405221],[73.7165101,16.3395357],[73.7175696,16.3378459],[73.7255843,16.3253165],[73.7256945,16.3251421],[73.7290251,16.3197488],[73.73227,16.3146849],[73.7329889,16.3135438],[73.7333934,16.3128263],[73.7337335,16.3120574],[73.7340253,16.3112488],[73.7342642,16.3104624],[73.7343755,16.3099277],[73.7344279,16.3096761],[73.734537,16.3088921],[73.7345633,16.3079673],[73.7345575,16.3060231],[73.734534,16.2910696],[73.734515,16.2897182],[73.7344808,16.2891076],[73.7344037,16.2884146],[73.7342515,16.2876184],[73.7340134,16.2868532],[73.7337695,16.2861304],[73.7332973,16.2851077],[73.7318875,16.2822831],[73.731653,16.2818491],[73.7299088,16.2784805],[73.722907,16.264643],[73.7223405,16.2635234],[73.7213519,16.2615697],[73.7212008,16.2612716],[73.720122,16.2591571],[73.7190572,16.257034],[73.7185659,16.2560594],[73.718165,16.2552641],[73.7179572,16.2548519],[73.7171588,16.253202],[73.7168764,16.2526984],[73.7164989,16.2520079],[73.7159657,16.2509422],[73.7154132,16.2499071],[73.7136483,16.2464179],[73.7130153,16.2450633],[73.7126452,16.2440951],[73.712334,16.2428075],[73.7121731,16.2413603],[73.7121892,16.2400572],[73.7122804,16.2367661],[73.7124145,16.2331659],[73.7125486,16.2286385],[73.7126881,16.2250279],[73.7128007,16.2216284],[73.7128651,16.2179661],[73.7130207,16.214278],[73.7131011,16.2113573],[73.7129188,16.2098789],[73.7125593,16.2080709],[73.7123264,16.2069382],[73.7123083,16.2068501],[73.7118888,16.2048101],[73.7115991,16.2028732],[73.7116367,16.2018687],[73.7117332,16.2010393],[73.7120283,16.1995248],[73.7130368,16.1963309],[73.7135088,16.1939973],[73.7135614,16.193145],[73.7135562,16.1919354],[73.7134535,16.1911467],[73.7133374,16.1904159],[73.7131272,16.1895918],[73.7129353,16.1889072],[73.7126037,16.1881488],[73.7119553,16.1869556],[73.7113127,16.1860022],[73.7112427,16.1859265],[73.7104887,16.1850316],[73.70847,16.1828495],[73.7075943,16.1818466],[73.7068248,16.1808929],[73.7039223,16.177558],[73.7032449,16.1767797],[73.7023151,16.175821],[73.7013957,16.174741],[73.7007303,16.1739256],[73.7005507,16.1737055],[73.699746,16.172664],[73.6940778,16.1642491],[73.6931893,16.16293],[73.6871552,16.1540417],[73.6868658,16.1536167],[73.6838215,16.1491461],[73.6824788,16.1472478],[73.6818089,16.1462088],[73.6816715,16.1459647],[73.6812783,16.1452664],[73.6810131,16.1446791],[73.6806942,16.1439064],[73.6804257,16.1429644],[73.6802841,16.1422267],[73.6801639,16.1413345],[73.6801338,16.140038],[73.67981,16.1187679],[73.6797687,16.1164317],[73.6797695,16.1162203],[73.6797727,16.1153525],[73.6797056,16.1114047],[73.6796541,16.1083236],[73.6796438,16.1080825],[73.6795937,16.1057345],[73.6791075,16.0725746],[73.6791061,16.0724778],[73.6790643,16.0685796],[73.6790039,16.0667192],[73.6787568,16.0512164],[73.6784682,16.0328316],[73.6784256,16.0311135],[73.6780862,16.0228012],[73.6780532,16.0222125],[73.6779998,16.021392],[73.6779556,16.0205392],[73.6777854,16.0162684],[73.677765,16.0153047],[73.6777128,16.0139908],[73.6776775,16.0135169],[73.6775092,16.0096108],[73.677331,16.0058157],[73.6772986,16.0047308],[73.6772646,16.0039821],[73.6773164,16.0031715],[73.6773717,16.0024876],[73.6775344,16.0017727],[73.6777007,16.0011313],[73.6779206,16.0004384],[73.6782313,15.9996528],[73.6786245,15.9988506],[73.679125,15.9980588],[73.679544,15.9974308],[73.680006,15.996844],[73.6806989,15.9961001],[73.681951,15.995053],[73.68403,15.993401],[73.685129,15.99251],[73.68616,15.991563],[73.687132,15.990552],[73.6938105,15.9832217],[73.6940312,15.9829732],[73.6941431,15.9828484],[73.7003283,15.9759555],[73.7011211,15.9751572],[73.7016529,15.9745898],[73.7022277,15.9740947],[73.70276,15.973634],[73.7034746,15.9731217],[73.727441,15.95654],[73.7284478,15.9558258],[73.729292,15.9550887],[73.7300118,15.9543899],[73.7304913,15.9537907],[73.7312062,15.9527589],[73.7326171,15.950349],[73.7329309,15.9498411],[73.7338883,15.9482914],[73.737493,15.9424998],[73.7377676,15.9420586],[73.7475162,15.9263947],[73.7487468,15.9242839],[73.7603945,15.9057557],[73.767521,15.894491],[73.768999,15.892148],[73.769989,15.890587],[73.7827951,15.8705875],[73.782853,15.8705008],[73.7830353,15.8702277],[73.7834056,15.8696732],[73.783474,15.8695708],[73.7842967,15.8683387],[73.7864347,15.8649842],[73.7877978,15.8628526],[73.7880971,15.8622595],[73.788226,15.8620697],[73.7884704,15.8616772],[73.7934285,15.8538531],[73.7982665,15.8462876],[73.7987454,15.8454497],[73.7991036,15.8447636],[73.7995262,15.8436441],[73.7998983,15.842409],[73.8025886,15.8325986],[73.8026599,15.832457],[73.8067107,15.8176847],[73.8070305,15.8165459],[73.8074116,15.8155949],[73.8077312,15.8147999],[73.8103819,15.8088805],[73.8126682,15.8037748],[73.8137011,15.8014617],[73.822832,15.7810132],[73.823232,15.7800562],[73.823594,15.7789622],[73.823866,15.7776682],[73.823977,15.7764602],[73.823951,15.7751462],[73.82378,15.7738742],[73.822109,15.7635308],[73.8220501,15.7633234],[73.821935,15.762611],[73.821748,15.761479],[73.821629,15.760241],[73.821602,15.759138],[73.821639,15.758173],[73.8217818,15.7565412],[73.822166,15.751075],[73.822232,15.74992],[73.82221,15.748775],[73.822092,15.747765],[73.821872,15.746612],[73.8206696,15.7408753],[73.8202179,15.7387202],[73.8187969,15.7319405],[73.8185026,15.7303151],[73.8184145,15.7298794],[73.8181118,15.7283593],[73.8177092,15.726887],[73.815885,15.718218],[73.815703,15.717248],[73.815557,15.716327],[73.815439,15.715315],[73.815404,15.714216],[73.8155247,15.7129735],[73.8157709,15.7118787],[73.8160578,15.7109699],[73.8161158,15.7108356],[73.8162234,15.7105237],[73.8163736,15.7101596],[73.8166397,15.7096153],[73.8168899,15.709152],[73.8170032,15.7089525],[73.8172875,15.7084903],[73.8176811,15.7079397],[73.8180614,15.7074627],[73.8185133,15.7069488],[73.8206725,15.7046076],[73.8212877,15.7039406],[73.8214582,15.7037508],[73.8219598,15.7032109],[73.8226196,15.7024877],[73.8234426,15.7014517],[73.824332,15.7001549],[73.8325165,15.6875889],[73.8334456,15.6862499],[73.8340426,15.6853546],[73.8349482,15.6841875],[73.8356813,15.6832556],[73.835741,15.6831839],[73.8426514,15.6746788],[73.842701,15.6746178],[73.84419,15.672713],[73.8447376,15.672131],[73.8452898,15.6714253],[73.8457868,15.6707636],[73.8471003,15.6686393],[73.8477901,15.6673632],[73.8521174,15.6601812],[73.8523722,15.6597835],[73.8529759,15.658793],[73.8535416,15.658066],[73.8540888,15.6573532],[73.8546413,15.6567902],[73.8563365,15.6550391],[73.8680524,15.6429258],[73.8686907,15.6421407],[73.869421,15.641009],[73.869984,15.640001],[73.8704577,15.6390776],[73.8708684,15.6379512],[73.871221,15.63681],[73.871612,15.635854],[73.872108,15.634905],[73.872674,15.634031],[73.873288,15.6333471],[73.873409,15.633126],[73.874089,15.632412],[73.8743582,15.6321589],[73.8745084,15.6320177],[73.8745995,15.6319169],[73.8750717,15.6315622],[73.8771269,15.6299996],[73.8790426,15.628556],[73.8803743,15.6275536],[73.88112,15.626936],[73.8819057,15.6262428],[73.8826427,15.6253262],[73.8833037,15.6243492],[73.883766,15.623327],[73.884154,15.622487],[73.884701,15.621229],[73.884962,15.620636],[73.885425,15.619653],[73.885997,15.618638],[73.886567,15.617793],[73.8869722,15.6172702],[73.8870364,15.6171874],[73.887779,15.616056],[73.888424,15.614979],[73.8886936,15.6145137],[73.8890395,15.6138038],[73.889789,15.612097],[73.890494,15.610872],[73.8934527,15.6063551],[73.8934894,15.606299],[73.8939091,15.6056583],[73.8940794,15.6053982],[73.8941181,15.6053392],[73.8963355,15.6019831],[73.8964117,15.6018677],[73.897143,15.600615],[73.897741,15.599733],[73.898288,15.599018],[73.899173,15.598017],[73.8998574,15.5972969],[73.8999604,15.5971834],[73.900017,15.597113],[73.900638,15.596463],[73.9008638,15.5962456],[73.9009336,15.5961552],[73.901333,15.59566],[73.902028,15.594727],[73.902685,15.593609],[73.903232,15.592395],[73.903672,15.591112],[73.903874,15.589753],[73.903971,15.58841],[73.9039242,15.5876587],[73.903813,15.58699],[73.903558,15.585753],[73.903179,15.584346],[73.9030634,15.5839261],[73.902799,15.582966],[73.902472,15.581437],[73.902396,15.5807205],[73.902363,15.579942],[73.9023988,15.579275],[73.9025526,15.578205],[73.9027698,15.5772093],[73.9030748,15.5761177],[73.9034887,15.5745839],[73.903581,15.5742763],[73.9040569,15.5726909],[73.9041193,15.5724496],[73.90454,15.571302],[73.905064,15.570111],[73.905792,15.568869],[73.90668,15.567688],[73.9107054,15.5628104],[73.912438,15.560711],[73.913398,15.559591],[73.914237,15.558712],[73.9151177,15.557976],[73.9152008,15.5579066],[73.917545,15.55609],[73.918281,15.555514],[73.918912,15.554961],[73.919912,15.553909],[73.920777,15.552724],[73.921429,15.5514888],[73.9216647,15.5509512],[73.9219036,15.5502287],[73.9221901,15.5490483],[73.9223564,15.5481077],[73.9224368,15.547379],[73.9224529,15.5466245],[73.9224181,15.5458493],[73.9222223,15.5447949],[73.9219111,15.5436114],[73.9212942,15.541632],[73.9205654,15.5396393],[73.9199871,15.5380863],[73.9196926,15.5373653],[73.9193096,15.5363177],[73.9190276,15.5351691],[73.9189184,15.5343835],[73.9188092,15.5336807],[73.918739,15.5326781],[73.9187611,15.5319222],[73.918808,15.5312229],[73.9188502,15.5306846],[73.9189568,15.5298258],[73.9190895,15.5291677],[73.9192865,15.528489],[73.9194757,15.5278426],[73.9197171,15.527212],[73.9199799,15.5266073],[73.9202744,15.526022],[73.920974,15.524849],[73.921678,15.523807],[73.9225073,15.5226203],[73.9231976,15.521667],[73.923733,15.5208963],[73.9239979,15.5204922],[73.9242634,15.5200817],[73.9246364,15.5193341],[73.9249113,15.5186673],[73.9253134,15.5175207],[73.9255734,15.5162887],[73.9256914,15.5151047],[73.9257367,15.5141747],[73.9257118,15.5135586],[73.9256404,15.5129597],[73.9255794,15.5119977],[73.9255274,15.5111207],[73.9254677,15.5100282],[73.9254613,15.5099511],[73.925318,15.5082154],[73.9251324,15.5032877],[73.9250914,15.5025807],[73.9250584,15.5020487],[73.9250024,15.5014547],[73.9249474,15.5007937],[73.9249024,15.5000667],[73.924726,15.4972478],[73.9247225,15.4971373],[73.9245675,15.4943088],[73.9245113,15.4929326],[73.9245076,15.4928419],[73.9245235,15.4925813],[73.924563,15.4919356],[73.924711,15.4906503],[73.9252149,15.4870579],[73.9253824,15.4858787],[73.9254128,15.4856614],[73.9255504,15.4846767],[73.9257324,15.4834067],[73.9259754,15.4821467],[73.9263174,15.4809887],[73.9272794,15.4780937],[73.9277094,15.4766907],[73.9279744,15.4754827],[73.9280994,15.4742717],[73.9281314,15.4730867],[73.9281499,15.4711428],[73.9281499,15.4710445],[73.9280044,15.4597847],[73.9279924,15.4588347],[73.9279174,15.4576427],[73.9277154,15.4563547],[73.9273704,15.4550897],[73.9269044,15.4539217],[73.9264064,15.4529197],[73.9262831,15.452672],[73.9261812,15.4524626],[73.9256758,15.451536],[73.9251827,15.450548],[73.9248154,15.4497067],[73.9244514,15.4485857],[73.9234747,15.445051],[73.9234031,15.4448033],[73.9226379,15.4421271],[73.9225765,15.4419123],[73.9221134,15.4402927],[73.9218214,15.4392597],[73.9214204,15.4379937],[73.9208974,15.4367837],[73.9202654,15.4356737],[73.9195404,15.4346337],[73.9133434,15.4264127],[73.9126164,15.4252997],[73.9118734,15.4239437],[73.9115028,15.4230768],[73.9112735,15.4223293],[73.9110878,15.421704],[73.9105834,15.4196388],[73.9095086,15.4149428],[73.9090153,15.4127874],[73.9085178,15.4106139],[73.9079301,15.4080459],[73.9074556,15.4058069],[73.9070265,15.4039081],[73.9070101,15.4035963],[73.906966,15.4031868],[73.9069546,15.402596],[73.9069691,15.4020548],[73.9070535,15.4015949],[73.9072354,15.400669],[73.9073414,15.4001693],[73.9075251,15.3995591],[73.9076888,15.3991594],[73.9079061,15.3986511],[73.9082125,15.3980972],[73.9085779,15.3975072],[73.9091475,15.3967751],[73.9092195,15.3966939],[73.9099301,15.3958921],[73.912138,15.393669],[73.912972,15.392784],[73.913791,15.391761],[73.914484,15.390713],[73.9147676,15.3901983],[73.915101,15.389593],[73.915535,15.388593],[73.91596,15.387328],[73.916279,15.385962],[73.916431,15.384872],[73.916497,15.383782],[73.916513,15.382751],[73.91652,15.381713],[73.9164815,15.3786165],[73.9164284,15.3743389],[73.9164324,15.3721462],[73.91643,15.3690423],[73.9164155,15.3679272],[73.9163965,15.3675999],[73.9163494,15.366786],[73.9161348,15.365605],[73.9159503,15.364888],[73.9157631,15.3642358],[73.9155237,15.3634674],[73.9151275,15.3622499],[73.9147613,15.361101],[73.9138656,15.3583571],[73.9133731,15.3568488],[73.913045,15.3558438],[73.9106923,15.3486371],[73.9104376,15.3478567],[73.9099828,15.3464636],[73.909238,15.344122],[73.9089713,15.3433405],[73.908732,15.342561],[73.908433,15.341484],[73.908199,15.340345],[73.90805,15.339265],[73.90796,15.337963],[73.907968,15.336695],[73.90807,15.335456],[73.908192,15.334611],[73.908342,15.333738],[73.908567,15.332925],[73.908817,15.332105],[73.909087,15.331348],[73.90937,15.330543],[73.909712,15.329812],[73.9099862,15.3292881],[73.9102623,15.3288297],[73.9104826,15.3284402],[73.9105067,15.328392],[73.9106537,15.3281529],[73.9108629,15.3278478],[73.9110307,15.3275906],[73.9115688,15.3268674],[73.9119923,15.3263022],[73.9125456,15.3255928],[73.9130812,15.3249013],[73.9135012,15.3243786],[73.9145335,15.323104],[73.9164167,15.3207008],[73.9192868,15.31705],[73.9194375,15.3168591],[73.9199525,15.3161992],[73.9257511,15.3087688],[73.9259595,15.3085057],[73.9270965,15.3070526],[73.9290786,15.3044947],[73.9301812,15.3031111],[73.9337305,15.298601],[73.93434,15.2978504],[73.9358376,15.2959494],[73.9365053,15.2950911],[73.9383216,15.2928495],[73.9411657,15.2891983],[73.9411733,15.2891891],[73.9419655,15.2882259],[73.9422822,15.2878205],[73.9429565,15.2870107],[73.9471779,15.2816854],[73.9472499,15.2815945],[73.9505208,15.2774161],[73.9507623,15.2771041],[73.9538468,15.2731598],[73.9540224,15.2729359],[73.9545122,15.2723648],[73.9548624,15.2720208],[73.9551775,15.271723],[73.9557338,15.271244],[73.956115,15.2709481],[73.9566168,15.2705587],[73.9569336,15.2703567],[73.9572504,15.2701608],[73.9574832,15.2700278],[73.9577033,15.2699132],[73.9580685,15.2697347],[73.9585492,15.2695261],[73.9589155,15.2693834],[73.9592835,15.2692421],[73.9597334,15.2690972],[73.9600358,15.2689997],[73.9602889,15.2689217],[73.9605388,15.2688621],[73.9609183,15.2687686],[73.9613279,15.2686732],[73.9617556,15.2685908],[73.9621027,15.2685325],[73.9624356,15.2684817],[73.9629761,15.2684179],[73.963338,15.2683723],[73.9636222,15.2683549],[73.9637427,15.2683479],[73.9642131,15.2683135],[73.9650183,15.2682687],[73.9652929,15.2682575],[73.9669199,15.2681727],[73.9701562,15.2679731]]}}]}