{"type":"FeatureCollection","metadata":{"osmRelationIds":[2632233],"contributingWayIds":[1204400279,4845524,1259108503,1259108504,4845528,4845529,4845530,703945303,703945302,1259108505,195651939,1259114498,1259114497,1259108508,1259108507,1222873049,1222873048,1259108506,1259125954,527810223,1259114499,170987197,1259114500,170987193,1207909772,638082327,638082326,1259114496,1259114501,1259114503,1259114502,1536151056,704824185,1536151047,1536151048,704824186,704824183,704824182,195651930,195651941,704824181,704824180,1259167503,704824179,1259167504,704824178,704824177,704824176,704824175,704824172,704824173,704824174,704824188,704824187,704824170,704824171,195651938,195651950,195651937,1536151049,1536151050,1536151051,195651954,195651955,195651947,195651960,1536151052,1536151053,195651946,1259167505,1259167506,1536151054,1536151055,704824166,1259167509,704824167,195651932,195651962,704824164,704824165,704824163,1259167510,704824162,704824161,704824160,704824158,704824159,704824154,704824153,195651933,195651957,1259173284,195651952,1259173285,195651944,704824151,704824150,704824149,704824148,195651935,195651943,195651940,195651942,704824145,704824146,704824144,704824143,1259158940,1259158941,704824139,704824138,704824137,704824136,195651953,195651949,704824134,704824133,195651931,195651956,195651934,195651951,195651964,195651948,1259173286,25620044,1259173288,31985414,1259173287,31985413],"endpointSnapKm":[0.002,0],"coordinateCount":1124,"calculatedDistanceKm":33.27,"orientation":"Cairns to Kuranda","source":"OpenStreetMap","license":"ODbL"},"features":[{"type":"Feature","properties":{"osmRelationIds":[2632233],"contributingWayIds":[1204400279,4845524,1259108503,1259108504,4845528,4845529,4845530,703945303,703945302,1259108505,195651939,1259114498,1259114497,1259108508,1259108507,1222873049,1222873048,1259108506,1259125954,527810223,1259114499,170987197,1259114500,170987193,1207909772,638082327,638082326,1259114496,1259114501,1259114503,1259114502,1536151056,704824185,1536151047,1536151048,704824186,704824183,704824182,195651930,195651941,704824181,704824180,1259167503,704824179,1259167504,704824178,704824177,704824176,704824175,704824172,704824173,704824174,704824188,704824187,704824170,704824171,195651938,195651950,195651937,1536151049,1536151050,1536151051,195651954,195651955,195651947,195651960,1536151052,1536151053,195651946,1259167505,1259167506,1536151054,1536151055,704824166,1259167509,704824167,195651932,195651962,704824164,704824165,704824163,1259167510,704824162,704824161,704824160,704824158,704824159,704824154,704824153,195651933,195651957,1259173284,195651952,1259173285,195651944,704824151,704824150,704824149,704824148,195651935,195651943,195651940,195651942,704824145,704824146,704824144,704824143,1259158940,1259158941,704824139,704824138,704824137,704824136,195651953,195651949,704824134,704824133,195651931,195651956,195651934,195651951,195651964,195651948,1259173286,25620044,1259173288,31985414,1259173287,31985413],"endpointSnapKm":[0.002,0],"coordinateCount":1124,"calculatedDistanceKm":33.27,"orientation":"Cairns to Kuranda"},"geometry":{"type":"LineString","coordinates":[[145.7712437,-16.9256795],[145.7699298,-16.9241289],[145.769847,-16.9240275],[145.7697946,-16.9239652],[145.7697398,-16.9238968],[145.7696924,-16.9238393],[145.7696506,-16.9237886],[145.7695632,-16.9236667],[145.7694824,-16.9235458],[145.7694076,-16.9234233],[145.7693461,-16.9233154],[145.769313,-16.9232434],[145.7692853,-16.9231761],[145.7692505,-16.923089],[145.7692017,-16.9229845],[145.7690005,-16.9226186],[145.7689287,-16.9224932],[145.7688026,-16.922271],[145.7687621,-16.922198],[145.768705,-16.9220992],[145.768653,-16.9220034],[145.7685927,-16.9218961],[145.768486,-16.9217077],[145.7684028,-16.9215636],[145.768337,-16.9214575],[145.7682853,-16.921378],[145.7682431,-16.9213178],[145.7681957,-16.9212503],[145.7681569,-16.9211961],[145.7680308,-16.9210364],[145.7677184,-16.9206606],[145.7673692,-16.9202523],[145.7673204,-16.920195],[145.7665482,-16.9192875],[145.76605,-16.9187024],[145.7660169,-16.9186621],[145.7659327,-16.918561],[145.76588,-16.9185015],[145.7655189,-16.9180978],[145.7649045,-16.9173685],[145.7642288,-16.9165678],[145.7631535,-16.9152936],[145.7630599,-16.9151827],[145.762845,-16.9149341],[145.7628405,-16.9149285],[145.7616516,-16.9135624],[145.761577,-16.913469],[145.7613094,-16.913146],[145.7600471,-16.9116749],[145.7588744,-16.9102697],[145.7587601,-16.9101357],[145.7586604,-16.9100223],[145.7586354,-16.9099928],[145.758535,-16.9098786],[145.7576052,-16.9088205],[145.7573065,-16.9084178],[145.7572128,-16.9082915],[145.7568717,-16.907707],[145.7565551,-16.907035],[145.7563567,-16.9065295],[145.7562751,-16.90623],[145.7562474,-16.9061284],[145.7561694,-16.905802],[145.7560891,-16.9052794],[145.7559955,-16.9045285],[145.7559187,-16.9037155],[145.7559112,-16.9036466],[145.7559021,-16.9035685],[145.7558996,-16.9035437],[145.755886,-16.9034103],[145.7555925,-16.9009358],[145.7555853,-16.9008975],[145.7554969,-16.9004312],[145.7551734,-16.8993895],[145.7551334,-16.8992669],[145.7549399,-16.8988726],[145.7547469,-16.8985166],[145.7539291,-16.8969598],[145.7537614,-16.896613],[145.7536037,-16.8962514],[145.7533032,-16.8954685],[145.7527237,-16.8939462],[145.7526857,-16.893837],[145.7525708,-16.8935297],[145.752248,-16.8926659],[145.7522107,-16.8925577],[145.7521721,-16.8924549],[145.7521566,-16.8924119],[145.7521264,-16.892328],[145.7512848,-16.8900934],[145.7509122,-16.8890968],[145.7507212,-16.8886129],[145.7505918,-16.8883009],[145.7504811,-16.8880621],[145.7503764,-16.8878685],[145.7502691,-16.8877006],[145.7501326,-16.8875209],[145.7499988,-16.8873668],[145.7498265,-16.8871838],[145.7496729,-16.8870444],[145.7493428,-16.8867651],[145.7482311,-16.8859002],[145.7471886,-16.8850692],[145.7470965,-16.8849861],[145.7470169,-16.8849141],[145.7469592,-16.8848621],[145.746815,-16.8847176],[145.7466922,-16.8845781],[145.7465825,-16.8844223],[145.7464874,-16.8842828],[145.7464084,-16.8841279],[145.7462391,-16.8837367],[145.7456847,-16.8822908],[145.7447799,-16.879847],[145.7446881,-16.8796465],[145.7445829,-16.8794383],[145.7444933,-16.8792842],[145.7443705,-16.8791082],[145.7442182,-16.8789038],[145.7440923,-16.8787465],[145.743945,-16.8785685],[145.743204,-16.877806],[145.7427463,-16.877383],[145.741456,-16.8761634],[145.7408449,-16.8755592],[145.7408401,-16.8755546],[145.7406489,-16.8753745],[145.7404393,-16.8752016],[145.740287,-16.8750916],[145.7401464,-16.8750147],[145.7399587,-16.8749351],[145.7397804,-16.8748776],[145.7395939,-16.8748283],[145.7393966,-16.8747893],[145.7392079,-16.8747685],[145.7389379,-16.874763],[145.7386612,-16.8747751],[145.7386388,-16.8747759],[145.7363845,-16.8748848],[145.7363408,-16.8748866],[145.7344832,-16.8749581],[145.7343126,-16.8749696],[145.7341142,-16.8749791],[145.7329241,-16.8750345],[145.7318966,-16.8750824],[145.7314808,-16.8750998],[145.7304866,-16.8751413],[145.7299384,-16.875158],[145.7295592,-16.8751695],[145.7295389,-16.8751705],[145.7292919,-16.8751891],[145.7291173,-16.8752122],[145.7288703,-16.8752581],[145.7286643,-16.8753048],[145.7265581,-16.8759244],[145.7263087,-16.8759974],[145.726054,-16.8760396],[145.7256895,-16.876083],[145.7251723,-16.8761261],[145.7242947,-16.8761821],[145.7240544,-16.8762009],[145.7240265,-16.8762028],[145.7230832,-16.8762788],[145.7229696,-16.8762876],[145.7186861,-16.8766206],[145.7184218,-16.8766489],[145.7180435,-16.8767072],[145.717681,-16.8768024],[145.7173492,-16.876921],[145.7170227,-16.8770731],[145.7162643,-16.8774873],[145.7155781,-16.8778567],[145.7154712,-16.8779199],[145.715331,-16.877994],[145.7118324,-16.8798844],[145.7118127,-16.879895],[145.7097699,-16.8810024],[145.7089879,-16.8814279],[145.7088876,-16.8814916],[145.708823,-16.8815283],[145.7087356,-16.8815885],[145.7087159,-16.8816026],[145.7084222,-16.881828],[145.7079075,-16.8822765],[145.7074541,-16.8826135],[145.7069241,-16.8828821],[145.7066414,-16.8829924],[145.706627,-16.8829983],[145.7047845,-16.8837119],[145.7045095,-16.8838192],[145.7012274,-16.8850877],[145.6992259,-16.8858592],[145.6991533,-16.8858882],[145.6987914,-16.886027],[145.6986879,-16.8860678],[145.6983402,-16.8862015],[145.6979949,-16.8863366],[145.6977846,-16.8864229],[145.697528,-16.8865494],[145.6964698,-16.8870975],[145.6962793,-16.887216],[145.6961051,-16.8873431],[145.6959717,-16.8874583],[145.6958982,-16.8875261],[145.6958558,-16.8875652],[145.6956694,-16.8877664],[145.6955633,-16.8879097],[145.6954575,-16.8880613],[145.6953575,-16.8882431],[145.6952908,-16.8884102],[145.6952306,-16.8885916],[145.6951993,-16.8887729],[145.6951938,-16.8889464],[145.6951997,-16.8891197],[145.6952082,-16.8892329],[145.6952522,-16.8895449],[145.6952674,-16.889683],[145.6952741,-16.8897691],[145.6952749,-16.8899426],[145.6952636,-16.8900765],[145.6952458,-16.8901897],[145.6952174,-16.8903132],[145.6951674,-16.8904589],[145.6950852,-16.8906559],[145.6946003,-16.8916186],[145.6944887,-16.8918167],[145.6944089,-16.8919537],[145.6943456,-16.8921138],[145.6943011,-16.8922637],[145.6942496,-16.8924558],[145.6942254,-16.8926008],[145.6942039,-16.8927842],[145.6941931,-16.8930383],[145.6941864,-16.8933306],[145.6941648,-16.8935306],[145.6941384,-16.8936596],[145.694107,-16.8937844],[145.6940675,-16.8938989],[145.6937631,-16.8946514],[145.6933105,-16.895861],[145.6932085,-16.8961236],[145.6930927,-16.8963871],[145.6924436,-16.8976058],[145.6921917,-16.8980802],[145.6920577,-16.8983416],[145.6919718,-16.8985217],[145.6919019,-16.8987116],[145.6918522,-16.898891],[145.6918212,-16.8990395],[145.691809,-16.8991418],[145.6917969,-16.8992442],[145.6917883,-16.8993495],[145.6917851,-16.8994651],[145.6917895,-16.8995911],[145.6917992,-16.8997172],[145.6918115,-16.8998278],[145.6918311,-16.8999629],[145.6918775,-16.9002237],[145.6919224,-16.9004322],[145.6919754,-16.900651],[145.6920297,-16.9008865],[145.6920749,-16.9011489],[145.6921428,-16.9014559],[145.6921682,-16.9016991],[145.6921836,-16.9019079],[145.6921778,-16.9021238],[145.6921505,-16.9023396],[145.692097,-16.9025642],[145.6920382,-16.9027477],[145.6919417,-16.90303],[145.6913559,-16.9046098],[145.6910762,-16.9054053],[145.6909812,-16.9056509],[145.690897,-16.9058658],[145.6907989,-16.9060996],[145.6906923,-16.9063206],[145.6903705,-16.9069349],[145.689967,-16.9076854],[145.6896883,-16.9082014],[145.6896767,-16.9082257],[145.6896269,-16.9083354],[145.6895757,-16.9084728],[145.6895532,-16.9085972],[145.689545,-16.9087033],[145.6895472,-16.9088245],[145.6895705,-16.9089473],[145.6896099,-16.909049],[145.6896625,-16.90914],[145.6897246,-16.909232],[145.6897967,-16.9093123],[145.6898867,-16.9093906],[145.6903087,-16.9096788],[145.6910928,-16.9101922],[145.6912547,-16.9103079],[145.6914388,-16.9105015],[145.6915475,-16.9106455],[145.6916402,-16.9107997],[145.6917094,-16.9109421],[145.6917606,-16.9110772],[145.691811,-16.9112202],[145.6919433,-16.9117287],[145.6922527,-16.9129017],[145.6922925,-16.9130538],[145.6923571,-16.913296],[145.6923647,-16.9133271],[145.692413,-16.9135121],[145.6924309,-16.9135971],[145.6924378,-16.913689],[145.692438,-16.913771],[145.6924266,-16.9138787],[145.692407,-16.9139653],[145.6923758,-16.9140617],[145.692335,-16.91415],[145.6922893,-16.9142265],[145.6922299,-16.914302],[145.6921645,-16.9143735],[145.6920905,-16.9144403],[145.692029,-16.9144874],[145.6919649,-16.9145236],[145.6918866,-16.9145615],[145.691804,-16.9145919],[145.6916991,-16.9146197],[145.6915817,-16.914634],[145.6914777,-16.9146372],[145.6913852,-16.9146307],[145.6912996,-16.9146184],[145.6912092,-16.9145965],[145.6911033,-16.9145521],[145.6910036,-16.9144951],[145.6909107,-16.914436],[145.6907997,-16.9143535],[145.6907091,-16.9142743],[145.6906175,-16.914172],[145.6905263,-16.9140683],[145.6904438,-16.9139465],[145.6903952,-16.9138619],[145.6903497,-16.9137662],[145.6903145,-16.9136667],[145.690282,-16.9135491],[145.6902564,-16.9134327],[145.690236,-16.9133181],[145.6902271,-16.9132064],[145.690231,-16.9131061],[145.6902511,-16.9129579],[145.6903597,-16.9124585],[145.690412,-16.9121896],[145.6904294,-16.9120104],[145.6904273,-16.9118761],[145.6903929,-16.9117187],[145.6903086,-16.9115507],[145.6902083,-16.9114134],[145.6896489,-16.9107504],[145.6894451,-16.9105112],[145.6892385,-16.9103365],[145.68904,-16.9102208],[145.688782,-16.9101232],[145.6884988,-16.9100334],[145.6883475,-16.9099622],[145.6882124,-16.9098704],[145.6880949,-16.9097614],[145.6880251,-16.9096638],[145.6879554,-16.9095432],[145.6879036,-16.9093868],[145.6878845,-16.9092207],[145.6879055,-16.9087631],[145.6879028,-16.9085907],[145.6878813,-16.9084464],[145.6878371,-16.9082866],[145.6877419,-16.9080831],[145.6876541,-16.9079629],[145.687577,-16.9078787],[145.6870446,-16.9074143],[145.686879,-16.9072418],[145.6867882,-16.9071197],[145.6867135,-16.9069975],[145.6864727,-16.9065951],[145.6863874,-16.9064801],[145.6862592,-16.9063852],[145.6860076,-16.9062543],[145.6858804,-16.906182],[145.6857694,-16.9060942],[145.6856562,-16.9059709],[145.6855493,-16.9058054],[145.6854556,-16.9056322],[145.685057,-16.9046735],[145.6849834,-16.9044896],[145.6849669,-16.9044485],[145.6849385,-16.9042396],[145.6849655,-16.9040645],[145.6850204,-16.9038579],[145.6850876,-16.9037223],[145.6851568,-16.9035981],[145.6854735,-16.9030219],[145.6855616,-16.9028213],[145.6855872,-16.9024533],[145.685497,-16.9021459],[145.6853864,-16.9019863],[145.6852671,-16.901847],[145.6850999,-16.9016021],[145.685,-16.9013347],[145.6849824,-16.9010529],[145.6850105,-16.9009828],[145.6856823,-16.8999922],[145.6859625,-16.8995257],[145.6861194,-16.8991164],[145.686147,-16.8989741],[145.6862833,-16.8987874],[145.6864646,-16.8985389],[145.6867479,-16.8975944],[145.6868505,-16.8968924],[145.6868318,-16.8965946],[145.6867736,-16.8962968],[145.6869195,-16.895722],[145.6870654,-16.8953606],[145.6876662,-16.8949828],[145.6883786,-16.8948022],[145.6887649,-16.8945393],[145.6889111,-16.8941667],[145.6889365,-16.8937509],[145.6885503,-16.8932582],[145.6879495,-16.8928968],[145.6873229,-16.8926258],[145.6867908,-16.8922973],[145.6864303,-16.8918456],[145.6856017,-16.8913325],[145.6854347,-16.8911744],[145.6852569,-16.8908449],[145.6852029,-16.8905151],[145.6849015,-16.8899407],[145.6848701,-16.8898861],[145.6848456,-16.8898502],[145.6847834,-16.8897817],[145.6847402,-16.8897322],[145.6846997,-16.8896804],[145.6846576,-16.8896192],[145.6846242,-16.8895621],[145.6845951,-16.8895009],[145.6845694,-16.8894346],[145.6845496,-16.8893643],[145.6845345,-16.8892934],[145.6845021,-16.8890272],[145.6844636,-16.8888195],[145.6844065,-16.888661],[145.6843912,-16.8886257],[145.6843764,-16.8885994],[145.6843575,-16.8885735],[145.6843355,-16.8885486],[145.6841916,-16.8884242],[145.6841336,-16.8883856],[145.6840633,-16.8883465],[145.6839855,-16.8883042],[145.6839256,-16.888276],[145.6838627,-16.8882497],[145.6836426,-16.8881692],[145.6835148,-16.8881113],[145.6834567,-16.8880774],[145.683395,-16.8880335],[145.6833414,-16.887984],[145.6832843,-16.8879188],[145.6832321,-16.8878484],[145.6828483,-16.8872718],[145.6827352,-16.8869636],[145.6827273,-16.8866342],[145.6827897,-16.8863941],[145.6828592,-16.8861705],[145.6828589,-16.8859503],[145.6827922,-16.8857536],[145.6826157,-16.8853853],[145.6824195,-16.885098],[145.6820801,-16.8847738],[145.6818462,-16.8845369],[145.6816694,-16.8842985],[145.6815801,-16.8839606],[145.6815692,-16.8838289],[145.6816059,-16.8833992],[145.6816631,-16.8830413],[145.6816821,-16.8824799],[145.6816596,-16.8823186],[145.6816231,-16.8821428],[145.6815542,-16.8819245],[145.681485,-16.8817626],[145.681467,-16.8817277],[145.6813693,-16.8815855],[145.6813051,-16.881516],[145.6812147,-16.8814363],[145.6810681,-16.8813529],[145.6809668,-16.8813122],[145.6806299,-16.8812122],[145.6802359,-16.8811109],[145.680056,-16.8810651],[145.6800093,-16.8810515],[145.6798468,-16.8809993],[145.6796799,-16.8809213],[145.6795315,-16.8808119],[145.6794305,-16.8806611],[145.6793425,-16.8805456],[145.6792275,-16.8804142],[145.678893,-16.8800836],[145.6783717,-16.8794526],[145.6780883,-16.8792324],[145.6777962,-16.8791004],[145.6775713,-16.8790829],[145.6772833,-16.8791394],[145.6769016,-16.8792104],[145.676507,-16.8792296],[145.6763353,-16.8792083],[145.6760687,-16.8791679],[145.6758022,-16.8791667],[145.6755173,-16.8791989],[145.6752812,-16.8792488],[145.6751385,-16.8792997],[145.6750019,-16.8793294],[145.6748496,-16.8793372],[145.6746994,-16.8793209],[145.6744856,-16.8792404],[145.674328,-16.879143],[145.6741825,-16.8789898],[145.6740743,-16.878891],[145.6739723,-16.8788231],[145.672763,-16.8779743],[145.6726131,-16.8779127],[145.6724444,-16.8778876],[145.6722965,-16.8778893],[145.6721486,-16.8779103],[145.6716269,-16.8779927],[145.6714387,-16.8780267],[145.6712566,-16.8780818],[145.670942,-16.8782402],[145.6707018,-16.8783233],[145.6703897,-16.8784016],[145.6702191,-16.8784354],[145.6700291,-16.8784739],[145.6698452,-16.8785066],[145.6696452,-16.8785236],[145.669469,-16.8785281],[145.669299,-16.8785113],[145.6691655,-16.8784563],[145.6690157,-16.8784281],[145.6688682,-16.8784344],[145.6687289,-16.8784597],[145.6685974,-16.8785115],[145.6684636,-16.8785734],[145.6683601,-16.878638],[145.6682671,-16.8787161],[145.6680524,-16.8790294],[145.6679461,-16.8791489],[145.6677593,-16.879326],[145.6675583,-16.8794159],[145.6673526,-16.8794577],[145.6671535,-16.879447],[145.6665948,-16.8794575],[145.666337,-16.8795228],[145.6662894,-16.8795349],[145.6657596,-16.8797955],[145.6655295,-16.8799826],[145.6653697,-16.8802443],[145.6652106,-16.880479],[145.6651097,-16.8805636],[145.6649947,-16.8806326],[145.6648076,-16.8807135],[145.6646112,-16.8807811],[145.6643148,-16.8808673],[145.6641487,-16.8808984],[145.6639221,-16.8809017],[145.6637129,-16.8809052],[145.6635654,-16.8809321],[145.6633267,-16.8810167],[145.6632305,-16.881046],[145.663132,-16.8810664],[145.6630124,-16.8810724],[145.6628963,-16.8810549],[145.6625848,-16.8809063],[145.6622009,-16.880845],[145.6619054,-16.880835],[145.661737,-16.8808383],[145.6615548,-16.8808647],[145.6614158,-16.8809091],[145.6612542,-16.8809833],[145.6611165,-16.8810621],[145.6609604,-16.8811361],[145.6608261,-16.8811956],[145.6606631,-16.8812365],[145.6603817,-16.8812431],[145.6601632,-16.8812209],[145.6600373,-16.8812309],[145.6599087,-16.881232],[145.6597878,-16.8812166],[145.6596605,-16.8811791],[145.6595512,-16.8811395],[145.6594565,-16.8810872],[145.6591709,-16.8808921],[145.6589038,-16.8806819],[145.6588134,-16.8805869],[145.6587113,-16.880452],[145.6585338,-16.8801665],[145.6585143,-16.8801394],[145.6584502,-16.8800604],[145.6583473,-16.8799677],[145.6582668,-16.8799032],[145.6581626,-16.8798571],[145.6579865,-16.8798013],[145.6576438,-16.8797145],[145.6571928,-16.8795581],[145.6569832,-16.8795403],[145.6567806,-16.879571],[145.656702,-16.8795881],[145.6566788,-16.8795932],[145.6566409,-16.8796009],[145.6563455,-16.8796564],[145.6560904,-16.8796704],[145.6556894,-16.8796112],[145.6554192,-16.8795612],[145.6550449,-16.8795836],[145.6546945,-16.8796349],[145.6542422,-16.8797479],[145.6538497,-16.8798697],[145.6538376,-16.8798746],[145.65368,-16.8799387],[145.653516,-16.8800154],[145.6534925,-16.8800274],[145.6534149,-16.8800697],[145.6531599,-16.8802063],[145.6529542,-16.8803124],[145.6527048,-16.8804358],[145.6523947,-16.8806162],[145.6522313,-16.8806866],[145.6521135,-16.8807257],[145.651966,-16.8807495],[145.6518887,-16.880749],[145.651788,-16.880741],[145.6516856,-16.8807206],[145.6516228,-16.8807017],[145.6515204,-16.8806566],[145.6514223,-16.8805925],[145.6513342,-16.8805125],[145.6512593,-16.8804262],[145.6512069,-16.8803333],[145.6511651,-16.8802315],[145.6511405,-16.8801371],[145.6511265,-16.8800368],[145.6511223,-16.8799013],[145.6511468,-16.8797542],[145.6511836,-16.8796289],[145.6512282,-16.8795283],[145.651282,-16.879446],[145.6513082,-16.8794045],[145.6515274,-16.8790727],[145.6515839,-16.8789815],[145.6516418,-16.8788694],[145.6516586,-16.8788291],[145.6517548,-16.8785363],[145.6518131,-16.8783335],[145.65187,-16.878143],[145.6519275,-16.8779845],[145.6519814,-16.8778718],[145.6520432,-16.8777729],[145.6521446,-16.8776542],[145.6522594,-16.8775499],[145.6524756,-16.8773754],[145.6525793,-16.8772844],[145.6526586,-16.8772],[145.6527199,-16.8771157],[145.652775,-16.8770032],[145.6528224,-16.8768559],[145.6528724,-16.8766314],[145.652904,-16.8765327],[145.6529545,-16.8764163],[145.6530148,-16.8762904],[145.653091,-16.8761835],[145.653253,-16.8759809],[145.6535236,-16.8756683],[145.6536828,-16.8755012],[145.6539824,-16.8752045],[145.6540135,-16.8751699],[145.6541904,-16.8749121],[145.6542834,-16.8748016],[145.6543884,-16.8747151],[145.654626,-16.874592],[145.6547448,-16.8745254],[145.6548583,-16.8744525],[145.6550399,-16.8743853],[145.6551764,-16.8743269],[145.6553021,-16.8742579],[145.6554094,-16.8741876],[145.6555252,-16.8741338],[145.6556588,-16.8740849],[145.6557997,-16.8740476],[145.6559746,-16.8740188],[145.6561303,-16.8740009],[145.6562795,-16.8739923],[145.656396,-16.8739718],[145.6564948,-16.8739362],[145.6566541,-16.8738462],[145.6567727,-16.8737788],[145.6570228,-16.8736208],[145.6572246,-16.8734944],[145.6573533,-16.8734283],[145.6575022,-16.873377],[145.6576323,-16.8733383],[145.657761,-16.8733072],[145.6579022,-16.8732828],[145.6580403,-16.8732655],[145.6581913,-16.8732619],[145.6583296,-16.8732652],[145.6584573,-16.8732589],[145.6585798,-16.8732413],[145.6587079,-16.873202],[145.6588044,-16.8731552],[145.6588877,-16.873102],[145.6590183,-16.8729972],[145.6591292,-16.8729082],[145.6592832,-16.8727902],[145.6593803,-16.8726925],[145.6594667,-16.8725949],[145.659543,-16.8725336],[145.6598276,-16.8724138],[145.6601271,-16.8723574],[145.6602786,-16.8723732],[145.6604115,-16.8723687],[145.6605318,-16.8723278],[145.660623,-16.8723085],[145.660846,-16.8722583],[145.6611359,-16.872171],[145.6613484,-16.8720846],[145.661467,-16.8720179],[145.6615802,-16.8719076],[145.6617186,-16.8714659],[145.6617609,-16.8710563],[145.6616534,-16.8705032],[145.6616739,-16.8703146],[145.6617374,-16.8701233],[145.6618236,-16.8699492],[145.6619528,-16.8698006],[145.6622461,-16.8696927],[145.6626136,-16.8696341],[145.6628727,-16.8696164],[145.6631172,-16.8696215],[145.6632464,-16.8696538],[145.663353,-16.8697025],[145.6635061,-16.869793],[145.6635366,-16.8698098],[145.6637109,-16.8698834],[145.6638924,-16.8699366],[145.6641714,-16.8699277],[145.6643362,-16.8699034],[145.664501,-16.8698534],[145.6646736,-16.869765],[145.6649294,-16.8695689],[145.6653477,-16.869245],[145.6655928,-16.8690817],[145.6658946,-16.8689439],[145.6661871,-16.8687913],[145.6664043,-16.8685708],[145.6664659,-16.8684594],[145.6665218,-16.8683417],[145.6665694,-16.868185],[145.666572,-16.8680168],[145.6665442,-16.8677823],[145.666513,-16.8676079],[145.6664993,-16.8675494],[145.6664474,-16.8673256],[145.6664033,-16.8670826],[145.666388,-16.8669742],[145.6663787,-16.8668628],[145.6663724,-16.8667311],[145.6663578,-16.8666233],[145.666338,-16.8665171],[145.6663113,-16.8663965],[145.6662709,-16.8662944],[145.6662198,-16.8661974],[145.6661494,-16.866089],[145.6660553,-16.8659894],[145.6659507,-16.8658983],[145.665812,-16.8658155],[145.6656805,-16.8657677],[145.6655612,-16.8657404],[145.6654366,-16.8657232],[145.6652485,-16.8657251],[145.6650701,-16.8657347],[145.6649734,-16.8657369],[145.6648819,-16.8657324],[145.6647885,-16.865715],[145.6646772,-16.8656868],[145.6645734,-16.8656428],[145.6644789,-16.8655924],[145.6643733,-16.8655283],[145.6642801,-16.8654551],[145.6641474,-16.8653126],[145.6640671,-16.8652244],[145.6639533,-16.8651333],[145.6638298,-16.865038],[145.6637075,-16.8649331],[145.6635132,-16.8647442],[145.663434,-16.8646659],[145.6633337,-16.8646009],[145.6632229,-16.8645444],[145.6630944,-16.8645012],[145.6629237,-16.864473],[145.6628171,-16.8644736],[145.6626808,-16.8644775],[145.6625204,-16.8644987],[145.6624155,-16.8645055],[145.662294,-16.8645042],[145.6621778,-16.8644861],[145.662071,-16.8644609],[145.661936,-16.8644002],[145.6618285,-16.8643416],[145.6617462,-16.8642786],[145.6616045,-16.8641362],[145.6615015,-16.864032],[145.6613842,-16.8639349],[145.6612504,-16.8638343],[145.6611074,-16.8637413],[145.6609806,-16.8636649],[145.6580578,-16.8621639],[145.6579111,-16.8620566],[145.6578195,-16.8619591],[145.657645,-16.8617996],[145.6574705,-16.8616458],[145.6571626,-16.8613879],[145.656925,-16.8611855],[145.6568171,-16.8610805],[145.6567186,-16.8609514],[145.65663,-16.8607553],[145.6565036,-16.8603478],[145.6564421,-16.8602212],[145.656376,-16.8601205],[145.6562556,-16.8599867],[145.6559583,-16.8596982],[145.6558436,-16.8595578],[145.6557367,-16.8594001],[145.6555413,-16.8591005],[145.655444,-16.858985],[145.6553051,-16.8588457],[145.655159,-16.8587172],[145.6550062,-16.8586027],[145.6548689,-16.858515],[145.6547157,-16.8584312],[145.6544907,-16.8583192],[145.6543246,-16.8582273],[145.6542965,-16.858213],[145.6541586,-16.8581454],[145.6540723,-16.8581066],[145.6539801,-16.8580867],[145.6538442,-16.8580902],[145.6536956,-16.8580964],[145.6535641,-16.8581216],[145.6534365,-16.8581653],[145.6533089,-16.8582192],[145.6532439,-16.8582467],[145.6531252,-16.8582868],[145.6529709,-16.8583105],[145.652834,-16.858312],[145.6527167,-16.8583007],[145.6525648,-16.8582862],[145.6524327,-16.8582838],[145.6522706,-16.8583007],[145.6521513,-16.8583224],[145.6520056,-16.8583453],[145.6518831,-16.8583517],[145.6517885,-16.8583467],[145.6517246,-16.8583369],[145.6516304,-16.8583156],[145.6514725,-16.858253],[145.6513067,-16.8581939],[145.651198,-16.8581679],[145.6510805,-16.8581568],[145.6508557,-16.8581509],[145.6507342,-16.8581459],[145.6506173,-16.8581333],[145.6505281,-16.8581125],[145.650483,-16.858098],[145.6504078,-16.8580685],[145.6503297,-16.8580307],[145.6499996,-16.8578686],[145.649635,-16.85769],[145.649399,-16.8575765],[145.6492374,-16.8574769],[145.6491125,-16.8573762],[145.6490171,-16.8572627],[145.6489475,-16.8571714],[145.6488987,-16.8570712],[145.6487826,-16.8567395],[145.6487286,-16.8566144],[145.6486464,-16.8564791],[145.6485505,-16.8563563],[145.6484274,-16.8562448],[145.648309,-16.8561528],[145.6481975,-16.856048],[145.648093,-16.8559377],[145.6480534,-16.855895],[145.6471591,-16.8549267],[145.6470145,-16.8547771],[145.6467742,-16.8545834],[145.64658,-16.8544555],[145.6464466,-16.8543796],[145.6459211,-16.8541289],[145.6458658,-16.8541051],[145.6455594,-16.8539732],[145.6454124,-16.8539234],[145.6449294,-16.8537672],[145.6447947,-16.8537205],[145.6446507,-16.8536396],[145.6445317,-16.8535554],[145.6444239,-16.8534605],[145.6439643,-16.8530153],[145.6438245,-16.8529012],[145.6437029,-16.8527774],[145.6435976,-16.8526154],[145.6435125,-16.8524417],[145.643465,-16.852219],[145.6434446,-16.8520345],[145.6434112,-16.8518738],[145.6434027,-16.851684],[145.6434354,-16.8514737],[145.6434711,-16.8513532],[145.6435493,-16.8511994],[145.6435994,-16.8511034],[145.6436275,-16.8510083],[145.6436622,-16.850837],[145.6436795,-16.8506805],[145.6436728,-16.850532],[145.6436541,-16.8504193],[145.64362,-16.8503014],[145.643525,-16.8501173],[145.643479,-16.8500445],[145.6433772,-16.8499168],[145.6432992,-16.8497849],[145.6432553,-16.8496575],[145.6432349,-16.8495115],[145.6432215,-16.8493781],[145.6432273,-16.8492312],[145.6432587,-16.8491113],[145.6433076,-16.8490133],[145.643472,-16.8487514],[145.6435932,-16.8484453],[145.6436795,-16.847997],[145.6437556,-16.847741],[145.6438164,-16.8476079],[145.6438816,-16.8474757],[145.6440002,-16.8472082],[145.6441618,-16.8468786],[145.6443036,-16.8465917],[145.6444079,-16.8464012],[145.6444982,-16.8462065],[145.6445546,-16.8459781],[145.6446001,-16.8457751],[145.6446457,-16.8455964],[145.6447093,-16.8454547],[145.6448369,-16.845307],[145.6449767,-16.8451669],[145.6450794,-16.8450245],[145.645146,-16.8448795],[145.6451891,-16.8447359],[145.6451979,-16.8445839],[145.6451745,-16.8444082],[145.6451089,-16.8442173],[145.6450258,-16.8439789],[145.6449488,-16.843753],[145.6449201,-16.8435931],[145.6449217,-16.8434727],[145.6449375,-16.8433624],[145.6449587,-16.8432686],[145.6449886,-16.8431799],[145.645054,-16.8430413],[145.6451247,-16.8429111],[145.6451748,-16.8427596],[145.6452023,-16.8426183],[145.6452035,-16.8424888],[145.6451813,-16.8423336],[145.6451205,-16.8421128],[145.6450449,-16.8418426],[145.6450041,-16.8416916],[145.6449755,-16.8415355],[145.6449623,-16.8414035],[145.6449685,-16.8412799],[145.6450021,-16.841128],[145.6450427,-16.8409828],[145.6451303,-16.8407046],[145.6451609,-16.8405716],[145.6451793,-16.8404444],[145.6451719,-16.8403062],[145.6451483,-16.8401738],[145.6450994,-16.8399924],[145.6450304,-16.8398207],[145.6449165,-16.8395237],[145.6448545,-16.8393584],[145.6448058,-16.8391883],[145.6447766,-16.8390369],[145.6447491,-16.8388044],[145.6447218,-16.8386483],[145.6446678,-16.8384482],[145.6445821,-16.8382378],[145.6445053,-16.8380952],[145.6443653,-16.837814],[145.6442808,-16.8376122],[145.6442247,-16.8374602],[145.6441707,-16.8373247],[145.6441416,-16.8372563],[145.6441135,-16.8371939],[145.644087,-16.8371406],[145.6440605,-16.8370918],[145.6440279,-16.8370406],[145.6439936,-16.8369966],[145.6439543,-16.8369529],[145.6439121,-16.8369101],[145.6438642,-16.8368661],[145.6438243,-16.8368345],[145.6437759,-16.8368015],[145.6437484,-16.8367842],[145.6437081,-16.8367602],[145.6436574,-16.8367331],[145.6436068,-16.8367094],[145.6435274,-16.8366814],[145.6434488,-16.8366591],[145.6433667,-16.8366396],[145.6432881,-16.8366156],[145.6432232,-16.8365916],[145.643189,-16.8365765],[145.6431693,-16.8365678],[145.6431163,-16.8365405],[145.6430686,-16.8365126],[145.6430209,-16.8364783],[145.6429785,-16.8364435],[145.6429349,-16.8364067],[145.6428896,-16.8363603],[145.6428506,-16.8363155],[145.6428162,-16.8362724],[145.6427851,-16.8362261],[145.6427625,-16.8361825],[145.6427391,-16.8361342],[145.6427107,-16.8360699],[145.6426848,-16.8360089],[145.6426616,-16.8359473],[145.6426408,-16.835885],[145.6426002,-16.8357569],[145.6425756,-16.8356813],[145.6425495,-16.8355955],[145.6425172,-16.8354738],[145.6424909,-16.8353512],[145.6424667,-16.8352281],[145.6424383,-16.8350515],[145.6424338,-16.834906],[145.6424391,-16.8347949],[145.6424574,-16.8346896],[145.6424913,-16.8344876],[145.6424983,-16.8343758],[145.6424922,-16.8342616],[145.6424728,-16.8341618],[145.6424367,-16.834057],[145.6424049,-16.8339746],[145.6422797,-16.8336505],[145.6421601,-16.8333555],[145.6421134,-16.833261],[145.6420565,-16.8331789],[145.6419892,-16.8331014],[145.6418955,-16.8330142],[145.6417906,-16.8329406],[145.6416636,-16.8328845],[145.6415039,-16.8328311],[145.6414262,-16.8328038],[145.6413432,-16.8327824],[145.6412345,-16.8327601],[145.6407655,-16.832628],[145.6404451,-16.8325234],[145.6400588,-16.8323861],[145.6397663,-16.8322852],[145.6395943,-16.8322179],[145.6394307,-16.8321498],[145.6392749,-16.832074],[145.6390224,-16.8319255],[145.6388059,-16.8317675],[145.6387068,-16.8316787],[145.6386164,-16.8315898],[145.6384636,-16.8314149],[145.6382873,-16.8311399],[145.6381601,-16.8308867],[145.638067,-16.8305822],[145.638043,-16.8303408],[145.6380472,-16.8300349],[145.6380845,-16.8296897],[145.6381138,-16.8293242],[145.6381072,-16.8288453],[145.6380968,-16.82861],[145.638107,-16.8284211],[145.6381367,-16.8281939],[145.6381874,-16.8279617],[145.6382849,-16.8276025],[145.6384688,-16.8271499],[145.6387117,-16.8265667],[145.6389659,-16.8260664],[145.6392393,-16.825653],[145.6393463,-16.82551],[145.6395481,-16.8252982],[145.639975,-16.8250135],[145.6403179,-16.8247741],[145.6404465,-16.8246744],[145.640617,-16.8244986],[145.6407402,-16.8243513],[145.6408368,-16.8242319],[145.640907,-16.8241159],[145.6409632,-16.8239966],[145.6410448,-16.8237687],[145.6410899,-16.8235657],[145.6411105,-16.8234148],[145.6411198,-16.8232499],[145.6411098,-16.823075],[145.6410835,-16.8229117],[145.6410467,-16.8227584],[145.6409737,-16.8225392],[145.6408946,-16.8223159],[145.6406712,-16.8216992],[145.6405548,-16.8213855],[145.6404731,-16.821153],[145.6404424,-16.8210639],[145.6401094,-16.8201383],[145.640055,-16.8199479],[145.6400258,-16.8198097],[145.6399262,-16.8195398],[145.6398087,-16.8193341],[145.6397482,-16.8192371],[145.6396721,-16.8191335],[145.6393183,-16.8187245],[145.6390891,-16.818485]]}}]}
