{"type":"FeatureCollection","metadata":{"route":"Kurobe Gorge Railway: Unazuki to Keyakidaira","source":"OpenStreetMap contributors","sourceUrl":"https://www.openstreetmap.org/way/24851596","license":"ODbL 1.0","geometryVersion":"2026-08-12","osmRelationIds":[],"osmWayIds":[24851596,24851604,197835523,197835530,126302771,197835547,126302772,126302026,126302027,197835533,197835534,1474943666,1474943668,1474943667,24851597,197835525,197835546,197835536,197835544,197835548,197835541,197835524,24851605,197835542,197835535,197835539,197835540,197835532,197835538,197835543,24851594,24851607,197835529,197835528,197835527,24851599,24851606,197835531,197846051,197832107,197846050,24851603,24851598,197832110,197832106,197832104,197832105,197832109,197830691,197830692,197830693,197830686,197830715,197830720,197830722,197830717,24851608,24851609,197830703,197830706,197830712,197830718,197830690,197830698,197814736,197814741,197814742,197814737,197814738,197814735,197830694,197830689,24851601,197830721,197830719,197829343,197829319,197829313,197829331,197829296,197829327,197816424,197816420,197816421,197816419,197816423,197829336,197829300,24851592,24851600,197828165,197828169,197821479,197821503,197821473,197821495,197821498,24851593,452987343],"approximateLengthKm":19.91},"features":[{"type":"Feature","properties":{"name":"Kurobe Gorge Railway","source":"OpenStreetMap contributors"},"geometry":{"type":"LineString","coordinates":[[137.5834548,36.8160523],[137.5851867,36.8154157],[137.5861724,36.815087],[137.5863057,36.8150385],[137.58647,36.8149802],[137.5866009,36.8149214],[137.5867086,36.8148384],[137.5868479,36.8147436],[137.586995,36.8146544],[137.5871364,36.8145692],[137.5873213,36.8144808],[137.5874796,36.8144103],[137.5876173,36.814359],[137.587834,36.8142816],[137.5879605,36.8142398],[137.5881005,36.8142008],[137.5882656,36.8141718],[137.5882905,36.8141684],[137.5883885,36.8141642],[137.5884863,36.8141653],[137.5885687,36.8141728],[137.5900336,36.8144321],[137.5902514,36.8144669],[137.5904926,36.8145033],[137.5906978,36.8145272],[137.590863,36.8145415],[137.591052,36.8145375],[137.5912322,36.8144939],[137.5913964,36.8144396],[137.5915925,36.8143597],[137.5917474,36.8142252],[137.5918531,36.814109],[137.5919547,36.8139921],[137.5920355,36.8138667],[137.5920867,36.8137363],[137.5921207,36.8136359],[137.5921514,36.8135153],[137.5922849,36.8128133],[137.5923004,36.8126605],[137.5923089,36.8124941],[137.5923098,36.8122945],[137.5922995,36.8120887],[137.592254,36.8116394],[137.5922206,36.8112893],[137.5922033,36.8110942],[137.5922079,36.8109717],[137.5922149,36.8108793],[137.5922346,36.8108026],[137.5922799,36.8107099],[137.5923367,36.8106289],[137.5924114,36.810548],[137.5924929,36.8104705],[137.5926459,36.8103338],[137.5940889,36.809052],[137.5942271,36.8089151],[137.5943931,36.8087589],[137.5945986,36.8085812],[137.5948027,36.8083836],[137.5950021,36.8081389],[137.5952035,36.8078594],[137.595577,36.807104],[137.59562,36.806939],[137.595629,36.806791],[137.595542,36.806583],[137.595334,36.806349],[137.595186,36.80621],[137.595021,36.806106],[137.594691,36.805949],[137.5944831,36.8058702],[137.5943716,36.805828],[137.5940987,36.8057149],[137.5939994,36.8056638],[137.5939256,36.805615],[137.5938589,36.8055638],[137.593795,36.8054997],[137.5937357,36.8054408],[137.593674,36.8053651],[137.593588,36.8052472],[137.5935007,36.8051126],[137.5934213,36.8049631],[137.593328,36.8048136],[137.5932128,36.8046552],[137.5930398,36.8044362],[137.592858,36.804157],[137.5928114,36.8040743],[137.592746,36.803921],[137.5926644,36.8037828],[137.5925764,36.8036892],[137.5924567,36.8036015],[137.592327,36.8035171],[137.5921189,36.8033943],[137.5919681,36.8033201],[137.591797,36.8032418],[137.5916713,36.8031863],[137.5915282,36.8031189],[137.5914534,36.8030638],[137.591355,36.802995],[137.5912846,36.8029355],[137.5912199,36.8028624],[137.591162,36.8027699],[137.591113,36.8026737],[137.591059,36.802541],[137.5910064,36.8024111],[137.5909741,36.8023136],[137.590938,36.8021751],[137.5909017,36.8019987],[137.5909002,36.8019069],[137.5909117,36.8018312],[137.5909333,36.8017414],[137.5909639,36.8016775],[137.5910142,36.8015911],[137.5910709,36.8014783],[137.5911167,36.8013934],[137.5911612,36.8013052],[137.5912111,36.8012327],[137.5912847,36.8011468],[137.5913528,36.801085],[137.5914327,36.8010338],[137.5915643,36.8009684],[137.591738,36.800914],[137.5918926,36.8008628],[137.5920231,36.8008272],[137.5921318,36.8008127],[137.5922359,36.800815],[137.5923403,36.8008159],[137.5924217,36.8008039],[137.5925066,36.8007708],[137.5925627,36.8007267],[137.5925965,36.8006639],[137.5926001,36.8006056],[137.5925837,36.800552],[137.5925514,36.8004878],[137.5925111,36.8004015],[137.5924832,36.8003251],[137.5924679,36.8001804],[137.592472,36.7999],[137.5924654,36.799836],[137.5924572,36.7997455],[137.592437,36.7996425],[137.5924169,36.7995665],[137.5923384,36.799385],[137.5922634,36.7992371],[137.5921415,36.7990313],[137.5920222,36.7988159],[137.5918276,36.7984748],[137.5917958,36.7984086],[137.5917659,36.7983235],[137.5917443,36.798215],[137.5917454,36.7981321],[137.5917594,36.7980714],[137.5917873,36.7980172],[137.5918256,36.7979595],[137.5918803,36.7979054],[137.5919405,36.7978503],[137.5919776,36.7978009],[137.5920137,36.7977383],[137.5920252,36.7976723],[137.5920171,36.7975441],[137.5920058,36.7970916],[137.5920073,36.7969867],[137.5920313,36.7969031],[137.5920835,36.7968165],[137.5921454,36.7967435],[137.5922512,36.7966692],[137.5923554,36.7966247],[137.5924561,36.7966087],[137.5925528,36.7965963],[137.5926734,36.7965975],[137.5928524,36.7966062],[137.5929809,36.7965895],[137.5930563,36.796577],[137.5931833,36.7965317],[137.5936501,36.7963538],[137.5937386,36.7963123],[137.593816,36.7962635],[137.59388,36.7961976],[137.5939589,36.7960986],[137.5940397,36.7960027],[137.594136,36.7959129],[137.5942103,36.7958633],[137.5942952,36.7958175],[137.5944179,36.7957713],[137.594532,36.7957254],[137.5946266,36.795679],[137.5947691,36.7955769],[137.5948677,36.7955138],[137.5949847,36.7954535],[137.5950677,36.7954024],[137.5951357,36.7953442],[137.5951878,36.7952693],[137.5952558,36.7951189],[137.5953144,36.7949621],[137.5953407,36.7949026],[137.5953744,36.7948489],[137.5954144,36.79481],[137.595468,36.7947669],[137.5955234,36.7947375],[137.59558,36.7947163],[137.5956448,36.7947014],[137.5957252,36.7946964],[137.5960504,36.7946952],[137.5961552,36.7946896],[137.596472,36.7946686],[137.596675,36.7946514],[137.5969015,36.7946176],[137.5971252,36.7945947],[137.5972892,36.7945959],[137.5974641,36.7945945],[137.5976163,36.7946032],[137.597929,36.794631],[137.598528,36.794606],[137.598927,36.79458],[137.599343,36.79451],[137.599647,36.794389],[137.600012,36.794206],[137.600671,36.79379],[137.60077,36.7937077],[137.6008365,36.7936167],[137.6008977,36.793529],[137.6009667,36.7934721],[137.6011007,36.7934034],[137.6012638,36.7933393],[137.6014077,36.7933027],[137.6015065,36.7932887],[137.6015997,36.7932906],[137.6016945,36.793292],[137.6017606,36.7932915],[137.6018245,36.793281],[137.6018719,36.7932587],[137.602278,36.7930964],[137.6023971,36.7930442],[137.6026449,36.792964],[137.6028957,36.7928752],[137.6031702,36.7927666],[137.6034812,36.7926667],[137.6037867,36.7925817],[137.6040067,36.7925249],[137.6042454,36.7924826],[137.6044403,36.7924712],[137.604577,36.792489],[137.604855,36.792515],[137.605063,36.792523],[137.605228,36.792471],[137.605393,36.79235],[137.605671,36.792228],[137.6062,36.791864],[137.6065625,36.7916955],[137.6068031,36.7916122],[137.6068989,36.7915831],[137.606993,36.7915669],[137.6070742,36.7915632],[137.6071442,36.7915787],[137.6075967,36.7917638],[137.6076802,36.7917987],[137.6077831,36.7918407],[137.6078823,36.7918751],[137.6081331,36.7918955],[137.6085233,36.7920021],[137.6088513,36.7921561],[137.6090281,36.7922535],[137.6091685,36.792359],[137.6092444,36.7924421],[137.6093028,36.7925186],[137.6093884,36.79259],[137.6094961,36.7926631],[137.6096153,36.7927038],[137.6097714,36.7927177],[137.6098985,36.7926959],[137.6100642,36.7926399],[137.6113461,36.7922609],[137.6116695,36.7921822],[137.612023,36.7920933],[137.6123056,36.7920516],[137.6124392,36.7920254],[137.6126338,36.7919447],[137.6126789,36.7919117],[137.6128534,36.7918733],[137.6129156,36.7918693],[137.6129842,36.791879],[137.6130406,36.7918863],[137.6131192,36.7918911],[137.6132249,36.7919028],[137.6134989,36.7919565],[137.6136478,36.7919782],[137.6141594,36.7921038],[137.6142938,36.7921266],[137.6143822,36.7921382],[137.6144774,36.7921368],[137.6145271,36.792134],[137.6145732,36.7921279],[137.6146295,36.7921116],[137.614663,36.7920897],[137.6146866,36.7920566],[137.6146882,36.7920169],[137.6146548,36.7919339],[137.6146225,36.791899],[137.6145971,36.791868],[137.6145812,36.7918342],[137.6145534,36.7917723],[137.6145366,36.7917034],[137.6145247,36.791393],[137.6145297,36.7913377],[137.6145444,36.7912813],[137.6145731,36.7912257],[137.614638,36.791159],[137.6147051,36.7911009],[137.6147601,36.7910558],[137.6148342,36.7910113],[137.6149666,36.7909499],[137.6150496,36.7909035],[137.6151323,36.7908521],[137.6152286,36.7907891],[137.6152906,36.7907285],[137.6153646,36.7906458],[137.6154438,36.7905366],[137.6154851,36.7904511],[137.61551,36.7903802],[137.615538,36.7903261],[137.6155855,36.7902768],[137.6156646,36.7902212],[137.6157546,36.7901811],[137.6158423,36.7901579],[137.6159645,36.7901375],[137.6161237,36.7901212],[137.6162452,36.7900988],[137.6163692,36.7900558],[137.6165223,36.7899923],[137.6166397,36.7899547],[137.6167355,36.7899307],[137.6168416,36.7899081],[137.6169477,36.7898903],[137.6170501,36.7898924],[137.6172238,36.7899098],[137.6174134,36.7899263],[137.6174889,36.7899354],[137.6175583,36.789929],[137.6176461,36.7899054],[137.6177755,36.7898673],[137.6179394,36.7898199],[137.6180526,36.7897982],[137.618211,36.7897893],[137.6183839,36.7897893],[137.6186352,36.7898106],[137.6194618,36.7898851],[137.6197016,36.7898979],[137.6199791,36.789877],[137.6202867,36.7897484],[137.6204973,36.789743],[137.6207169,36.7897746],[137.6209036,36.7897468],[137.6211363,36.7896665],[137.6212943,36.7895809],[137.6215451,36.7894598],[137.6216897,36.7893756],[137.6217937,36.7893241],[137.6218418,36.7892922],[137.6219139,36.7891846],[137.6219847,36.7890134],[137.622028,36.7888971],[137.6220669,36.7888287],[137.6221023,36.7887617],[137.6221554,36.788695],[137.6222288,36.788632],[137.6223514,36.7885587],[137.6225029,36.7884675],[137.6226041,36.7883862],[137.6227787,36.7882593],[137.6229642,36.7880852],[137.6231239,36.787983],[137.6232766,36.7878993],[137.6235002,36.7878348],[137.6236321,36.7877184],[137.6238273,36.787502],[137.6240247,36.7872961],[137.6241778,36.7871458],[137.6242447,36.7870335],[137.6243188,36.7869208],[137.6244112,36.7868178],[137.624523,36.7867051],[137.6246025,36.7866639],[137.6246738,36.7866081],[137.6247577,36.7865742],[137.6248237,36.7865321],[137.6248912,36.7864616],[137.6249754,36.7864057],[137.6250536,36.7863774],[137.6251308,36.7863602],[137.625209,36.7863598],[137.6253326,36.786364],[137.625395,36.7863714],[137.6254869,36.7863703],[137.6255448,36.7863584],[137.6255959,36.7863383],[137.6256415,36.7863122],[137.6256754,36.7862737],[137.6257041,36.7862391],[137.6260159,36.7858065],[137.6260947,36.7856596],[137.6261369,36.785536],[137.6261602,36.7853807],[137.626136,36.785236],[137.6260892,36.7850989],[137.6260054,36.7849656],[137.6258857,36.7848618],[137.6257294,36.7847665],[137.6255534,36.7846919],[137.6253844,36.7846337],[137.6251943,36.7845799],[137.6249488,36.7845086],[137.6247503,36.7844308],[137.6245944,36.7843464],[137.6244322,36.784255],[137.6239991,36.7839824],[137.6238676,36.7838247],[137.6237916,36.7836945],[137.623791,36.7835722],[137.6237919,36.7834822],[137.6238166,36.7834173],[137.6238725,36.783323],[137.6240614,36.7830171],[137.6242057,36.7827344],[137.6242603,36.7826543],[137.624324,36.7825752],[137.6244184,36.7824837],[137.6244958,36.7824161],[137.6245481,36.7823561],[137.6246074,36.7822885],[137.6246714,36.7821983],[137.624745,36.7820832],[137.6248853,36.7818485],[137.6249889,36.7816791],[137.6250544,36.7815592],[137.6251531,36.7814215],[137.6253432,36.7811617],[137.6255428,36.780943],[137.6256147,36.7808491],[137.6256671,36.7807549],[137.6257122,36.7806601],[137.6257462,36.7805177],[137.625807,36.7803741],[137.625925,36.780199],[137.6261918,36.7798837],[137.6264399,36.7796255],[137.6268897,36.7792546],[137.6270603,36.7790554],[137.6271575,36.7789516],[137.6272353,36.7788248],[137.6273084,36.7785891],[137.6274221,36.7783762],[137.6274888,36.7782783],[137.6275572,36.7781813],[137.6276663,36.7780896],[137.6277697,36.7780147],[137.6278365,36.7779327],[137.6279045,36.7778592],[137.6279379,36.7776446],[137.6280313,36.7774173],[137.628331,36.7772225],[137.6285307,36.7771212],[137.6287274,36.7770812],[137.6288743,36.7770525],[137.6289972,36.7770332],[137.6291178,36.7769881],[137.6292008,36.7769375],[137.6293243,36.7768524],[137.629405,36.77677],[137.6295054,36.7766726],[137.6295641,36.7765856],[137.6296049,36.776481],[137.6296277,36.7763251],[137.6296162,36.7762363],[137.6295902,36.7760611],[137.6297059,36.7758272],[137.6301032,36.7755219],[137.6302541,36.7752391],[137.6303437,36.7750246],[137.6304506,36.7748522],[137.6305064,36.7747601],[137.6305805,36.7746536],[137.6306286,36.7746011],[137.6306894,36.7745403],[137.6307875,36.7744457],[137.6308522,36.7743758],[137.6308831,36.7743213],[137.6309005,36.7742612],[137.6308996,36.7741722],[137.6308858,36.7740859],[137.6308646,36.7740038],[137.6308399,36.7739094],[137.6308205,36.7738252],[137.6308194,36.7737298],[137.6308399,36.7736233],[137.6308748,36.7734414],[137.6309162,36.7733244],[137.6309508,36.7732278],[137.6309724,36.7731351],[137.6309917,36.7729872],[137.6310165,36.7727135],[137.6311643,36.7719454],[137.631194,36.7717141],[137.6312135,36.7715798],[137.6312308,36.7715194],[137.6312718,36.7713819],[137.6313065,36.7713075],[137.6313346,36.771263],[137.6313738,36.771229],[137.6314132,36.7712037],[137.631449,36.7711906],[137.6315019,36.7711835],[137.6315487,36.771178],[137.6315971,36.7711665],[137.6316345,36.7711545],[137.6316678,36.7711354],[137.6316922,36.7711178],[137.6317152,36.7710917],[137.6317514,36.7710403],[137.631762,36.7709789],[137.6317665,36.7709213],[137.6317586,36.7708419],[137.6317649,36.7707759],[137.6317822,36.7707131],[137.632031,36.770134],[137.632278,36.769392],[137.6327215,36.7684848],[137.6327697,36.7683883],[137.6328266,36.7682852],[137.6329649,36.7680919],[137.6331317,36.7678764],[137.6332169,36.7677759],[137.63336,36.7676376],[137.6335428,36.7674773],[137.6337967,36.7672199],[137.6339656,36.7670314],[137.6340917,36.7669023],[137.6341646,36.766849],[137.6342405,36.7668119],[137.6343016,36.766792],[137.6343843,36.7667693],[137.6345463,36.7667469],[137.634877,36.7667332],[137.6353089,36.7667162],[137.6356198,36.7666949],[137.6359178,36.7666643],[137.6361161,36.7666189],[137.6362537,36.7665721],[137.6363767,36.7665107],[137.6364702,36.7664435],[137.6365347,36.7663688],[137.6365797,36.7662779],[137.636597,36.7661948],[137.6365797,36.7661065],[137.6365379,36.7660115],[137.6364625,36.7659209],[137.6363417,36.765811],[137.6362341,36.7657272],[137.636161,36.7656736],[137.6361076,36.765633],[137.6360565,36.7655808],[137.6360207,36.7655246],[137.6359918,36.765452],[137.6358256,36.764961],[137.63582,36.7648807],[137.6358301,36.7648202],[137.6358532,36.7647561],[137.6358972,36.7646606],[137.6359801,36.7645223],[137.6360123,36.7644419],[137.6360281,36.7643823],[137.6360321,36.7643271],[137.6360199,36.7642616],[137.6359908,36.7641938],[137.6359168,36.7640931],[137.6358674,36.7640421],[137.6357671,36.7639559],[137.6357222,36.7639103],[137.6356829,36.7638563],[137.6356491,36.7637957],[137.6356282,36.7637306],[137.635617,36.7636639],[137.635611,36.763561],[137.6355989,36.7634947],[137.6355799,36.7634385],[137.6355533,36.7633849],[137.6355169,36.7633334],[137.635449,36.7632477],[137.635187,36.7629682],[137.6351267,36.7629049],[137.6350412,36.7628241],[137.6348232,36.7626439],[137.6347937,36.7626186],[137.6347629,36.762584],[137.6347329,36.7625343],[137.6347154,36.7624748],[137.6347095,36.7624029],[137.6347762,36.7618978],[137.6347889,36.7618153],[137.6348088,36.7617531],[137.6348289,36.7617027],[137.6348739,36.7616395],[137.6349236,36.7615726],[137.6349806,36.7614771],[137.6350056,36.7614142],[137.63502,36.7613452],[137.6350182,36.7612809],[137.6350038,36.7611935],[137.6349832,36.7611281],[137.634937,36.7610426],[137.634892,36.7609714],[137.6348129,36.7608752],[137.6347504,36.7608152],[137.6345062,36.7606402],[137.6343517,36.7605232],[137.6343004,36.7604639],[137.6342593,36.7603923],[137.6342261,36.7603023],[137.6342151,36.7602194],[137.6342207,36.7601228],[137.634242,36.7600175],[137.6342472,36.759921],[137.6342346,36.7598378],[137.6342012,36.7597601],[137.6341558,36.7596895],[137.6341016,36.7596352],[137.6340197,36.7595838],[137.6339238,36.7595431],[137.6338218,36.7594955],[137.6337088,36.7594404],[137.6335957,36.7593754],[137.6335047,36.759304],[137.6334186,36.7592173],[137.6333714,36.7591403],[137.6333518,36.7590923],[137.633338,36.7590357],[137.6333362,36.7589571],[137.6333423,36.7588781],[137.6333643,36.7588185],[137.6334136,36.7587414],[137.6334935,36.7586427],[137.6335892,36.7585536],[137.633681,36.7584688],[137.6337836,36.7583962],[137.6339572,36.758296],[137.6340717,36.7582343],[137.6342283,36.7581675],[137.6343442,36.7581163],[137.6344137,36.7580749],[137.634455,36.758041],[137.6344884,36.7580012],[137.6345108,36.7579443],[137.634564,36.7578301],[137.6346171,36.7577176],[137.6346942,36.7575589],[137.6348426,36.7573629],[137.6349279,36.7572511],[137.6352151,36.756956],[137.6355187,36.7566892],[137.6357703,36.7564961],[137.6360218,36.7563347],[137.6362543,36.7562027],[137.636515,36.756069],[137.6366337,36.7560118],[137.6368172,36.7559182],[137.6369246,36.755859],[137.6370161,36.7558035],[137.6370904,36.7557291],[137.6371368,36.7556379],[137.6371796,36.7554216],[137.6372831,36.7550927],[137.637339,36.754915],[137.637405,36.7545998],[137.6374,36.754368],[137.6372821,36.7538222],[137.6372283,36.7536851],[137.6371613,36.7535456],[137.6370443,36.7533565],[137.6370074,36.7533063],[137.6369773,36.7532453],[137.6369701,36.7532036],[137.6369742,36.7531657],[137.6369869,36.7531282],[137.6370185,36.7530852],[137.6370642,36.7530401],[137.6373625,36.7527573],[137.6374855,36.7526438],[137.6375815,36.7525888],[137.6376818,36.7525428],[137.6378351,36.7524944],[137.63801,36.7524532],[137.6382114,36.7524083],[137.6384342,36.7523699],[137.6390507,36.7522724],[137.6393058,36.752247],[137.639527,36.7522323],[137.6397244,36.7522039],[137.6399249,36.752156],[137.6400845,36.7521066],[137.6402378,36.75205],[137.6404131,36.7519661],[137.6406435,36.7518349],[137.6409163,36.7516649],[137.6411051,36.7515046],[137.6412994,36.7513371],[137.6413835,36.7512489],[137.6414593,36.7511296],[137.6416244,36.7508233],[137.6417095,36.7506577],[137.6417589,36.7505204],[137.641864,36.7502423],[137.6418894,36.7501477],[137.6418965,36.7500693],[137.6418878,36.7499839],[137.6418414,36.749841],[137.6417168,36.7495572],[137.6414888,36.7490375],[137.641425,36.7489097],[137.6413846,36.7488364],[137.6413567,36.748775],[137.6413411,36.7487205],[137.6413366,36.7486324],[137.6413516,36.7485671],[137.6413776,36.7484944],[137.6414125,36.7484237],[137.6414817,36.7483157],[137.6415658,36.7482071],[137.6416519,36.7481261],[137.6417263,36.7480717],[137.6418205,36.748022],[137.6419511,36.747961],[137.6420887,36.7479108],[137.6422381,36.7478726],[137.6423739,36.7478503],[137.6425974,36.7478423],[137.6428362,36.7478549],[137.643033,36.7478783],[137.6432644,36.7479187],[137.6439197,36.7480697],[137.6441061,36.7481237],[137.6442803,36.7481901],[137.6444335,36.7482503],[137.6445889,36.7482925],[137.6447363,36.7483016],[137.6448801,36.7482946],[137.6450168,36.74827],[137.6451133,36.7482444],[137.6452165,36.7482022],[137.6453044,36.7481473],[137.6453975,36.7480735],[137.6454904,36.7479665],[137.6455772,36.7478597],[137.6456768,36.7477539],[137.6457786,36.7476736],[137.646224,36.7474095],[137.6470461,36.7469757],[137.6471684,36.7469086],[137.6472424,36.746868],[137.6473411,36.7468041],[137.6474253,36.7467288],[137.6475234,36.7466147],[137.6475871,36.7465344],[137.6476414,36.7464776],[137.6477094,36.7464169],[137.6477923,36.7463481],[137.6479127,36.746266],[137.6480868,36.7461737],[137.6482645,36.746105],[137.6484847,36.7460194],[137.6486478,36.7459394],[137.6487599,36.7458576],[137.6488539,36.7457696],[137.648942,36.7456657],[137.6490223,36.7455488],[137.649084,36.7453982],[137.6491145,36.7452925],[137.649133,36.7451316],[137.6491517,36.745035],[137.6491775,36.7449245],[137.6492331,36.744824],[137.649305,36.7447395],[137.6493825,36.7446759],[137.6494825,36.7446173],[137.6495514,36.7445827],[137.6496399,36.7445306],[137.6497029,36.7444866],[137.6497512,36.7444433],[137.6497931,36.744384],[137.6498155,36.7443154],[137.6498181,36.7442328],[137.6498045,36.7441528],[137.6497831,36.7440714],[137.6497603,36.7440122],[137.6496965,36.7438472],[137.6496297,36.7436941],[137.6495513,36.7435494],[137.6494025,36.7433557],[137.6493093,36.7432584],[137.6491586,36.7431277],[137.6490284,36.7430314],[137.6487989,36.7429127],[137.6486122,36.7428326],[137.6483716,36.7427426],[137.6481278,36.7426677],[137.647879,36.7426125],[137.647433,36.7425285],[137.6471666,36.7424805],[137.646977,36.742439],[137.6468086,36.7423947],[137.6466668,36.7423605],[137.646541,36.7423093],[137.6464155,36.742236],[137.6463211,36.7421473],[137.646252,36.7420516],[137.6461707,36.7419101],[137.6461022,36.741738],[137.6460554,36.7414886],[137.6460758,36.7412105],[137.6462137,36.7409117],[137.6464792,36.7406504],[137.646881,36.7403839],[137.6473026,36.7400722],[137.6475601,36.7398345],[137.647779,36.7395452],[137.6479053,36.7392959],[137.6479482,36.7391641],[137.647984,36.7389832],[137.6480101,36.7387981],[137.6480205,36.7386399],[137.6479958,36.7385109],[137.6479603,36.7383996],[137.6479363,36.7383361],[137.64774,36.7378214],[137.6477184,36.7377477],[137.6476787,36.737586],[137.6476677,36.7374514],[137.647688,36.737349],[137.647719,36.737267],[137.64781,36.737106],[137.647975,36.736946],[137.648192,36.736789],[137.648483,36.736646],[137.648847,36.73649],[137.649238,36.736316],[137.6498877,36.736061],[137.6506625,36.7358212],[137.6508653,36.7357307],[137.6510171,36.735645],[137.6511646,36.7355393],[137.6512351,36.7354719],[137.6513026,36.7354116],[137.651356,36.7353422],[137.6513784,36.7353059],[137.6513946,36.7352596],[137.6514147,36.735153],[137.6514441,36.7350531],[137.6515054,36.7349042],[137.6515464,36.7345544],[137.6515638,36.734323],[137.6515656,36.7342785],[137.6515702,36.7341582],[137.6515563,36.7339761],[137.6514492,36.7337277],[137.6514426,36.7336035],[137.651416,36.7333882],[137.6514107,36.7330338],[137.6514019,36.7328089],[137.6513556,36.7326527],[137.6511445,36.7323191],[137.6510249,36.7321368],[137.6507818,36.7315769],[137.649332,36.7294461],[137.6492641,36.7293723],[137.6490359,36.729114],[137.6488744,36.7289501],[137.6487415,36.7288616],[137.6485934,36.7287542],[137.6482776,36.7285915],[137.647868,36.7284688],[137.6476478,36.7283815],[137.6474243,36.7282388],[137.6472187,36.7281043],[137.6469277,36.7278085],[137.6467413,36.727593],[137.6465714,36.7273999],[137.6464415,36.727226],[137.6463393,36.7270464],[137.6463292,36.7269274],[137.6462996,36.7266349],[137.6462973,36.7263718],[137.6463458,36.726097],[137.6463823,36.7257464],[137.6464815,36.7251462],[137.6465407,36.7247157],[137.6466575,36.7239825],[137.6467622,36.7232124],[137.6467965,36.7228784],[137.6469118,36.7226056],[137.6471009,36.7222896],[137.6473268,36.7219718],[137.6474831,36.7217844],[137.6476424,36.7215543],[137.6479394,36.7210099],[137.6480228,36.720849],[137.6480975,36.7207158],[137.648241,36.72052],[137.6483891,36.7203168],[137.6485095,36.7201804],[137.6485931,36.7200649],[137.6486503,36.7199738],[137.6486741,36.719894],[137.6486895,36.7198324],[137.6486904,36.719753],[137.6486756,36.7196902],[137.648607,36.7194837],[137.648514,36.719278],[137.648401,36.719122],[137.648226,36.7189168],[137.6480751,36.7187473],[137.6479496,36.7185849],[137.6478821,36.7184508],[137.647808,36.7183013],[137.6477428,36.7182178],[137.6476487,36.7179566],[137.6476611,36.7178574],[137.6476293,36.7177008],[137.6476021,36.7173485],[137.6475769,36.717252],[137.6475509,36.7170656],[137.6475576,36.717022],[137.6475415,36.7169519],[137.6475375,36.7168596],[137.6474773,36.7167132],[137.6475063,36.7164631],[137.6475086,36.7164074],[137.6475062,36.7163652],[137.6474973,36.7163136],[137.64743,36.7157681],[137.6474162,36.7156329],[137.647147,36.7152834],[137.6470193,36.7150744],[137.6468868,36.7148747],[137.6468138,36.7147638],[137.646762,36.7146694],[137.646849,36.7143576],[137.6471109,36.7142071],[137.647157,36.7141738],[137.6472419,36.7141279],[137.6473447,36.7140787],[137.6474482,36.7139954],[137.6475907,36.7138066],[137.6477805,36.7136644],[137.6478774,36.7134648],[137.6479108,36.7133479],[137.6479582,36.7132721],[137.6479578,36.7131394],[137.6479755,36.7130487],[137.6480004,36.7129558],[137.6480314,36.7128704],[137.6480525,36.7127783],[137.6480432,36.7126673],[137.6480587,36.7124687],[137.6480643,36.71235],[137.6480447,36.7123016],[137.6480249,36.7122444],[137.6479898,36.7121642],[137.6479383,36.7120921],[137.6478057,36.7119288],[137.6475719,36.7115872],[137.6473645,36.7112937],[137.6470922,36.7110037],[137.6469121,36.7108187],[137.6468749,36.7107697],[137.6468408,36.7107095],[137.6468103,36.7106524],[137.6467918,36.710601],[137.6467817,36.7105335],[137.6467795,36.7104701],[137.6467937,36.7103987],[137.6468275,36.7103132],[137.6469083,36.7100823],[137.6469452,36.7099429],[137.6469724,36.7098564],[137.6470088,36.7097555],[137.6470549,36.7096861],[137.6471245,36.7096001],[137.6472501,36.7094627],[137.6473014,36.7094152],[137.6473402,36.7093565],[137.6473687,36.7093009],[137.6473789,36.7092461],[137.6473724,36.7091859],[137.6473388,36.7091345],[137.6472911,36.7090938],[137.6472356,36.7090528],[137.6471775,36.7090094],[137.6470423,36.7089021],[137.6469098,36.7087424],[137.6468076,36.7085639],[137.6467292,36.7083756],[137.6466789,36.7082566],[137.6466448,36.7081116],[137.6466083,36.7075932],[137.6466028,36.7073536],[137.6466204,36.7071683],[137.6466805,36.7069556],[137.6468104,36.7066383],[137.6469278,36.7064437],[137.6470846,36.7062957],[137.6473011,36.7062016],[137.6477927,36.7061018],[137.6482575,36.7060802],[137.6487027,36.7061241],[137.6491366,36.7061851],[137.649579,36.706272],[137.6500031,36.7063739],[137.6503741,36.7064995],[137.6507473,36.7065737],[137.6511033,36.7065939],[137.651233,36.7066009],[137.6513738,36.7065999],[137.6514899,36.7065932],[137.6515939,36.7065808],[137.6516942,36.7065588],[137.6517948,36.7065267],[137.6519079,36.7064752],[137.6520082,36.7064244],[137.6521024,36.7063715],[137.6521802,36.7063093],[137.6522357,36.7062335],[137.6522745,36.7061723],[137.6523355,36.706103],[137.6523819,36.7060298],[137.6524059,36.705971],[137.6524255,36.7058905],[137.6524511,36.705809],[137.6524966,36.705737],[137.6525712,36.7056233],[137.6526893,36.7054852],[137.6528006,36.7053324],[137.6528781,36.7052167],[137.6529341,36.7050928],[137.653,36.7049269],[137.6530391,36.7047706],[137.6530589,36.7045858],[137.6530607,36.7044517],[137.6530168,36.7035386],[137.6530105,36.7033144],[137.6530083,36.7032385],[137.6529893,36.702877],[137.6529772,36.7026695],[137.6528736,36.7015618],[137.6528497,36.7012936],[137.6528608,36.7011174],[137.652889,36.700956],[137.652963,36.700726],[137.653054,36.70047],[137.653188,36.700205],[137.653314,36.699931],[137.6534295,36.6997418],[137.653614,36.699541],[137.653692,36.699493],[137.653792,36.69945],[137.654,36.699398],[137.654161,36.699328],[137.654347,36.699207],[137.654469,36.699098],[137.654855,36.698751],[137.655128,36.698486],[137.655397,36.698226],[137.655536,36.6981],[137.655857,36.69787],[137.656204,36.69764],[137.656474,36.697493],[137.656712,36.697367],[137.6570024,36.6972226],[137.6571879,36.6971541],[137.6573142,36.6971225],[137.657433,36.697102],[137.6575699,36.6970863],[137.6576694,36.6970713],[137.6577573,36.6970466],[137.6578312,36.6970232],[137.657868,36.6970088],[137.6578986,36.6969963],[137.6579738,36.6969624],[137.6580424,36.6969222],[137.6581056,36.6968748]]}}]}
