{"type":"FeatureCollection","metadata":{"osmRelationIds":[7190306],"contributingWayIds":[735462123,735462124,658584068,581406245,581406246,581406243,593813480,593813478,593813479,581406244,593813481,496756614,593813487,593813486,496756615,581406240,581406242,593813506,593813505,593813508,593813509,496756659,593813517,593813516,496756658,593813522,593813523,593813524,593813526,593813525,593813527,593813528,593813529,593813530,593813532,593813531,457839158,593813547,593813553,593813559,593813573,593813574,593813575,658585570,658585569,496756657,593813589,593813588,628437904,658585572,658585571,658585574,658585573,593813606,593813607,593813608,593813609,858711176,858711177,593813610,593813611,593813614,593813625,658585577,658585576,658585575,658585578,593813623,593813622,593813621,593813620,593813619,593813624,593813618,496833145,658585579,658585580,1072844873,1072844872,496833142,496833141,593813627,593813626,849363138,849363139,496833140,496833139,1072844857,1072844856,1072844855,1072844854,1072844850,1072844849,1072844840,1072844839,496833134,496833133,496833130,496833129,496833128,869903384,869903385,610562312,1526868757,610562307,1526868758,1526868759,610561791,1526868754,1526868753,1526868752,1526868747,1526868746,610561789,610560910,610560909,628064318,610560440,610560439,628064324,628064319,496833121,496833112,595185355,693053403,496833111,595185354,595185353,595185352,496833110,496833109,595185351,595185350,595185347,595185348,595185349,496833108,595185345,491426126,628064317,1201095171,1201095344,1072594722,1072594724,1072594725,1072594723,628064321,627846253,869903377,869903378,444715893,491426128,491426130,444715894,593734925,1072594726,461695205,1072594727,995250724,452006146,995250725,995250726,452006147,627846263,496833106,1072679104,1072679105,1201084377,1201084052,647890712,647890711,416973694,416973692,416972236,416972240,1047641074,1047641082,1047641083,1047641084,1047641081,1201077960,1201077959,1074324680,1074324679,1047641075,1047641077,1047641079,1047641080,1047641085,1072679121,1072679120,1047641086,1047641089,1047641090,1047641094,1047641095,627846261,1047641088,1072679129,1072679130,1072679131,1072679132,1047641087,1072679167,1072679166,735627472,1072679151,1072679152,1072679153,1072679154,1072679158,1072679159,735627471,595185338,595185339,595185336,595185337,595185335,595185334,591046209,591046205,591046239,591046216,591046234,591046212,591046230,591046227,591046223,591046220,891041252,891041253,496858496,591046201,496858491,1493350919,591046198],"endpointSnapKm":[0.007,0.197],"coordinateCount":1537,"calculatedDistanceKm":462.51,"orientation":"Nairobi Terminus to Mombasa SGR Terminus","source":"OpenStreetMap","license":"ODbL"},"features":[{"type":"Feature","properties":{"osmRelationIds":[7190306],"contributingWayIds":[735462123,735462124,658584068,581406245,581406246,581406243,593813480,593813478,593813479,581406244,593813481,496756614,593813487,593813486,496756615,581406240,581406242,593813506,593813505,593813508,593813509,496756659,593813517,593813516,496756658,593813522,593813523,593813524,593813526,593813525,593813527,593813528,593813529,593813530,593813532,593813531,457839158,593813547,593813553,593813559,593813573,593813574,593813575,658585570,658585569,496756657,593813589,593813588,628437904,658585572,658585571,658585574,658585573,593813606,593813607,593813608,593813609,858711176,858711177,593813610,593813611,593813614,593813625,658585577,658585576,658585575,658585578,593813623,593813622,593813621,593813620,593813619,593813624,593813618,496833145,658585579,658585580,1072844873,1072844872,496833142,496833141,593813627,593813626,849363138,849363139,496833140,496833139,1072844857,1072844856,1072844855,1072844854,1072844850,1072844849,1072844840,1072844839,496833134,496833133,496833130,496833129,496833128,869903384,869903385,610562312,1526868757,610562307,1526868758,1526868759,610561791,1526868754,1526868753,1526868752,1526868747,1526868746,610561789,610560910,610560909,628064318,610560440,610560439,628064324,628064319,496833121,496833112,595185355,693053403,496833111,595185354,595185353,595185352,496833110,496833109,595185351,595185350,595185347,595185348,595185349,496833108,595185345,491426126,628064317,1201095171,1201095344,1072594722,1072594724,1072594725,1072594723,628064321,627846253,869903377,869903378,444715893,491426128,491426130,444715894,593734925,1072594726,461695205,1072594727,995250724,452006146,995250725,995250726,452006147,627846263,496833106,1072679104,1072679105,1201084377,1201084052,647890712,647890711,416973694,416973692,416972236,416972240,1047641074,1047641082,1047641083,1047641084,1047641081,1201077960,1201077959,1074324680,1074324679,1047641075,1047641077,1047641079,1047641080,1047641085,1072679121,1072679120,1047641086,1047641089,1047641090,1047641094,1047641095,627846261,1047641088,1072679129,1072679130,1072679131,1072679132,1047641087,1072679167,1072679166,735627472,1072679151,1072679152,1072679153,1072679154,1072679158,1072679159,735627471,595185338,595185339,595185336,595185337,595185335,595185334,591046209,591046205,591046239,591046216,591046234,591046212,591046230,591046227,591046223,591046220,891041252,891041253,496858496,591046201,496858491,1493350919,591046198],"endpointSnapKm":[0.007,0.197],"coordinateCount":1537,"calculatedDistanceKm":462.51,"orientation":"Nairobi Terminus to Mombasa SGR Terminus"},"geometry":{"type":"LineString","coordinates":[[36.8980237,-1.3553978],[36.9011744,-1.3589046],[36.901543,-1.3593883],[36.9018865,-1.359826],[36.9026509,-1.3606703],[36.9027735,-1.3608057],[36.9051477,-1.3634281],[36.9056682,-1.3640031],[36.909951,-1.3687334],[36.9103705,-1.3691765],[36.9107962,-1.3696006],[36.9126512,-1.3713737],[36.9131303,-1.3718454],[36.9135669,-1.372334],[36.913962,-1.3727975],[36.9142437,-1.3731611],[36.9145923,-1.3736176],[36.9148836,-1.374063],[36.9151339,-1.3744666],[36.9153274,-1.3748769],[36.9155908,-1.375329],[36.9206211,-1.3854312],[36.920945,-1.386143],[36.9211516,-1.3867035],[36.9212669,-1.387044],[36.9214815,-1.3879342],[36.9216477,-1.3889048],[36.9218731,-1.3905931],[36.9219315,-1.391054],[36.9220933,-1.3918977],[36.9221842,-1.3923713],[36.9223517,-1.3929507],[36.9225024,-1.39342],[36.9226444,-1.3937743],[36.922837,-1.3942105],[36.92307,-1.3946698],[36.923277,-1.3950335],[36.9236363,-1.3955524],[36.9239605,-1.395966],[36.9243191,-1.3964027],[36.9245842,-1.3966872],[36.9251541,-1.3972591],[36.9255465,-1.3976014],[36.9260655,-1.3980011],[36.9265748,-1.3983199],[36.9270207,-1.398555],[36.9274589,-1.3987516],[36.9278874,-1.3989212],[36.9282468,-1.3990391],[36.9290906,-1.3992641],[36.9320937,-1.4000606],[36.9334551,-1.4003415],[36.9340668,-1.4004959],[36.9352062,-1.4008335],[36.9360796,-1.4010726],[36.9365865,-1.4012589],[36.9369314,-1.4013921],[36.9373757,-1.4015873],[36.9381379,-1.4019662],[36.9391579,-1.4026324],[36.9402087,-1.4034643],[36.9413956,-1.4046834],[36.9421706,-1.4054796],[36.9431444,-1.4064373],[36.9437535,-1.4070953],[36.9439653,-1.4073696],[36.9442111,-1.4076798],[36.9445198,-1.4081159],[36.9448193,-1.4085972],[36.9451084,-1.4091194],[36.9453387,-1.4095889],[36.9455508,-1.4100826],[36.9457459,-1.4105803],[36.9459199,-1.4110901],[36.9460415,-1.4115445],[36.9461571,-1.4120503],[36.946263,-1.412621],[36.9463325,-1.4131947],[36.9468448,-1.417229],[36.9472389,-1.4206775],[36.9473173,-1.4211714],[36.9475795,-1.422207],[36.9480246,-1.4232376],[36.9484805,-1.4241063],[36.9490814,-1.4249805],[36.9497728,-1.4258028],[36.9504515,-1.4264303],[36.9512897,-1.4270524],[36.9536412,-1.4287236],[36.9552776,-1.4300333],[36.9557724,-1.4304966],[36.9561759,-1.4309234],[36.9568964,-1.4318292],[36.9573709,-1.4325464],[36.9578263,-1.4334112],[36.9597711,-1.4377172],[36.9604522,-1.4391259],[36.9609524,-1.4400539],[36.9615487,-1.4408407],[36.9623258,-1.4415026],[36.9629631,-1.4420095],[36.9636605,-1.4424459],[36.9643188,-1.4427416],[36.9650027,-1.4429612],[36.9658856,-1.443153],[36.9668444,-1.4432222],[36.9680795,-1.4432557],[36.970232,-1.4432879],[36.9846651,-1.4435184],[36.9870065,-1.4435515],[36.9893396,-1.4436005],[36.9899152,-1.4436296],[36.9903217,-1.4436661],[36.9907183,-1.4437225],[36.9911988,-1.4438239],[36.9916756,-1.443963],[36.9921286,-1.4441255],[36.9926967,-1.4443775],[36.9937106,-1.4449768],[36.9942619,-1.4454246],[36.9946266,-1.4457799],[36.9950168,-1.4462276],[36.9952703,-1.4465574],[36.9957587,-1.4472235],[36.9960156,-1.4477032],[36.9960922,-1.4479062],[36.9961385,-1.4480287],[36.9961945,-1.448177],[36.9963669,-1.4487506],[36.9964142,-1.4491334],[36.9964551,-1.4495418],[36.9963963,-1.4500346],[36.9963237,-1.45062],[36.9960743,-1.4516709],[36.995695,-1.4533102],[36.9951692,-1.455389],[36.9948393,-1.456869],[36.9946493,-1.4575713],[36.9942452,-1.4587529],[36.9940945,-1.4591559],[36.9935233,-1.4607554],[36.9932503,-1.4614972],[36.9929232,-1.4623849],[36.992708,-1.4629689],[36.9925884,-1.4633037],[36.9909186,-1.467976],[36.989327,-1.4722859],[36.9892205,-1.4725757],[36.9849592,-1.4841697],[36.984814,-1.4845845],[36.9816527,-1.4932112],[36.9815046,-1.4936231],[36.9794132,-1.4993497],[36.9738158,-1.5147121],[36.9733285,-1.5161079],[36.9729685,-1.517349],[36.9728364,-1.5181343],[36.9726853,-1.519111],[36.9726072,-1.5200876],[36.9726053,-1.5212822],[36.9727038,-1.5225407],[36.9728196,-1.5232904],[36.9730022,-1.5240974],[36.9734024,-1.5257401],[36.9743811,-1.5303065],[36.9750342,-1.5331154],[36.9760323,-1.5371827],[36.976794,-1.5403305],[36.9773412,-1.5426417],[36.9778454,-1.5448027],[36.9783229,-1.5468834],[36.9798161,-1.5533237],[36.9805276,-1.5555866],[36.981139,-1.5567878],[36.9818687,-1.5581499],[36.9872047,-1.5674171],[36.9881022,-1.5688533],[36.988939,-1.570033],[36.9904089,-1.5720492],[36.9934204,-1.5759446],[37.0074896,-1.5946925],[37.0094973,-1.5974969],[37.0126075,-1.6014553],[37.0175728,-1.6081233],[37.0302522,-1.6250416],[37.0322184,-1.6277575],[37.0394116,-1.6372334],[37.059582,-1.6642095],[37.06309,-1.6684886],[37.0671954,-1.6730648],[37.0688121,-1.6750216],[37.0691426,-1.6754229],[37.0755354,-1.6826924],[37.0758456,-1.6830452],[37.0782137,-1.6855735],[37.0792222,-1.6868712],[37.0802036,-1.6883103],[37.0808843,-1.6896188],[37.081462,-1.6910635],[37.0819101,-1.6926704],[37.0820446,-1.6934873],[37.0821973,-1.694329],[37.0822602,-1.6955264],[37.082182,-1.6983767],[37.0821958,-1.700089],[37.0823303,-1.7014188],[37.0825721,-1.702603],[37.0828612,-1.7037431],[37.0836909,-1.7061723],[37.0850033,-1.710094],[37.085302,-1.711067],[37.0855889,-1.712421],[37.0857334,-1.7138759],[37.0859377,-1.7187847],[37.0860537,-1.7214294],[37.0867273,-1.7389945],[37.0868555,-1.7416623],[37.0872535,-1.7522772],[37.0872751,-1.7527113],[37.0875478,-1.7591025],[37.0876788,-1.7628481],[37.0878861,-1.7671972],[37.0879123,-1.7686459],[37.0880632,-1.7700603],[37.0882769,-1.7713423],[37.0883413,-1.7716254],[37.0887051,-1.7729856],[37.0889709,-1.7739248],[37.0893003,-1.7748399],[37.089951,-1.7764964],[37.0905784,-1.7777862],[37.0910639,-1.778652],[37.0915389,-1.7793864],[37.0924978,-1.7808221],[37.092856,-1.7813338],[37.1004905,-1.7922258],[37.1016627,-1.7936797],[37.1033511,-1.7954748],[37.1063032,-1.7984279],[37.1077893,-1.8000716],[37.1087997,-1.8014661],[37.1094562,-1.8026635],[37.1100011,-1.803852],[37.1113398,-1.8074265],[37.1122884,-1.8099592],[37.1130395,-1.8115196],[37.1142089,-1.8135677],[37.1153401,-1.8155898],[37.1161294,-1.8169349],[37.1169873,-1.8187619],[37.1189994,-1.8242424],[37.1197042,-1.8257281],[37.120614,-1.827165],[37.1220351,-1.8292565],[37.1228256,-1.8304651],[37.1230523,-1.8308416],[37.1233427,-1.8313192],[37.1236082,-1.8318436],[37.1238905,-1.8325134],[37.1240795,-1.8330575],[37.124294,-1.8337385],[37.1261026,-1.8413722],[37.1261555,-1.8416737],[37.1262628,-1.8421777],[37.127105,-1.8459952],[37.1272874,-1.8472069],[37.1274161,-1.84829],[37.1275985,-1.8500486],[37.1277082,-1.8509219],[37.1278989,-1.8524398],[37.1283066,-1.8558177],[37.1284674,-1.8567666],[37.1286746,-1.857717],[37.1291898,-1.8590454],[37.1296311,-1.859919],[37.13017,-1.8607698],[37.1308376,-1.8616067],[37.1314233,-1.8622087],[37.1319217,-1.8627322],[37.1330166,-1.8637153],[37.1347171,-1.8653131],[37.1377426,-1.868085],[37.1391832,-1.8695404],[37.139959,-1.870448],[37.1407467,-1.8715325],[37.1436025,-1.8754947],[37.1441316,-1.8762131],[37.1449197,-1.8775535],[37.1454682,-1.8787691],[37.1471969,-1.8829387],[37.1485921,-1.8866869],[37.1494947,-1.8889449],[37.151556,-1.8930882],[37.1525825,-1.8949715],[37.1537109,-1.8968371],[37.1546297,-1.8980955],[37.1557402,-1.8995571],[37.1612261,-1.9054625],[37.1619206,-1.9062957],[37.1626282,-1.9072776],[37.1641087,-1.9099798],[37.1653855,-1.9125265],[37.1666461,-1.914998],[37.1669594,-1.9156243],[37.1672469,-1.916199],[37.1679604,-1.9175287],[37.1687114,-1.9188637],[37.1699237,-1.920649],[37.1715333,-1.9230902],[37.1717723,-1.9234139],[37.1726757,-1.9246379],[37.1735448,-1.9259139],[37.1740543,-1.9268468],[37.1744299,-1.9276939],[37.1745673,-1.9280203],[37.1747947,-1.9286857],[37.1750414,-1.9297366],[37.1763986,-1.9364597],[37.1765113,-1.937087],[37.1766454,-1.937591],[37.176876,-1.9382236],[37.1771443,-1.9388134],[37.1774179,-1.9392744],[37.1779006,-1.9399928],[37.1784425,-1.9405987],[37.1792418,-1.9412796],[37.179966,-1.9417675],[37.1807277,-1.9421374],[37.1816504,-1.9424591],[37.1823424,-1.9426092],[37.1830022,-1.9426842],[37.1836641,-1.9426728],[37.1843814,-1.9426337],[37.1878596,-1.9422305],[37.1981821,-1.9409871],[37.2015342,-1.9405939],[37.2078233,-1.9398798],[37.209566,-1.9396149],[37.2104242,-1.939424],[37.2112724,-1.939213],[37.2172689,-1.937597],[37.2193343,-1.93707],[37.2204096,-1.9367693],[37.2214592,-1.9365959],[37.222192,-1.9365998],[37.2232193,-1.9367063],[37.2239489,-1.9368983],[37.2256418,-1.9374638],[37.2293884,-1.9390064],[37.2303218,-1.9395157],[37.2311103,-1.9400572],[37.2320545,-1.9408131],[37.232784,-1.9415852],[37.2333848,-1.942325],[37.2337749,-1.9428378],[37.2340957,-1.9433436],[37.2346079,-1.9443945],[37.2349405,-1.9452362],[37.2352195,-1.9462227],[37.2354126,-1.9470162],[37.2355038,-1.9478365],[37.2355413,-1.949016],[37.2354716,-1.9500882],[37.235335,-1.9511164],[37.2349549,-1.9534828],[37.2348815,-1.953975],[37.2342687,-1.9581722],[37.2334841,-1.9636352],[37.233413,-1.9641344],[37.2331647,-1.9654739],[37.232859,-1.9674957],[37.2328055,-1.9683595],[37.2327947,-1.9693406],[37.2328377,-1.9700161],[37.2329771,-1.9710401],[37.2331854,-1.9719724],[37.2335082,-1.9729219],[37.2338408,-1.9737261],[37.23419,-1.974435],[37.2347401,-1.9752862],[37.2352731,-1.9759832],[37.235772,-1.9765836],[37.2369683,-1.9777041],[37.2394735,-1.9797307],[37.2399769,-1.9801173],[37.2421471,-1.9819033],[37.2436073,-1.9830945],[37.2479791,-1.986694],[37.2513946,-1.9894984],[37.2541174,-1.9917489],[37.2546574,-1.9922013],[37.2551554,-1.9925918],[37.2556161,-1.9928637],[37.2562589,-1.9933107],[37.2565115,-1.9934909],[37.2567399,-1.9936295],[37.2571402,-1.99388],[37.2576271,-1.9941753],[37.2582888,-1.9945118],[37.2614358,-1.9960561],[37.2668018,-1.9987269],[37.2698396,-2.0002617],[37.2719769,-2.001315],[37.2732266,-2.00197],[37.2736671,-2.0022509],[37.2742782,-2.0026646],[37.2748338,-2.0030941],[37.2753064,-2.0034745],[37.2757473,-2.0038629],[37.2762313,-2.0043481],[37.2774662,-2.0055626],[37.2784146,-2.0064418],[37.2795283,-2.0073535],[37.28089,-2.0081852],[37.2820332,-2.0086967],[37.2830736,-2.0090331],[37.2845353,-2.0093105],[37.2851581,-2.0093632],[37.285822,-2.0093931],[37.2871126,-2.0093623],[37.2886489,-2.0093182],[37.3026213,-2.0087326],[37.3039159,-2.0087384],[37.3055312,-2.0088772],[37.3138618,-2.0095531],[37.3265244,-2.0106664],[37.352015,-2.0129391],[37.3571778,-2.0133761],[37.3579288,-2.0134785],[37.3586843,-2.0136044],[37.3598,-2.0138705],[37.3603847,-2.0140057],[37.360803,-2.0141408],[37.3613349,-2.0143453],[37.361712,-2.0145059],[37.3630053,-2.0151143],[37.3638523,-2.0155225],[37.3650387,-2.0160923],[37.3664546,-2.0167572],[37.3669348,-2.0169914],[37.367814,-2.0174419],[37.3685339,-2.0177735],[37.3686874,-2.0178518],[37.3690903,-2.0180589],[37.3707288,-2.0188618],[37.3721714,-2.0195851],[37.3749966,-2.0209303],[37.3774643,-2.0221114],[37.3777991,-2.0222696],[37.3779618,-2.0223793],[37.3800924,-2.0232118],[37.3817204,-2.0240955],[37.3832957,-2.0251895],[37.4522429,-2.0752657],[37.4533598,-2.0760366],[37.4544645,-2.0766896],[37.454965,-2.0769341],[37.4566474,-2.077651],[37.4620251,-2.0797436],[37.4658477,-2.0812556],[37.4668113,-2.0816697],[37.4668726,-2.0816914],[37.4674664,-2.0819018],[37.468179,-2.0822263],[37.4693758,-2.0827065],[37.4732163,-2.0842066],[37.477025,-2.0857041],[37.477065,-2.0857214],[37.4803425,-2.0870113],[37.4848389,-2.088671],[37.4894437,-2.0904945],[37.4990359,-2.0942531],[37.5068843,-2.0973712],[37.5084977,-2.098063],[37.5094006,-2.0984147],[37.5102542,-2.0987665],[37.5109269,-2.0990867],[37.5115982,-2.0994464],[37.5125369,-2.1000271],[37.5135686,-2.1008352],[37.514275,-2.1014739],[37.5146998,-2.101858],[37.522845,-2.1108153],[37.5234265,-2.1114542],[37.5247725,-2.1129145],[37.5256839,-2.1138825],[37.526775,-2.1151059],[37.5277734,-2.1161142],[37.5292218,-2.1173062],[37.5303631,-2.1180912],[37.5317967,-2.1189286],[37.532642,-2.1193864],[37.534147,-2.1201374],[37.535525,-2.1208692],[37.5384136,-2.1224821],[37.5399935,-2.1235442],[37.5413999,-2.1245953],[37.5434015,-2.1260898],[37.5440462,-2.1265666],[37.5450892,-2.1273639],[37.5456694,-2.1277872],[37.5462413,-2.1281694],[37.5465256,-2.128341],[37.5473276,-2.1287966],[37.5478103,-2.1290405],[37.5486043,-2.1293756],[37.5494278,-2.1296731],[37.5501332,-2.1298768],[37.5527374,-2.1304185],[37.553304,-2.1305364],[37.5609108,-2.1320992],[37.5625592,-2.1325139],[37.5636629,-2.1328749],[37.5646635,-2.1332988],[37.5657789,-2.1338501],[37.5664337,-2.134212],[37.5671287,-2.1346483],[37.5673707,-2.1348033],[37.5681853,-2.1353663],[37.5703031,-2.1370725],[37.5733571,-2.1395888],[37.5740653,-2.1401798],[37.5852496,-2.1493179],[37.5865148,-2.1503463],[37.5905545,-2.15363],[37.5917025,-2.1544981],[37.5929308,-2.1552454],[37.5938025,-2.155665],[37.5942572,-2.1558668],[37.5956119,-2.156351],[37.5982426,-2.1571541],[37.6000588,-2.1576998],[37.6012879,-2.1580789],[37.6068424,-2.1597554],[37.6149161,-2.1621982],[37.6184144,-2.1632725],[37.619656,-2.1636355],[37.6267968,-2.1651821],[37.6272189,-2.1652771],[37.6277806,-2.1654037],[37.6368465,-2.1674458],[37.6374553,-2.1675829],[37.6377883,-2.167658],[37.6406834,-2.1683196],[37.6412894,-2.1684371],[37.6420492,-2.1686261],[37.6427803,-2.1688551],[37.6438382,-2.1692484],[37.6439808,-2.1693082],[37.6441521,-2.169391],[37.6452721,-2.1699352],[37.6459655,-2.1703397],[37.6475002,-2.1713051],[37.6488673,-2.1721711],[37.6652127,-2.1823116],[37.6673278,-2.1836499],[37.6684152,-2.1843253],[37.6695159,-2.1849537],[37.6702421,-2.1853218],[37.6711544,-2.1857325],[37.6726596,-2.1862238],[37.6737154,-2.1864607],[37.6745249,-2.1865799],[37.67528,-2.1866809],[37.6762515,-2.1866988],[37.6768449,-2.186683],[37.6785374,-2.1865759],[37.6800346,-2.1864686],[37.6808161,-2.1864445],[37.6815318,-2.1864599],[37.682196,-2.1864801],[37.6830422,-2.1865867],[37.6837814,-2.1867039],[37.6848073,-2.1869434],[37.6857559,-2.187228],[37.6867224,-2.1876168],[37.6877882,-2.1881096],[37.6900271,-2.1891843],[37.6935315,-2.1908944],[37.7003658,-2.1941669],[37.7037687,-2.1957958],[37.7073681,-2.1975379],[37.7092215,-2.1984283],[37.7149585,-2.2012078],[37.7187879,-2.202969],[37.7239605,-2.2054522],[37.7246377,-2.2057847],[37.7254471,-2.2062551],[37.7262714,-2.2067673],[37.7268384,-2.207168],[37.7292594,-2.2089692],[37.7312166,-2.2103979],[37.735148,-2.2131025],[37.7438348,-2.2194032],[37.7516175,-2.2248626],[37.7551827,-2.2274732],[37.7601082,-2.2309829],[37.762931,-2.2329803],[37.7639079,-2.2335926],[37.7663335,-2.2349754],[37.777001,-2.2409827],[37.7795349,-2.2423128],[37.7868184,-2.2465357],[37.7870132,-2.246654],[37.7880637,-2.2473332],[37.78901,-2.2480095],[37.7898537,-2.2487242],[37.7919211,-2.2505982],[37.7974164,-2.2555808],[37.7977124,-2.2558495],[37.7985931,-2.2566494],[37.8025331,-2.2602383],[37.8047513,-2.2622712],[37.8051577,-2.2626584],[37.808511,-2.2657102],[37.8097452,-2.2668651],[37.8132273,-2.2699866],[37.8218067,-2.277805],[37.8233015,-2.2792047],[37.8240906,-2.2798944],[37.8241951,-2.2799981],[37.8242848,-2.2800874],[37.8244647,-2.2802663],[37.8253026,-2.2810847],[37.8276435,-2.2835388],[37.8285466,-2.2843203],[37.8313382,-2.2864986],[37.8322173,-2.2872663],[37.8335531,-2.2884789],[37.8385397,-2.2930027],[37.8386183,-2.2930728],[37.8387707,-2.2932088],[37.8440819,-2.2980637],[37.8527139,-2.3059004],[37.8749609,-2.3261627],[37.8805726,-2.331281],[37.8819238,-2.3324987],[37.8827136,-2.3332207],[37.8835402,-2.3340092],[37.8842409,-2.3347355],[37.8848398,-2.3354926],[37.8853594,-2.3362353],[37.8858552,-2.3370574],[37.8869646,-2.339276],[37.8876496,-2.340646],[37.8897422,-2.3450651],[37.8919423,-2.3495303],[37.8968283,-2.3598798],[37.8974743,-2.3612698],[37.9005335,-2.3675915],[37.9049169,-2.376708],[37.9054621,-2.3778594],[37.9068285,-2.3807451],[37.9077073,-2.3825786],[37.9077673,-2.3827131],[37.9092264,-2.3865186],[37.9101276,-2.3890698],[37.9109638,-2.3909176],[37.911714,-2.3922134],[37.9127632,-2.3935594],[37.913436,-2.394315],[37.913928,-2.3947948],[37.9143887,-2.3952263],[37.9208488,-2.4004104],[37.9216673,-2.4010785],[37.9225853,-2.4016883],[37.9244359,-2.4027909],[37.9255427,-2.4032832],[37.9265786,-2.4036694],[37.927175,-2.4038691],[37.9283318,-2.404211],[37.9315528,-2.4050342],[37.9321001,-2.4051651],[37.9323706,-2.4052357],[37.9371404,-2.4064918],[37.9412208,-2.4075575],[37.9418476,-2.4077299],[37.9515117,-2.4102675],[37.9524087,-2.4104993],[37.9541802,-2.4110553],[37.9557359,-2.4118378],[37.9576349,-2.4130491],[37.9750156,-2.427295],[37.9761315,-2.4282215],[37.9774622,-2.4295264],[37.9785995,-2.430965],[37.9792259,-2.4319641],[37.9796875,-2.43284],[37.9867315,-2.4475327],[37.991603,-2.4578419],[37.9923238,-2.4592581],[37.9928287,-2.4600565],[37.993447,-2.460935],[37.9946671,-2.4623388],[37.9956798,-2.4632454],[37.9967459,-2.4640422],[37.9983783,-2.4650966],[37.9997107,-2.4659533],[38.0028677,-2.4679631],[38.0042571,-2.4687992],[38.0056074,-2.4697433],[38.0063546,-2.4703052],[38.0073523,-2.4712752],[38.0079988,-2.4719398],[38.0085568,-2.4726798],[38.0089668,-2.4732316],[38.0094015,-2.4739335],[38.0098258,-2.4747438],[38.0100711,-2.4752359],[38.0104918,-2.4763194],[38.0124163,-2.4812759],[38.0157224,-2.4898641],[38.0160369,-2.4905642],[38.0162278,-2.4909817],[38.0164853,-2.4913971],[38.0175662,-2.492895],[38.019095,-2.4946207],[38.020709,-2.4963565],[38.0218578,-2.4975482],[38.0229843,-2.4986599],[38.0237617,-2.4993242],[38.0246033,-2.4998746],[38.0253921,-2.5002994],[38.0264886,-2.5008038],[38.0302235,-2.5024882],[38.0324203,-2.5034582],[38.0335575,-2.5040183],[38.0345818,-2.5045017],[38.035697,-2.5050395],[38.0364114,-2.5053795],[38.0368934,-2.5056447],[38.0372563,-2.5058592],[38.0376694,-2.5061015],[38.0382997,-2.5065827],[38.0389058,-2.5070757],[38.0398223,-2.5079658],[38.040861,-2.509147],[38.0409789,-2.5093149],[38.0417956,-2.5104773],[38.0427491,-2.5122262],[38.0431194,-2.5129294],[38.0433779,-2.5134011],[38.0438894,-2.5143536],[38.0441629,-2.5147631],[38.0446887,-2.5155139],[38.0452466,-2.5162186],[38.0457848,-2.5168361],[38.0461381,-2.5172414],[38.0470021,-2.5180251],[38.0479202,-2.5188166],[38.0491282,-2.5198012],[38.0496346,-2.5202139],[38.0568697,-2.5261568],[38.0573199,-2.5265266],[38.0597924,-2.5285546],[38.0607012,-2.5293479],[38.0613664,-2.5300062],[38.0619418,-2.5306905],[38.0624963,-2.5314946],[38.0631669,-2.5326921],[38.0635607,-2.5335825],[38.063886,-2.5344909],[38.064121,-2.5355553],[38.0642266,-2.5365796],[38.0643121,-2.5425793],[38.0644441,-2.5439386],[38.0647172,-2.5454108],[38.0650292,-2.5464286],[38.0653458,-2.547189],[38.0657988,-2.548141],[38.0664414,-2.5491362],[38.0673313,-2.5501914],[38.0682707,-2.5511819],[38.0728197,-2.5554477],[38.0745792,-2.5572698],[38.0755842,-2.5584212],[38.0763173,-2.5594349],[38.0806981,-2.5659176],[38.0857866,-2.5734521],[38.0871105,-2.5753726],[38.0878293,-2.5763587],[38.0882119,-2.5768151],[38.0887842,-2.5773662],[38.0895452,-2.5779945],[38.0904557,-2.578605],[38.0914604,-2.5791641],[38.092954,-2.5798734],[38.1005652,-2.5829431],[38.1016343,-2.5834361],[38.1024786,-2.5838617],[38.1031823,-2.5843007],[38.1039333,-2.5848366],[38.104518,-2.5853009],[38.1051564,-2.5858869],[38.1062507,-2.5870874],[38.1068195,-2.5878151],[38.1074075,-2.5886991],[38.1124931,-2.5972211],[38.1137427,-2.5993151],[38.1151196,-2.6016224],[38.1164217,-2.6039787],[38.1169387,-2.6047317],[38.1175405,-2.6056081],[38.1198385,-2.6085924],[38.1237213,-2.6134176],[38.1270656,-2.6177271],[38.1281329,-2.6189448],[38.1295732,-2.6203265],[38.1305147,-2.6210482],[38.1316011,-2.621704],[38.1328178,-2.6223719],[38.133838,-2.6228849],[38.1349817,-2.623422],[38.142699,-2.6269057],[38.1440634,-2.6276236],[38.1450988,-2.6283512],[38.1462898,-2.6293494],[38.1470525,-2.6301726],[38.1478176,-2.6312258],[38.1484509,-2.6324009],[38.1488868,-2.6335106],[38.1493347,-2.6348329],[38.1556321,-2.6532981],[38.1559877,-2.6545794],[38.1565531,-2.6571667],[38.158924,-2.6698108],[38.1591211,-2.6706788],[38.1593316,-2.6714237],[38.159616,-2.6722677],[38.1599808,-2.6731759],[38.1604555,-2.6741137],[38.1609946,-2.6750354],[38.1625986,-2.6775003],[38.1638361,-2.6793454],[38.1662212,-2.6829382],[38.1674786,-2.6848275],[38.1678576,-2.6853988],[38.1679593,-2.685552],[38.168056,-2.6856962],[38.1682723,-2.6860188],[38.1696342,-2.6880495],[38.1710449,-2.6901892],[38.173329,-2.6936253],[38.1733722,-2.6936891],[38.173643,-2.6940893],[38.1737732,-2.6942817],[38.173874,-2.6944264],[38.174631,-2.6955139],[38.1755894,-2.6969434],[38.1763194,-2.6980817],[38.1771586,-2.6991238],[38.1780077,-2.699919],[38.179196,-2.7008143],[38.1806431,-2.7018615],[38.2230962,-2.7324517],[38.2237695,-2.7329347],[38.2386672,-2.7436203],[38.2391566,-2.7439692],[38.2464225,-2.7492012],[38.2469027,-2.749552],[38.2568575,-2.7567082],[38.2585635,-2.7579768],[38.2598969,-2.7591201],[38.2606344,-2.7597932],[38.2616583,-2.7607938],[38.2865845,-2.7855309],[38.2876006,-2.7865575],[38.2892235,-2.7880927],[38.2920266,-2.7904118],[38.2972777,-2.7945631],[38.2982433,-2.795407],[38.2991123,-2.7963098],[38.2998794,-2.7971617],[38.3007752,-2.7982762],[38.301419,-2.7992005],[38.3022406,-2.8005198],[38.3297937,-2.8479149],[38.3308026,-2.8496699],[38.3319065,-2.8518999],[38.3328487,-2.853676],[38.3336533,-2.8549934],[38.335467,-2.8576349],[38.336041,-2.8585631],[38.3397,-2.8651233],[38.3409616,-2.867397],[38.341439,-2.8681213],[38.3419709,-2.8688336],[38.3425,-2.8694462],[38.343093,-2.8700828],[38.3435051,-2.8704746],[38.3444073,-2.8712723],[38.3450731,-2.8718137],[38.3458369,-2.872499],[38.3463731,-2.8729731],[38.3470957,-2.873694],[38.3476549,-2.87433],[38.3480435,-2.8747832],[38.3483747,-2.8752548],[38.3500787,-2.8778951],[38.3553023,-2.8861609],[38.3555045,-2.8864941],[38.3604634,-2.8943349],[38.3607992,-2.8948908],[38.3612532,-2.8956049],[38.3618109,-2.8964748],[38.3626814,-2.8976234],[38.3636632,-2.898676],[38.3651232,-2.9001349],[38.3681425,-2.9031444],[38.3821984,-2.9172333],[38.3834875,-2.918588],[38.3843867,-2.9193705],[38.3850801,-2.9198968],[38.3861703,-2.9206283],[38.3908363,-2.9237442],[38.39196,-2.9243856],[38.3926579,-2.9247378],[38.3934471,-2.9250672],[38.3942605,-2.9253292],[38.395107,-2.925556],[38.3958776,-2.9257469],[38.3967477,-2.9258881],[38.3975012,-2.9259828],[38.3985078,-2.9259987],[38.4034735,-2.9258984],[38.406988,-2.9258828],[38.4088672,-2.9259996],[38.4104781,-2.9263533],[38.4118352,-2.9267541],[38.4135281,-2.9275085],[38.4154735,-2.9287259],[38.4169205,-2.929955],[38.4179374,-2.9310704],[38.4190402,-2.9325065],[38.4372317,-2.9584774],[38.4381983,-2.9598153],[38.4385405,-2.9602693],[38.4389953,-2.9607715],[38.4396555,-2.9614281],[38.4400989,-2.9618198],[38.4415326,-2.9629682],[38.4467437,-2.96668],[38.4478626,-2.9676928],[38.4491391,-2.9691844],[38.450312,-2.9709277],[38.4546625,-2.9782737],[38.4557284,-2.9799573],[38.4569801,-2.9816225],[38.4582639,-2.9830917],[38.4603093,-2.9853643],[38.4611925,-2.9864903],[38.4623895,-2.9886604],[38.4625435,-2.9890047],[38.4632654,-2.9904355],[38.4665951,-2.9979422],[38.4676955,-3.0002584],[38.4686795,-3.002037],[38.4689214,-3.0024181],[38.4691983,-3.0029047],[38.4692476,-3.0029914],[38.4735628,-3.0105421],[38.4739699,-3.0111995],[38.4741075,-3.0114383],[38.4777265,-3.0178242],[38.4784484,-3.0192027],[38.4793184,-3.0209964],[38.4799871,-3.0228576],[38.4803806,-3.0242568],[38.4807169,-3.0257036],[38.4827221,-3.0338237],[38.4835351,-3.037229],[38.4840828,-3.0399284],[38.4886027,-3.0648479],[38.4890002,-3.0671321],[38.4890578,-3.0675377],[38.4890987,-3.0679225],[38.48924,-3.0695954],[38.4893438,-3.0708422],[38.4895433,-3.0726551],[38.4896834,-3.0734606],[38.4899259,-3.0744859],[38.4908364,-3.0778206],[38.4913325,-3.0798437],[38.4914668,-3.0806407],[38.4915931,-3.0814071],[38.49165,-3.0817063],[38.4916657,-3.0817885],[38.4924339,-3.0861077],[38.4925554,-3.0867929],[38.4937988,-3.0936525],[38.4942055,-3.0957574],[38.4958577,-3.1050778],[38.4990114,-3.1222075],[38.4992177,-3.1239028],[38.4993093,-3.12471],[38.4993553,-3.1257753],[38.4993345,-3.126903],[38.4967665,-3.1771412],[38.496829,-3.1790169],[38.497231,-3.1817807],[38.49949,-3.1952284],[38.5001956,-3.1994286],[38.5012865,-3.2059221],[38.5035514,-3.2194046],[38.5037252,-3.2207151],[38.5037611,-3.2219538],[38.5036736,-3.2231236],[38.5035197,-3.2242847],[38.5024765,-3.2292093],[38.5022218,-3.2308322],[38.5021695,-3.2317507],[38.5021836,-3.2328859],[38.5022576,-3.2338596],[38.5023272,-3.2346411],[38.502475,-3.2354921],[38.5030925,-3.2380104],[38.5216957,-3.3120855],[38.5217748,-3.3124005],[38.5241871,-3.3218625],[38.5243183,-3.3223774],[38.5405579,-3.3869205],[38.5409789,-3.3881216],[38.5417259,-3.3896559],[38.5423365,-3.390785],[38.5430111,-3.3918411],[38.543801,-3.3927583],[38.5449929,-3.3939647],[38.5477719,-3.3965099],[38.5482348,-3.3969629],[38.5490404,-3.3976932],[38.551428,-3.3999109],[38.5519722,-3.4004254],[38.553083,-3.4015039],[38.5540077,-3.4021732],[38.555189,-3.4029353],[38.5561362,-3.4034315],[38.557282,-3.4039208],[38.558928,-3.4044062],[38.5602838,-3.4046575],[38.5615107,-3.404744],[38.5628468,-3.4047701],[38.5640964,-3.4046991],[38.5658323,-3.4044625],[38.5664989,-3.404376],[38.5716058,-3.4036777],[38.5721391,-3.4036089],[38.5756428,-3.4031561],[38.5808112,-3.4024546],[38.5811063,-3.4024107],[38.5814926,-3.4023568],[38.5822524,-3.4022712],[38.5826129,-3.4022266],[38.5870504,-3.4016455],[38.5874677,-3.4016123],[38.588031,-3.4015883],[38.5886053,-3.4015844],[38.5890431,-3.40159],[38.5900866,-3.4016706],[38.5907887,-3.4017561],[38.5920201,-3.4020077],[38.5932899,-3.4024009],[38.5968255,-3.4034331],[38.600164,-3.4044726],[38.6008592,-3.4046648],[38.6045717,-3.4058548],[38.606584,-3.4064761],[38.607405,-3.4068232],[38.6080801,-3.4071446],[38.609435,-3.4079646],[38.6106812,-3.408933],[38.6120796,-3.4103279],[38.6133978,-3.4118001],[38.6533668,-3.4576997],[38.6535407,-3.4578995],[38.6596038,-3.4648619],[38.6597757,-3.4650594],[38.7126239,-3.5257453],[38.7132108,-3.5264197],[38.713921,-3.5273765],[38.7147523,-3.5286731],[38.7168807,-3.5320476],[38.7177034,-3.53312],[38.7185577,-3.5340172],[38.719288,-3.5346581],[38.7202117,-3.5353453],[38.721108,-3.5359436],[38.7215645,-3.5361943],[38.722323,-3.5365699],[38.7231785,-3.536945],[38.7258451,-3.537864],[38.7271627,-3.5383907],[38.7284052,-3.5389599],[38.7298153,-3.5397983],[38.7307991,-3.5405347],[38.7322229,-3.5418361],[38.7379427,-3.5473681],[38.7393735,-3.5486129],[38.7400542,-3.5491284],[38.7416015,-3.5501585],[38.7438942,-3.551492],[38.7480908,-3.5539899],[38.7556495,-3.5584718],[38.7591389,-3.5605991],[38.759964,-3.5611474],[38.7609678,-3.5618144],[38.7690174,-3.5666592],[38.77229,-3.5685591],[38.7950429,-3.5820733],[38.7951323,-3.5821264],[38.7959861,-3.5826335],[38.8024653,-3.5864707],[38.8032156,-3.5869268],[38.8142989,-3.5935085],[38.8426703,-3.610369],[38.8490887,-3.6141551],[38.8581229,-3.6195207],[38.8594155,-3.6202817],[38.889914,-3.6384033],[38.8945281,-3.6411415],[38.9120721,-3.6515615],[38.9167957,-3.6543514],[38.9169359,-3.6544343],[38.9181121,-3.6551424],[38.9216801,-3.6572575],[38.9265192,-3.6601279],[38.9267313,-3.6602537],[38.9380603,-3.666969],[38.9389294,-3.667483],[38.941309,-3.6689153],[38.9414685,-3.6690069],[38.9982328,-3.7026956],[38.9982928,-3.7027312],[39.0023664,-3.7051484],[39.006115,-3.7073728],[39.0182057,-3.7145472],[39.019777,-3.7153188],[39.0211582,-3.7157996],[39.022806,-3.7162256],[39.0277798,-3.7173475],[39.0292294,-3.7177393],[39.0305982,-3.7182237],[39.0312297,-3.7185005],[39.0318151,-3.718809],[39.0329968,-3.7195085],[39.0341197,-3.7203289],[39.0349157,-3.7210143],[39.0352955,-3.7213831],[39.0356762,-3.7217976],[39.0358197,-3.7219578],[39.036363,-3.7226001],[39.0376658,-3.7242663],[39.03872,-3.7256233],[39.0392683,-3.7262556],[39.0398527,-3.7268414],[39.0404224,-3.7273628],[39.0408846,-3.7277399],[39.041658,-3.7283133],[39.0422978,-3.7287271],[39.0424707,-3.7288315],[39.0563065,-3.7370052],[39.0574671,-3.7376596],[39.0576003,-3.7377191],[39.0580695,-3.7379401],[39.0587327,-3.738223],[39.0596657,-3.7385329],[39.061343,-3.7389457],[39.0628036,-3.7391359],[39.0637164,-3.7391872],[39.0669255,-3.7391157],[39.0681303,-3.7391252],[39.0690908,-3.7391696],[39.0698568,-3.7392622],[39.0708851,-3.7394341],[39.072054,-3.7397073],[39.0727523,-3.7399247],[39.0741488,-3.7405109],[39.0753371,-3.7411641],[39.0763529,-3.7418118],[39.0774927,-3.742518],[39.0789932,-3.7433335],[39.0806248,-3.7440082],[39.0821634,-3.7444155],[39.0836589,-3.7446721],[39.0844555,-3.7447548],[39.0853092,-3.7448001],[39.0861629,-3.7447465],[39.0879634,-3.7445552],[39.089115,-3.7444163],[39.0901866,-3.7443188],[39.0908662,-3.7442966],[39.0916248,-3.7443276],[39.0924329,-3.7444257],[39.0934697,-3.7446263],[39.0940571,-3.7447916],[39.1067065,-3.7486152],[39.1082605,-3.7490665],[39.1141506,-3.750614],[39.131109,-3.7551197],[39.1369237,-3.7566705],[39.1428083,-3.7582863],[39.1496876,-3.7600672],[39.1498149,-3.7601047],[39.1597241,-3.7627452],[39.1601049,-3.762851],[39.1609798,-3.7630922],[39.1619091,-3.7633216],[39.1658785,-3.7644052],[39.1673786,-3.7648623],[39.1700431,-3.765781],[39.1756071,-3.7676844],[39.1798155,-3.7691773],[39.1897062,-3.7726653],[39.1931996,-3.7738791],[39.194256,-3.7742462],[39.1960131,-3.7748568],[39.2074628,-3.7788328],[39.2075566,-3.7788653],[39.235731,-3.788649],[39.2408057,-3.7903914],[39.2560364,-3.7956851],[39.2571004,-3.796039],[39.2591221,-3.7967858],[39.2605782,-3.7974302],[39.260688,-3.7974841],[39.2609193,-3.7976042],[39.2632845,-3.7987607],[39.2642607,-3.7992016],[39.2652729,-3.7996588],[39.2663694,-3.8000235],[39.2669078,-3.8002026],[39.2683864,-3.8004527],[39.2701018,-3.8005089],[39.2712405,-3.8003397],[39.2714597,-3.8003114],[39.2718238,-3.8002388],[39.2760638,-3.7994779],[39.2782735,-3.7991487],[39.2805061,-3.7989338],[39.2821167,-3.7990003],[39.2837154,-3.7991283],[39.2874611,-3.7998374],[39.2892498,-3.8000779],[39.2908927,-3.8001352],[39.2925955,-3.800129],[39.29432,-3.7999568],[39.3194836,-3.7972717],[39.3208835,-3.7972506],[39.3210342,-3.7972512],[39.3218533,-3.7972855],[39.3237853,-3.7975513],[39.3253802,-3.7980033],[39.3269472,-3.7987151],[39.3287205,-3.7995764],[39.3581275,-3.8144146],[39.3648452,-3.8178035],[39.3663804,-3.8185763],[39.3736366,-3.8222306],[39.3743324,-3.8225785],[39.3791178,-3.8250011],[39.3799251,-3.8253932],[39.380649,-3.8257052],[39.3842265,-3.8270002],[39.387174,-3.8280883],[39.3896391,-3.8289852],[39.3921256,-3.8299196],[39.3930698,-3.8303801],[39.3939512,-3.8308855],[39.3945722,-3.8312896],[39.3953636,-3.8318602],[39.3974888,-3.8334862],[39.3990836,-3.8346525],[39.4007585,-3.8356636],[39.4021603,-3.8362767],[39.410424,-3.8393405],[39.4107346,-3.839457],[39.4109211,-3.839527],[39.4141402,-3.8407166],[39.4147317,-3.8409406],[39.4148514,-3.8409859],[39.4195599,-3.8427684],[39.4210162,-3.8434977],[39.4224216,-3.8444581],[39.4252721,-3.8466857],[39.4266298,-3.8476469],[39.4283165,-3.848606],[39.429828,-3.8493019],[39.4316201,-3.8499266],[39.4326436,-3.8502896],[39.4416184,-3.8528287],[39.441964,-3.8529264],[39.4420483,-3.8529503],[39.443137,-3.8532583],[39.4446583,-3.8538378],[39.447088,-3.8546762],[39.4604712,-3.8603528],[39.461077,-3.8606547],[39.461209,-3.8607153],[39.4612733,-3.8607444],[39.4614096,-3.860806],[39.4619697,-3.8610593],[39.4637253,-3.8618295],[39.4638998,-3.8619073],[39.4642767,-3.8620753],[39.4648187,-3.8623168],[39.4651147,-3.8624488],[39.4662726,-3.8629486],[39.4664533,-3.8630136],[39.4666893,-3.8631189],[39.4674408,-3.8634818],[39.4679076,-3.8637146],[39.468531,-3.8641072],[39.4688819,-3.8643603],[39.469472,-3.8648019],[39.4698893,-3.8651601],[39.4703692,-3.865593],[39.4706689,-3.8658987],[39.4712219,-3.8664938],[39.4717512,-3.8671162],[39.4719422,-3.8673664],[39.472194,-3.8676973],[39.4724192,-3.8680152],[39.4724943,-3.8681213],[39.4731322,-3.8690249],[39.4755533,-3.8724547],[39.478031,-3.875876],[39.4813336,-3.8806606],[39.4896738,-3.8924629],[39.4902162,-3.8932304],[39.4909864,-3.8943174],[39.4923199,-3.8961993],[39.4931576,-3.8974525],[39.4935048,-3.8979896],[39.4938264,-3.8987092],[39.4939043,-3.8990116],[39.4940634,-3.8994838],[39.4942023,-3.9001647],[39.4942565,-3.9006201],[39.4942884,-3.9010234],[39.4942779,-3.9016891],[39.4942301,-3.9025189],[39.4937206,-3.9058923],[39.4936779,-3.9065809],[39.4937068,-3.9073312],[39.4937993,-3.907986],[39.4939797,-3.9087252],[39.494201,-3.9094521],[39.4946023,-3.9102921],[39.4951929,-3.911197],[39.4957888,-3.9118524],[39.4961178,-3.9121716],[39.4965036,-3.9124908],[39.4970696,-3.9128537],[39.4982023,-3.9134314],[39.5015033,-3.9148424],[39.5032108,-3.9156096],[39.5038277,-3.9159576],[39.5045403,-3.9164116],[39.5052189,-3.9168769],[39.5064537,-3.9179571],[39.5074201,-3.919269],[39.5080235,-3.9202625],[39.5086139,-3.9217218],[39.5087059,-3.9220195],[39.5094253,-3.9244023],[39.5096626,-3.9253476],[39.5097824,-3.9260507],[39.5098431,-3.9267439],[39.5101089,-3.9296373],[39.510318,-3.9309396],[39.5106462,-3.9318203],[39.5110629,-3.9326805],[39.5114602,-3.9332354],[39.5116862,-3.9335794],[39.5120691,-3.9340129],[39.5125176,-3.9344454],[39.513026,-3.9348704],[39.5170905,-3.9378434],[39.5171845,-3.9379122],[39.5188005,-3.9390414],[39.5193374,-3.9394959],[39.519822,-3.9399792],[39.5202906,-3.9405402],[39.5205887,-3.9409211],[39.5209124,-3.9414531],[39.5211711,-3.9419915],[39.5213599,-3.9424395],[39.5215096,-3.9428874],[39.5217701,-3.9438028],[39.5220871,-3.9453153],[39.5221283,-3.9455118],[39.5226492,-3.9475341],[39.5228622,-3.9481553],[39.5232842,-3.9491088],[39.5238184,-3.9500175],[39.5248842,-3.9519362],[39.5252939,-3.9526482],[39.5256871,-3.9533673],[39.5260296,-3.9540186],[39.5262318,-3.9545049],[39.5264317,-3.9550149],[39.5266079,-3.9555457],[39.5267746,-3.9561049],[39.5269007,-3.9567206],[39.527003,-3.9573458],[39.5273091,-3.962579],[39.5273575,-3.9633309],[39.5275046,-3.9661852],[39.5276029,-3.9680088],[39.5277399,-3.9703646],[39.5278021,-3.9709649],[39.5278928,-3.9715416],[39.5279991,-3.9720384],[39.528167,-3.9726108],[39.5283107,-3.9730003],[39.5284875,-3.973385],[39.5285967,-3.9736208],[39.5287296,-3.9738519],[39.5290531,-3.9743714],[39.5292523,-3.9746389],[39.529461,-3.974897],[39.5299014,-3.9753739],[39.5301306,-3.9755843],[39.5303835,-3.9757853],[39.5308448,-3.9761043],[39.5312806,-3.9763856],[39.5317529,-3.9766471],[39.5321108,-3.9768548],[39.5334831,-3.9775455],[39.5341898,-3.9778862],[39.534925,-3.9783015],[39.5354168,-3.978596],[39.5359565,-3.9790225],[39.5362456,-3.9792659],[39.5364558,-3.9794782],[39.5366926,-3.9797517],[39.5371305,-3.98029],[39.5373785,-3.9806561],[39.5375822,-3.9809832],[39.5377333,-3.9812832],[39.5378658,-3.9815836],[39.5380269,-3.9819549],[39.5381669,-3.9823435],[39.5382681,-3.9827259],[39.5383327,-3.9829485],[39.5383914,-3.9832292],[39.5384586,-3.9835427],[39.5385062,-3.9838699],[39.5385332,-3.9842794],[39.5385587,-3.9847006],[39.5385839,-3.9854612],[39.5386168,-3.9869749],[39.5386346,-3.9873924],[39.5386666,-3.9878146],[39.5387006,-3.9881783],[39.5387559,-3.9885468],[39.5389158,-3.989411],[39.5391036,-3.9901913],[39.5394699,-3.991291],[39.5398641,-3.9923533],[39.5404543,-3.9941377],[39.5406164,-3.994573],[39.5408449,-3.9951076],[39.5414281,-3.9962288],[39.541731,-3.9966842],[39.5420876,-3.9971578],[39.5423053,-3.9974385],[39.5425135,-3.9976933],[39.5428081,-3.998034],[39.5430134,-3.9982368],[39.5432233,-3.9984348],[39.5436286,-3.9987906],[39.5440154,-3.9991066],[39.5444655,-3.9994519],[39.5448804,-3.9997459],[39.5456009,-4.0002043],[39.5460565,-4.0004394],[39.5464272,-4.0006068],[39.5470222,-4.000875],[39.5475556,-4.0010514],[39.5480194,-4.0011679],[39.5484853,-4.0012764],[39.5488702,-4.0013574],[39.5493048,-4.0014323],[39.5498747,-4.0014983],[39.5503519,-4.0015329],[39.5511058,-4.0015734],[39.5542941,-4.0016953],[39.5552402,-4.0017455],[39.5553208,-4.0017206],[39.5554157,-4.0017146],[39.5565819,-4.001766],[39.5589846,-4.0018945],[39.5594721,-4.0019206],[39.5599781,-4.0019453],[39.5607282,-4.0019979],[39.5610572,-4.0020416],[39.5615265,-4.0021524],[39.5620187,-4.0022985],[39.5624689,-4.0024682],[39.5628977,-4.0026686],[39.5631905,-4.0028331],[39.5635236,-4.0030237],[39.5641165,-4.0034267],[39.5645106,-4.0037497],[39.5647618,-4.0039855],[39.5651214,-4.0043866],[39.5652648,-4.0045445],[39.565466,-4.0047777],[39.565665,-4.0050331],[39.565988,-4.0055124],[39.566323,-4.0060119],[39.5666001,-4.0064302],[39.5668964,-4.0068898],[39.5672106,-4.0074326],[39.5706168,-4.0126709],[39.5722203,-4.0150924],[39.5725042,-4.015544],[39.5728438,-4.0159991],[39.5729764,-4.0161997],[39.5731464,-4.0164203],[39.5732791,-4.0165911],[39.5734012,-4.016755],[39.5736169,-4.017059],[39.5739037,-4.0174803],[39.5740653,-4.0177184],[39.5742477,-4.0179757],[39.5744997,-4.0182912],[39.5747478,-4.0185644],[39.5751487,-4.0189727],[39.575375,-4.0191658],[39.5756478,-4.0193372],[39.5758871,-4.0194767],[39.5760622,-4.0195652],[39.576387,-4.0197503],[39.5768724,-4.0200018],[39.577378,-4.0202346],[39.5778944,-4.02045]]}}]}
