{"type":"FeatureCollection","features":[{"type":"Feature","geometry":{"coordinates":[[135.6809306,35.0186857],[135.6804298,35.0187375],[135.6797838,35.0188113],[135.679419,35.018867],[135.6793134,35.0188885],[135.6792589,35.0188968],[135.6791973,35.0189043],[135.6790738,35.0189147],[135.6788814,35.0189304],[135.6787028,35.0189502],[135.6785579,35.0189667],[135.6784902,35.0189719],[135.6783374,35.0189794],[135.6773622,35.0189336],[135.6770076,35.0188887],[135.6767101,35.0188427],[135.676424,35.01879],[135.6761802,35.0187394],[135.6756493,35.0185845],[135.6752144,35.0184568],[135.6743564,35.0181919],[135.6742603,35.0181604],[135.6735201,35.0179278],[135.672678,35.017665],[135.6718789,35.0174122],[135.6704506,35.0169538],[135.6703099,35.0169131],[135.670198,35.0168771],[135.669795,35.016741],[135.669426,35.016671],[135.66909,35.016615],[135.6683776,35.0166908],[135.6680175,35.0167898],[135.667221,35.017026],[135.666159,35.0174063],[135.6657055,35.0175233],[135.6654617,35.0175577],[135.6650862,35.0176033],[135.664543,35.0176307],[135.663917,35.017656],[135.6625293,35.0177315],[135.6616033,35.0178061],[135.6605755,35.0178877],[135.659958,35.0179494],[135.659591,35.018008],[135.659254,35.01811],[135.65889,35.018236],[135.658718,35.018329],[135.6585153,35.0184432],[135.6583046,35.0185901],[135.6580728,35.0187837],[135.6578787,35.0189602],[135.6577476,35.0191313],[135.657435,35.0195787],[135.6569757,35.0202838],[135.6567037,35.0207362],[135.6564173,35.0212335],[135.6562684,35.0215878],[135.6561925,35.0218376],[135.6561351,35.0222172],[135.6560918,35.0224751],[135.656049,35.022669],[135.6560063,35.0230976],[135.6559306,35.0237097],[135.6558453,35.0243669],[135.655788,35.024697],[135.655671,35.024953],[135.655424,35.0253928],[135.6552242,35.0256437],[135.6550127,35.0259072],[135.6547725,35.0261507],[135.6544953,35.0263726],[135.6542817,35.0265262],[135.6541053,35.0266298],[135.653962,35.0267244],[135.6537399,35.0268342],[135.6535956,35.0269019],[135.6533687,35.0270236],[135.6531612,35.0271191],[135.6529261,35.0272294],[135.652805,35.0272899],[135.6526419,35.0273715],[135.6526059,35.0273895],[135.6521625,35.0276186],[135.6518701,35.0277271],[135.6515143,35.0278323],[135.6511561,35.027914],[135.6506795,35.0279786],[135.65024,35.027998],[135.649806,35.027956],[135.649357,35.027881],[135.649152,35.027806],[135.648671,35.027615],[135.648414,35.027475],[135.6478146,35.0271202],[135.6475618,35.0269611],[135.646956,35.026591],[135.6463674,35.0261974],[135.6459589,35.0259096],[135.644906,35.0251692],[135.6437366,35.0243508],[135.6432831,35.0240192],[135.642894,35.0237227],[135.642628,35.0235595],[135.64237,35.023411],[135.6422231,35.0233374],[135.6421277,35.0232848],[135.641586,35.0229539],[135.6412117,35.022718],[135.6409193,35.0224789],[135.6406604,35.0222191],[135.6403232,35.0217823],[135.640125,35.0214363],[135.6399675,35.0211561],[135.6396935,35.0206163],[135.639582,35.0204286],[135.6394414,35.0202261],[135.6392478,35.0200226],[135.6390391,35.0198317],[135.6388448,35.0196792],[135.6385886,35.0195178],[135.6382343,35.0193414],[135.6378262,35.019171],[135.6372448,35.0189508],[135.6366464,35.0187344],[135.6365031,35.0186826],[135.6364567,35.0186658],[135.6363542,35.0186287],[135.6362718,35.0185998],[135.6360227,35.0184949],[135.6351876,35.0180642],[135.634548,35.0177579],[135.633753,35.017346],[135.6330422,35.0170296],[135.6327431,35.016919],[135.632486,35.016857],[135.632332,35.016824],[135.6319519,35.016767],[135.63166,35.01675],[135.6313672,35.016746],[135.6303825,35.0168227],[135.627351,35.017012],[135.626753,35.017089],[135.6257892,35.0172245],[135.6252751,35.0173],[135.6247206,35.0174058],[135.6242869,35.01746],[135.6241115,35.0174965],[135.6239393,35.0175557],[135.6236899,35.0176557],[135.6234413,35.017787],[135.6232502,35.0179217],[135.6230732,35.018054],[135.6228976,35.0182127],[135.6227455,35.0183666],[135.6226396,35.0185118],[135.6225466,35.0186574],[135.6224302,35.018864],[135.6223998,35.0189287],[135.6223472,35.0190731],[135.6223068,35.0192021],[135.6222538,35.0194521],[135.6222337,35.0195993],[135.6222312,35.0196311],[135.6221391,35.0203856],[135.622095,35.020736],[135.622062,35.020899],[135.6219462,35.0211916],[135.6218346,35.021402],[135.6215932,35.0216922],[135.6214475,35.0218488],[135.621344,35.0219357],[135.621148,35.0220382],[135.6209542,35.0221176],[135.6207485,35.022208],[135.6204844,35.0222975],[135.6203362,35.0223447],[135.6201209,35.0224067],[135.6199082,35.0224594],[135.6196913,35.0224938],[135.6194597,35.022528],[135.6192431,35.02255],[135.6190206,35.022563],[135.6188108,35.0225768],[135.6185489,35.0225784],[135.618385,35.0225629],[135.6179595,35.0225131],[135.617257,35.0224247],[135.6167216,35.0223552],[135.6162408,35.0222937],[135.6159894,35.0222438],[135.615703,35.022161],[135.615343,35.022025],[135.615108,35.021927],[135.6150073,35.0218748],[135.6148333,35.0217678],[135.614659,35.0216455],[135.6145008,35.0215221],[135.6142581,35.0213124],[135.614045,35.0210661],[135.6137735,35.0207029],[135.6135679,35.0204872],[135.613274,35.0202355],[135.6128522,35.0198824],[135.6123601,35.0194563],[135.6121784,35.0193017],[135.6119537,35.0191063],[135.61178,35.0189462],[135.6115415,35.018664],[135.6111799,35.0182248],[135.6107787,35.0177661],[135.6105186,35.0174336],[135.6101791,35.0169557],[135.609981,35.0166937],[135.6095176,35.0161001],[135.6093249,35.015896],[135.6090584,35.0156701],[135.6087875,35.015396],[135.6085983,35.0151963],[135.6083576,35.0149068],[135.6077351,35.0141748],[135.6073488,35.0137246],[135.6070142,35.013323],[135.606831,35.0131065],[135.6064038,35.0126018]],"type":"LineString"},"properties":{"calculatedDistanceKm":8.88,"coordinateCount":225,"name":"Sagano Scenic Railway"}}],"metadata":{"coordinateCount":225,"geometryVersion":"2026-08-20","route":"Sagano Scenic Railway: Torokko Saga to Torokko Kameoka","license":"ODbL 1.0","wayIds":["43024824","1001809729","407472697","43024825","43024829","43024831","43024833","183899651","183899652","183899653","183899655","183899657","183899658","183899663","183899666","183899668","502413221","612002922","683721901","683721902","683721903","683721904","683855215","683855216","683855217","683855218","684024198","684024199"],"source":"OpenStreetMap contributors","calculatedDistanceKm":8.88}}
