{"type":"FeatureCollection","metadata":{"name":"Settle?Carlisle Line ? Leeds to Carlisle","preparedFor":"Rallii","source":"OpenStreetMap route relation 9902815","sourceUrl":"https://www.openstreetmap.org/relation/9902815","license":"ODbL","relationIds":[9902815],"contributingWayIds":[132751229,132753333,1473731680,132753330,386893505,132752064,134836456,440293681,365270356,365270402,452937034,452937032,440293683,365270372,365270361,365270391,365270410,365270394,1021143916,1021143915,1021143912,1021143911,365270367,1021143901,1021143902,365270405,365270385,365270413,365270371,365270407,365270415,365270386,892201758,892201759,365270401,365270381,365270395,365270376,365270399,365270368,365270364,365270349,365270360,365270351,365270387,365270350,365270412,365270398,365270382,365270373,365270354,365270416,365270374,365270393,365270362,365270392,365270384,365270352,365270365,365270389,365270406,365270366,365270409,365270379,365270404,365270369,365270414,365270383,365270397,365270375,365270363,365270377,365270400,365270370,365270390,365270378,365270408,365276098,365275963,365275989,365276030,365276075,365275997,365275948,1425791171,1425791172,365276096,365275980,365276056,365275974,365276094,365275995,365276089,365276024,365275955,365276043,365276081,365276009,365276085,365276051,365275952,365275960,365276092,365276039,365275942,365276037,365276062,365276054,365276067,365275983,365276091,365276021,365276086,365275968,365276006,365276059,365276012,365276048,365275992,365276095,365276018,365275966,365276003,365276083,365276046,365276064,365275977,365276090,365276001,365275945,365276033,365275971,365276016,365276093,365276027,243935088,243935081,365299617,365299631,365299576,365299535,365299590,365299532,365299582,365299640,365299614,365299625,365299593,365299629,365299592,365299606,365299627,365299565,365299529,365299562,365299612,365299624,365299556,365299571,365299523,365299567,365299641,365299573,365299642,365299550,365299623,365299579,365299620,365299594,365299584,365299580,365299619,365299602,365299545,365299600,365299630,365299599,555534414,555534413,555534406,555534405,365299610,477351113,477351112,365299586,365299637,365299616,365299522,365299633,365299646,365299634,365299577,365299639,365299591,365299538,365299589,365299598,365299583,365299622,365299621,365299553,365299568,365299525,365299578,365299581,383485486,383485481,365299543,365299596,365299534,365299585,365299548,365299595,365299527,365299519,365299635,365299547,1066416648,1066416647,1066416650,1066416651,365299588,365299632,852061894,852061893,365299574,365299628,1061340712,1061340718,1061340719,1061340711,1061340695,1061340694,365299597,365299613,365299608,1111578681,1111578682,365299644,365299645,365299636,365299524,1070542241,1070542240,365299575,1111765432,1111765433,365299615,365299521,365299643,365299559,365299626,365299520,1411840184,365299638,365466653,365466642,365466656,1006726363,1006726362,365466639,431364661,886120409,802262779,431364657,802262777,365466659,855155477,855155476,855155472,855155471,365466636,365466649,365466647,365466654,365466638,365466643,365466646,365466660,1111577561,1111577560,1111577554,1111577553,365466637,365466655,365466645,365466641,365466648,365466657,365466651,802262773,1006727991,1006727990,435597520,610481310,610481311,89145965,89145966,3999706,4000090,365477480,365477443,610481312,802262771,365477476,499103406,499103401,365477425,365477485,365477440,365477478,365477466,365477471,365477439,365477481,365477454,365477488,365477459,365477428,365477461,365477470,365477434,365477422,365477447,365477435,365477426,365477441,365477433,365477500,365477436,365477427,365477460,365477497,365477442,365477423,365477437,365477479,365477429,365477468,365477452,365477467,365477457,365477474,365477473,365477438,365477491,365477432,1460303867,365477503,1111571302,1111571301,1111571296,1111571295,365477424,365477420,365477464,365477475,365477449,365477502,365477456,365477494,365477445,365477469,365477430,365477431,365477462,365477483,365477463,365477477,365477465,365477421,365477458,365477472,365477444,365477418,363749872,435598453,459642808,459642807,459642816,459642815,363749924,363749895,363749871,363749879,363749877,363749882,259033109,371381518,371381519,259033107,363297899,711126751,711126752,363297910,363297921,363297932,363297930,363297931,363297894,363297928,363297911,363297929,363297912,363297926,363297913,363297920,363297909,363297922,363297907,363297914,363297915,363297924,363297897,363297903,363297895,363297916,363297918,363297927,363297919,363297906,363297925,363297908,802262764,363297923,927248276,246213838,734883238,802262755,363291750,1298534165,1298534164,802262754,363291733,1164407357,1164407358,363291761,802262750,363291728,363291746,363291760,363291738,802262748,363291756,363291730,363291737,802262745,363291753,363291742,363291729,363291734,363291754,363291747,363291757,802262741,802262743,363291745,363291732,363291741,363291758,363291736,363291731,363291740,363291759,363291748,363291752,802262732,802262733,363291751,802262738,363291755,302893659,302893660,302893668,302893661,302893689,802262735,802262729,302893675,302893684,802262727,302893664,302893669,802262724,302893665,302893663,302893667,827671005,827671008,302893662,302893666,302893692,802262722,802262721,302893681,302893691,302893686,802262719,302893676,302893682,302893685,302893687,302893678,302893688,302893658,302893690,712497233,302761318,712497230,302759520,712497231,31967253,802262716,162140877,115567460,27145216,1121662068,1305333392,1121662067,1121671085,255505893,255505873,244240452,712497234,1414595693,115570252],"coordinateCount":2904,"calculatedLengthKm":181.13,"preparedAt":"2026-08-12"},"features":[{"type":"Feature","properties":{"name":"Leeds to Carlisle via Settle","routeSlug":"settle-carlisle"},"geometry":{"type":"LineString","coordinates":[[-1.5497277,53.7943599],[-1.5505939,53.7941452],[-1.5510866,53.7940312],[-1.5516024,53.7939203],[-1.5517485,53.7938922],[-1.5520348,53.7938371],[-1.5527475,53.793716],[-1.5531302,53.7936237],[-1.5535818,53.7935151],[-1.5537567,53.7934758],[-1.5539464,53.7934271],[-1.5541819,53.7933563],[-1.5543846,53.7932834],[-1.5545285,53.7932294],[-1.5548049,53.7931046],[-1.5548325,53.7930931],[-1.5551943,53.7929297],[-1.5553359,53.792865],[-1.5560273,53.792549],[-1.5562617,53.7924505],[-1.5564162,53.7923842],[-1.5564717,53.7923656],[-1.5566423,53.7923026],[-1.5568076,53.7922496],[-1.5570031,53.7921955],[-1.5571916,53.7921509],[-1.5574463,53.7920961],[-1.5575332,53.7920814],[-1.5576293,53.7920648],[-1.5577222,53.7920509],[-1.5578234,53.7920376],[-1.5578952,53.7920307],[-1.558088,53.7920137],[-1.5581709,53.7920063],[-1.5584259,53.7919975],[-1.5587669,53.7919996],[-1.5591007,53.7920228],[-1.5592579,53.7920408],[-1.5595369,53.7920807],[-1.5597718,53.7921289],[-1.5600562,53.7921916],[-1.5603052,53.7922548],[-1.5606036,53.7923521],[-1.5610117,53.7924759],[-1.5612595,53.7925517],[-1.5614299,53.7926072],[-1.5618876,53.7927668],[-1.5624228,53.7929763],[-1.5629683,53.7931953],[-1.562998,53.7932072],[-1.5632399,53.7933043],[-1.5652222,53.7941074],[-1.5652893,53.7941338],[-1.5658724,53.7943717],[-1.5666607,53.7946949],[-1.567596,53.7950684],[-1.5690727,53.7956467],[-1.5702582,53.7961365],[-1.5715922,53.796677],[-1.5726031,53.7970743],[-1.5732526,53.7972952],[-1.5742946,53.7977091],[-1.5752482,53.7980734],[-1.5758278,53.7983016],[-1.576383,53.7984861],[-1.5768216,53.7986448],[-1.578004,53.7991063],[-1.5788772,53.7994604],[-1.5798791,53.7998562],[-1.5808934,53.8002564],[-1.5825532,53.8010032],[-1.5828907,53.8011329],[-1.5847292,53.8018829],[-1.5857592,53.8023383],[-1.5867485,53.8027458],[-1.5875535,53.8030673],[-1.5879708,53.8032275],[-1.5906358,53.8041709],[-1.591095,53.8043457],[-1.5915453,53.8045268],[-1.5923623,53.8049095],[-1.5934111,53.8054162],[-1.5939959,53.805675],[-1.5942451,53.8057816],[-1.5953697,53.806237],[-1.5970217,53.8069058],[-1.5970947,53.8069383],[-1.598066,53.8073708],[-1.5989782,53.8078173],[-1.5996512,53.8081893],[-1.6001094,53.8084528],[-1.6005604,53.8087329],[-1.6010775,53.8090644],[-1.6017926,53.8095828],[-1.6023941,53.8100717],[-1.6030356,53.8106401],[-1.6037278,53.811242],[-1.6042975,53.8117655],[-1.6046736,53.8121635],[-1.6049708,53.8124781],[-1.6049968,53.8125054],[-1.6055033,53.8131093],[-1.606624,53.8146071],[-1.6072126,53.8153558],[-1.6077618,53.8161133],[-1.6082593,53.8168511],[-1.6087194,53.8175285],[-1.6089441,53.8178511],[-1.6091852,53.8181629],[-1.6098916,53.8189142],[-1.6103088,53.8192951],[-1.6107474,53.8196553],[-1.6110884,53.8199322],[-1.6114462,53.8201937],[-1.6116221,53.820321],[-1.6118231,53.8204513],[-1.6122345,53.8207038],[-1.612604,53.8209139],[-1.6130027,53.8211224],[-1.6133735,53.8213124],[-1.6137736,53.8214938],[-1.6140856,53.8216378],[-1.6142421,53.8217104],[-1.6144254,53.8217856],[-1.6147852,53.8219275],[-1.6152062,53.822081],[-1.6155766,53.8222058],[-1.6159612,53.8223238],[-1.6163554,53.8224418],[-1.6167886,53.8225611],[-1.6171414,53.8226552],[-1.6175354,53.8227416],[-1.6179448,53.8228295],[-1.6183898,53.822911],[-1.6188179,53.822977],[-1.6192791,53.8230438],[-1.6204901,53.8232096],[-1.6212717,53.8233368],[-1.6219291,53.8234727],[-1.6222356,53.8235436],[-1.6224873,53.8236072],[-1.6232974,53.8238196],[-1.6240816,53.8240732],[-1.6245832,53.8242497],[-1.6250257,53.8244199],[-1.6256339,53.824674],[-1.6266233,53.8251205],[-1.6278179,53.8256718],[-1.6284422,53.8259413],[-1.6291188,53.8262033],[-1.6294279,53.8263086],[-1.629786,53.8264246],[-1.6301112,53.8265215],[-1.6304693,53.8266237],[-1.6310661,53.8267725],[-1.6313745,53.8268437],[-1.6317131,53.8269122],[-1.6320263,53.8269712],[-1.6323347,53.8270238],[-1.6326962,53.82708],[-1.6330962,53.8271299],[-1.6334505,53.827173],[-1.6338321,53.8272082],[-1.6341989,53.8272387],[-1.6345752,53.8272595],[-1.6350579,53.8272737],[-1.6355655,53.8272759],[-1.6362072,53.8272628],[-1.6368891,53.8272217],[-1.6373049,53.8271853],[-1.6377179,53.8271366],[-1.6383523,53.8270475],[-1.6390711,53.8269233],[-1.6397316,53.826801],[-1.6404752,53.8266668],[-1.6407723,53.8266201],[-1.6412464,53.8265516],[-1.6417258,53.8264958],[-1.6419974,53.8264669],[-1.6423072,53.8264408],[-1.642625,53.8264206],[-1.6431863,53.8263969],[-1.6436543,53.8263866],[-1.6441358,53.8263894],[-1.6444802,53.8263988],[-1.6448204,53.8264103],[-1.6451839,53.8264333],[-1.6454494,53.8264535],[-1.64578,53.8264855],[-1.6461454,53.8265215],[-1.6466229,53.8265845],[-1.6471298,53.8266648],[-1.6475402,53.8267392],[-1.6477929,53.8267911],[-1.6484392,53.8269365],[-1.6492628,53.8271499],[-1.6501883,53.8274131],[-1.6511089,53.8276814],[-1.6532368,53.828283],[-1.6536764,53.8284043],[-1.6541386,53.8285202],[-1.6546159,53.8286271],[-1.6551051,53.8287287],[-1.6556352,53.8288253],[-1.6561924,53.8289192],[-1.6567933,53.828997],[-1.6574031,53.8290641],[-1.6587078,53.8291698],[-1.6601002,53.8292791],[-1.6606078,53.8293263],[-1.6611431,53.8293882],[-1.6617287,53.829462],[-1.6622923,53.8295491],[-1.6627744,53.8296333],[-1.6632627,53.8297304],[-1.6641579,53.8299276],[-1.6648857,53.8301125],[-1.6653481,53.830245],[-1.6658317,53.830398],[-1.666789,53.8307352],[-1.6670744,53.830847],[-1.6672288,53.8309075],[-1.6676835,53.8310905],[-1.6681291,53.831287],[-1.6685568,53.8314853],[-1.6694616,53.8319071],[-1.6712131,53.8327366],[-1.6720867,53.8331377],[-1.6729561,53.8335237],[-1.6738404,53.8339035],[-1.6742672,53.8340925],[-1.6747181,53.8343014],[-1.6775267,53.8356171],[-1.6789352,53.8362978],[-1.6803306,53.8369652],[-1.6817236,53.8376023],[-1.6821013,53.8377579],[-1.682488,53.8379085],[-1.6828828,53.8380556],[-1.6833221,53.8382075],[-1.6837812,53.8383624],[-1.6842574,53.8385123],[-1.6846253,53.8386221],[-1.6848151,53.8386787],[-1.6849056,53.838704],[-1.6856101,53.8388847],[-1.6861649,53.8390294],[-1.68641,53.8390862],[-1.6873685,53.8392708],[-1.6882117,53.8394235],[-1.688941,53.8395141],[-1.6903023,53.8396833],[-1.6912694,53.8398072],[-1.692217,53.8399457],[-1.693214,53.8400894],[-1.694593,53.8402912],[-1.7032019,53.8415184],[-1.7038408,53.8416124],[-1.7053324,53.84186],[-1.7060951,53.8419979],[-1.7068922,53.8421413],[-1.7073742,53.8422217],[-1.7077916,53.8422899],[-1.7082432,53.8423637],[-1.7090017,53.8424709],[-1.7096475,53.8425606],[-1.711873,53.8428762],[-1.7132095,53.8430672],[-1.7140491,53.8431877],[-1.714111,53.8431969],[-1.7147754,53.8432952],[-1.7161767,53.8435154],[-1.7174843,53.8437283],[-1.7175512,53.8437392],[-1.7180968,53.8438346],[-1.7200056,53.8441653],[-1.7216827,53.8444099],[-1.7221963,53.8444849],[-1.7233969,53.8446519],[-1.7350073,53.8463191],[-1.7360599,53.8464165],[-1.7370038,53.8464924],[-1.7378415,53.8465041],[-1.7387722,53.8465027],[-1.7390101,53.8464914],[-1.7397418,53.8464568],[-1.7405652,53.8463958],[-1.7412123,53.8463164],[-1.7419368,53.8462216],[-1.7427838,53.8460632],[-1.7436154,53.8458657],[-1.7442077,53.8456964],[-1.7446952,53.8455408],[-1.7451708,53.8453757],[-1.7456403,53.8452012],[-1.7461262,53.8450018],[-1.7475077,53.844353],[-1.7488963,53.8436679],[-1.7494382,53.8434056],[-1.7500057,53.8431485],[-1.7505944,53.8429121],[-1.751173,53.8426771],[-1.7535325,53.8417792],[-1.7548237,53.8412697],[-1.7560507,53.8407657],[-1.7586253,53.8397466],[-1.7609781,53.8387994],[-1.7634401,53.8378232],[-1.766622,53.8365271],[-1.7667336,53.8364795],[-1.7683013,53.835838],[-1.7684532,53.8357758],[-1.7689195,53.8355817],[-1.769044,53.8355299],[-1.7699334,53.8351503],[-1.770216,53.8350228],[-1.7706828,53.834803],[-1.7710917,53.8346284],[-1.7711946,53.8345845],[-1.7718415,53.8343575],[-1.7719136,53.8343367],[-1.7720069,53.834312],[-1.7721423,53.834285],[-1.7723214,53.8342515],[-1.7725413,53.8342176],[-1.7728356,53.8341829],[-1.7732785,53.834142],[-1.7737625,53.8341289],[-1.7740819,53.8341385],[-1.7744077,53.8341598],[-1.7746175,53.8341809],[-1.7748704,53.8342144],[-1.7751606,53.834258],[-1.7757089,53.8343682],[-1.7759603,53.8344222],[-1.7764418,53.8345286],[-1.7772108,53.8347293],[-1.7776041,53.8348263],[-1.7784345,53.8350407],[-1.7791499,53.8352369],[-1.7799808,53.8354879],[-1.7806242,53.835689],[-1.7813235,53.835917],[-1.7823435,53.8362449],[-1.7824014,53.8362637],[-1.7825594,53.8363151],[-1.7828694,53.8364158],[-1.7833068,53.8365578],[-1.7844542,53.8369286],[-1.7856989,53.8373352],[-1.7866882,53.837646],[-1.7870328,53.8377459],[-1.7873404,53.8378287],[-1.7880003,53.837998],[-1.788391,53.8380944],[-1.7888029,53.8381902],[-1.7894612,53.8383316],[-1.7898377,53.8384096],[-1.790766,53.8385661],[-1.7916096,53.8386877],[-1.7923407,53.8387636],[-1.7933927,53.8388383],[-1.7944019,53.8388768],[-1.7956314,53.8388689],[-1.7971193,53.8388347],[-1.7985807,53.8387959],[-1.8021067,53.8387041],[-1.8044983,53.8386476],[-1.8069007,53.8385667],[-1.807221,53.8385582],[-1.8075152,53.8385474],[-1.8093953,53.8385037],[-1.8103615,53.8384982],[-1.8113593,53.838514],[-1.8119262,53.8385228],[-1.8125866,53.8385495],[-1.8132359,53.83859],[-1.8139734,53.8386403],[-1.814675,53.8386955],[-1.8155246,53.8387797],[-1.8160241,53.8388413],[-1.8176602,53.8390737],[-1.8182525,53.8391741],[-1.8188465,53.8392824],[-1.8194346,53.839394],[-1.8200282,53.8395171],[-1.8207596,53.8396784],[-1.8215089,53.8398658],[-1.8227331,53.8401977],[-1.8231903,53.8403375],[-1.8239345,53.840569],[-1.8246538,53.84082],[-1.8252988,53.8410471],[-1.8262111,53.8414015],[-1.8267927,53.8416276],[-1.8275301,53.8419448],[-1.8279098,53.8421146],[-1.8282851,53.8422941],[-1.8284924,53.8423978],[-1.8291089,53.8427202],[-1.8297545,53.8430974],[-1.8302968,53.843435],[-1.8307967,53.8437821],[-1.8310694,53.84398],[-1.8313298,53.844176],[-1.8318316,53.8445666],[-1.8324988,53.8450958],[-1.8328418,53.8453608],[-1.8331777,53.8456245],[-1.8338213,53.8461231],[-1.8344592,53.8466224],[-1.8349603,53.8470178],[-1.8362262,53.8479961],[-1.8371391,53.8487268],[-1.8377006,53.8491602],[-1.8379627,53.8493731],[-1.8383233,53.8497063],[-1.8386826,53.8500632],[-1.8388729,53.8502829],[-1.8390052,53.8504777],[-1.8391223,53.8506451],[-1.8392431,53.8508121],[-1.8393273,53.8509637],[-1.8394142,53.8511067],[-1.8396049,53.8514681],[-1.8397586,53.8518199],[-1.8399191,53.8521525],[-1.84006,53.8524922],[-1.8404319,53.8534034],[-1.8405347,53.8536644],[-1.8405957,53.8537902],[-1.8406243,53.8538521],[-1.8406629,53.8539245],[-1.8410785,53.8547653],[-1.8413588,53.8552211],[-1.8416487,53.8556386],[-1.8422437,53.8563859],[-1.8425851,53.8567508],[-1.8429448,53.8571051],[-1.8435944,53.8576816],[-1.8439923,53.8579804],[-1.844457,53.8583081],[-1.8445226,53.8583539],[-1.8445901,53.8583974],[-1.8453738,53.858901],[-1.84626,53.8594079],[-1.8466289,53.8596008],[-1.8470432,53.859801],[-1.8476986,53.8601032],[-1.8482047,53.8603157],[-1.8486699,53.8604966],[-1.8491551,53.8606817],[-1.8497237,53.8608774],[-1.8502514,53.861043],[-1.8508668,53.8612185],[-1.851339,53.8613387],[-1.8518283,53.8614513],[-1.8525376,53.861611],[-1.8534277,53.8617825],[-1.8536611,53.8618198],[-1.854138,53.8618962],[-1.8546595,53.8619672],[-1.8567872,53.8622226],[-1.8577012,53.8623255],[-1.858558,53.8624335],[-1.8594056,53.862561],[-1.8598663,53.8626352],[-1.8603185,53.8627209],[-1.8612468,53.862901],[-1.8620579,53.8630739],[-1.8628717,53.8632737],[-1.8641837,53.8636298],[-1.8656842,53.8640632],[-1.8659158,53.8641305],[-1.8693693,53.8651428],[-1.8723088,53.8660065],[-1.8750734,53.8668153],[-1.8767836,53.8673116],[-1.8785384,53.8678259],[-1.8793902,53.8680729],[-1.880217,53.8683026],[-1.8809082,53.8684631],[-1.8816133,53.8686007],[-1.8819875,53.8686651],[-1.8823947,53.8687247],[-1.882763,53.8687664],[-1.8831504,53.8688032],[-1.8837766,53.8688466],[-1.8844251,53.8688812],[-1.8850547,53.8688914],[-1.8856542,53.8688768],[-1.8861953,53.8688486],[-1.8867078,53.8688067],[-1.8873519,53.8687466],[-1.8879911,53.8686597],[-1.8888108,53.8685058],[-1.8896114,53.8683303],[-1.8909632,53.8679514],[-1.8922799,53.8675545],[-1.8926404,53.867461],[-1.8930576,53.8673683],[-1.8937052,53.867248],[-1.8940889,53.8671879],[-1.8944595,53.8671448],[-1.8951215,53.8670986],[-1.8955408,53.867082],[-1.8958827,53.8670818],[-1.8971767,53.8671035],[-1.8976394,53.8671321],[-1.8980328,53.8671706],[-1.8984291,53.8672192],[-1.8988185,53.8672787],[-1.8991835,53.8673464],[-1.8995979,53.8674302],[-1.9000305,53.8675368],[-1.9003867,53.8676282],[-1.9007277,53.8677306],[-1.9010567,53.8678412],[-1.9013475,53.8679478],[-1.9017346,53.8680975],[-1.9021741,53.8682908],[-1.9025118,53.8684557],[-1.9029002,53.8686592],[-1.9033844,53.8689254],[-1.9034563,53.8689672],[-1.9039134,53.8692326],[-1.9043631,53.8695307],[-1.9046954,53.8697702],[-1.9049617,53.8699888],[-1.905215,53.8702043],[-1.9053282,53.8703137],[-1.9054057,53.8703902],[-1.9055749,53.8705633],[-1.9057106,53.8707234],[-1.9058344,53.8708837],[-1.9059612,53.8710532],[-1.9060798,53.8712316],[-1.9062498,53.871527],[-1.9063515,53.8717558],[-1.9064243,53.8719495],[-1.9064928,53.8721543],[-1.9065389,53.8723172],[-1.9065867,53.8725227],[-1.9066227,53.8727101],[-1.906678,53.8730336],[-1.9067311,53.8733571],[-1.9067829,53.8738113],[-1.9068724,53.8742372],[-1.9068898,53.8743088],[-1.9069593,53.8745099],[-1.9070162,53.8746693],[-1.9071116,53.8748797],[-1.9072026,53.8750732],[-1.907447,53.8754812],[-1.9077221,53.8758548],[-1.9079454,53.8761304],[-1.9080419,53.8762317],[-1.908775,53.8769803],[-1.9090903,53.8773185],[-1.9094263,53.8776618],[-1.9097681,53.8780204],[-1.9101921,53.8784303],[-1.9102833,53.8785331],[-1.9108832,53.8791637],[-1.9111547,53.8794519],[-1.9114303,53.8797367],[-1.9120175,53.8803267],[-1.9126195,53.8809167],[-1.9132306,53.8814537],[-1.9133688,53.88158],[-1.9135353,53.8817165],[-1.9137195,53.8818553],[-1.913898,53.8819832],[-1.9146596,53.8824992],[-1.9154349,53.8829732],[-1.9162127,53.8833806],[-1.9166218,53.8835775],[-1.9170794,53.883787],[-1.9175965,53.8840141],[-1.9185077,53.8843834],[-1.919053,53.8845953],[-1.9196065,53.8848057],[-1.9206996,53.8852175],[-1.9213394,53.885457],[-1.9219649,53.8856912],[-1.9225913,53.8859297],[-1.9232075,53.8861644],[-1.9236532,53.8863501],[-1.9241004,53.8865441],[-1.9249515,53.8869325],[-1.925453,53.8871781],[-1.9259413,53.8874273],[-1.9263782,53.8876688],[-1.9267989,53.8879137],[-1.9272236,53.8881714],[-1.9276356,53.8884264],[-1.9282624,53.8888384],[-1.9288809,53.8892531],[-1.9291987,53.8894786],[-1.9296296,53.8897844],[-1.9299977,53.8900534],[-1.930352,53.8903238],[-1.9310245,53.8908606],[-1.9316667,53.8914034],[-1.9322338,53.8918849],[-1.9327872,53.8923569],[-1.9334703,53.8929448],[-1.9341525,53.8935448],[-1.9347149,53.8940103],[-1.9361048,53.8952077],[-1.9367373,53.8957596],[-1.937365,53.8962945],[-1.9379411,53.8967796],[-1.9382649,53.8970226],[-1.9386222,53.8972756],[-1.9393446,53.8977439],[-1.940131,53.8982053],[-1.9408892,53.8986044],[-1.9416666,53.8989596],[-1.9426446,53.8993736],[-1.9430885,53.8995392],[-1.9437816,53.8997636],[-1.9442973,53.8999219],[-1.9448493,53.9000781],[-1.9454002,53.9002375],[-1.9457178,53.9003166],[-1.9460777,53.9004057],[-1.9465369,53.9005054],[-1.947018,53.9006054],[-1.9472109,53.9006378],[-1.9479358,53.900755],[-1.9487853,53.9008775],[-1.9495267,53.9009576],[-1.9509556,53.9010841],[-1.9523723,53.9011966],[-1.9552608,53.9014313],[-1.9565304,53.9015326],[-1.957497,53.9016033],[-1.9578577,53.9016297],[-1.9600637,53.9018099],[-1.9601063,53.9018128],[-1.9601561,53.9018163],[-1.9705162,53.9026511],[-1.9706777,53.9026642],[-1.9708699,53.9026798],[-1.971687,53.902746],[-1.9763881,53.9031303],[-1.9787564,53.9033164],[-1.981119,53.9035055],[-1.9831506,53.903694],[-1.983633,53.9037271],[-1.9847252,53.9038013],[-1.9859655,53.9038994],[-1.9871961,53.9040038],[-1.98813,53.9040962],[-1.988953,53.9041806],[-1.9894206,53.9042389],[-1.9899106,53.9043089],[-1.9910261,53.9044987],[-1.9920944,53.9047084],[-1.9932836,53.9049817],[-1.9938377,53.9051199],[-1.994424,53.905286],[-1.9949227,53.9054258],[-1.9955009,53.9056],[-1.9962095,53.9058335],[-1.9969335,53.9060996],[-1.9976534,53.9063738],[-1.9983552,53.9066603],[-1.9991169,53.9070079],[-1.9998787,53.9073791],[-2.0006283,53.9077625],[-2.0013728,53.9081769],[-2.0016371,53.9083382],[-2.0019241,53.9085179],[-2.0024715,53.9088799],[-2.0035197,53.9096328],[-2.0050896,53.9107779],[-2.0058962,53.9113616],[-2.0066802,53.9119355],[-2.0075118,53.9125384],[-2.0083125,53.9131545],[-2.0090168,53.9137491],[-2.0090566,53.9137879],[-2.0093421,53.9140664],[-2.0096519,53.9143882],[-2.0101453,53.914928],[-2.0105873,53.9154863],[-2.0110928,53.9161471],[-2.0116011,53.9168971],[-2.011775,53.9171644],[-2.0121455,53.9177042],[-2.0124552,53.9181554],[-2.0131495,53.919148],[-2.0135882,53.9198351],[-2.0140397,53.920495],[-2.0144955,53.9211668],[-2.0149534,53.9218407],[-2.0152856,53.922327],[-2.0155957,53.9227791],[-2.0156061,53.9227932],[-2.0165404,53.9241827],[-2.0170307,53.9248987],[-2.0174835,53.9255658],[-2.0185674,53.9271595],[-2.0196549,53.9287524],[-2.0200332,53.9293233],[-2.0203791,53.9298858],[-2.020713,53.9304544],[-2.0210211,53.93103],[-2.0214613,53.9320124],[-2.0214751,53.9320464],[-2.0216618,53.9325084],[-2.0218341,53.9330025],[-2.0220466,53.9337087],[-2.0221453,53.9340744],[-2.0222257,53.9344157],[-2.0223054,53.93483],[-2.0223668,53.9352213],[-2.0224742,53.9360241],[-2.0225225,53.9370552],[-2.022515,53.9375731],[-2.0224898,53.9380917],[-2.0224842,53.9381599],[-2.0224401,53.9386181],[-2.0223758,53.9391017],[-2.0221979,53.9400798],[-2.0220776,53.9406174],[-2.0220048,53.9409637],[-2.0218828,53.9415212],[-2.0217701,53.94206],[-2.0215768,53.9431816],[-2.0213899,53.9440973],[-2.0213488,53.9442985],[-2.0212036,53.9449731],[-2.021057,53.9456435],[-2.0208963,53.9463753],[-2.0208198,53.9467396],[-2.0207364,53.9471064],[-2.02058,53.9478347],[-2.0204233,53.9485665],[-2.0202561,53.9493151],[-2.0200966,53.9500509],[-2.0198842,53.951084],[-2.0198045,53.9516077],[-2.0197676,53.9521268],[-2.0197549,53.9529257],[-2.0197896,53.9537291],[-2.019842,53.9542258],[-2.0198782,53.9544867],[-2.0199395,53.9547256],[-2.0200398,53.955013],[-2.0201538,53.9552676],[-2.0202694,53.9554867],[-2.0203966,53.9556843],[-2.0205967,53.9559676],[-2.0206981,53.9560973],[-2.0207953,53.9562164],[-2.020994,53.9564139],[-2.0210858,53.9565051],[-2.0211699,53.9565887],[-2.0214074,53.9567812],[-2.0216714,53.9569786],[-2.021963,53.9571614],[-2.0222538,53.9573218],[-2.0226173,53.9575043],[-2.023036,53.9576921],[-2.0232758,53.9577798],[-2.0237259,53.957935],[-2.0242317,53.9580976],[-2.0247656,53.9582352],[-2.025229,53.9583335],[-2.0256663,53.9584079],[-2.0261222,53.9584663],[-2.0265269,53.9585015],[-2.0269787,53.9585316],[-2.0275321,53.9585449],[-2.0280446,53.9585362],[-2.0286952,53.958496],[-2.0291805,53.9584471],[-2.0296532,53.9583735],[-2.0302521,53.9582673],[-2.0307546,53.958161],[-2.031146,53.9580704],[-2.0336685,53.9574865],[-2.0370142,53.9567216],[-2.038128,53.9564902],[-2.0385554,53.9564163],[-2.0390026,53.9563513],[-2.0395951,53.9562882],[-2.039946,53.9562618],[-2.0402781,53.9562487],[-2.040651,53.9562423],[-2.0409736,53.9562417],[-2.0416087,53.9562682],[-2.041688,53.9562738],[-2.0419445,53.956292],[-2.0423144,53.9563333],[-2.0428647,53.9564138],[-2.0432644,53.9564885],[-2.043751,53.9566018],[-2.0442109,53.956722],[-2.0445816,53.9568424],[-2.0449069,53.9569541],[-2.0451188,53.9570329],[-2.045236,53.9570792],[-2.0456126,53.9572278],[-2.0472727,53.9578985],[-2.0476592,53.9580547],[-2.048388,53.9583481],[-2.0490929,53.9586316],[-2.0503168,53.9591232],[-2.0515829,53.9596381],[-2.0528325,53.9601411],[-2.0540668,53.9606342],[-2.0554919,53.9612068],[-2.0575719,53.9620293],[-2.0596776,53.9628787],[-2.0617892,53.9637292],[-2.0635597,53.9644417],[-2.0638393,53.9645542],[-2.0644916,53.9648159],[-2.071135,53.9674843],[-2.0744603,53.9688188],[-2.076123,53.9694921],[-2.0777656,53.9701485],[-2.0778776,53.9701954],[-2.0787383,53.9705393],[-2.0793782,53.9708019],[-2.0800205,53.9710743],[-2.0806602,53.9713595],[-2.0812407,53.9716412],[-2.0818598,53.9719543],[-2.0824464,53.9722699],[-2.0828967,53.9725069],[-2.0833726,53.9727383],[-2.0839799,53.9729969],[-2.0845096,53.9732001],[-2.0849142,53.9733441],[-2.0853643,53.973487],[-2.0857595,53.9735977],[-2.0862126,53.9737152],[-2.0871496,53.973917],[-2.0880569,53.9740924],[-2.0888695,53.9742402],[-2.0896325,53.9743952],[-2.0900519,53.9744898],[-2.0905039,53.9746082],[-2.0910958,53.9747767],[-2.0916439,53.97496],[-2.0922343,53.9751973],[-2.092534,53.9753177],[-2.0927697,53.975418],[-2.0935764,53.9757561],[-2.0936564,53.9757914],[-2.0954362,53.9765998],[-2.0960928,53.9768758],[-2.0967483,53.9771124],[-2.0973377,53.9773028],[-2.0979457,53.9774704],[-2.0986189,53.9776291],[-2.0991886,53.9777412],[-2.0998405,53.9778483],[-2.100542,53.9779292],[-2.1020591,53.978061],[-2.1021944,53.9780685],[-2.1032275,53.9781406],[-2.1042195,53.9782163],[-2.1050648,53.9782724],[-2.1052963,53.9782887],[-2.1062992,53.9783595],[-2.1075484,53.9784398],[-2.1088251,53.9785332],[-2.1100331,53.978624],[-2.1129143,53.9788224],[-2.1134763,53.9788634],[-2.1140899,53.978905],[-2.1162842,53.9790632],[-2.1183853,53.9792129],[-2.118981,53.9792725],[-2.1194987,53.9793375],[-2.1199874,53.9794044],[-2.1205337,53.9794973],[-2.1209392,53.9795661],[-2.1214872,53.9796767],[-2.1221113,53.9798201],[-2.1226927,53.9799653],[-2.1231716,53.9800868],[-2.1238215,53.9802566],[-2.1246082,53.980462],[-2.1253694,53.9806605],[-2.1260312,53.9808457],[-2.126371,53.9809379],[-2.1272078,53.9811817],[-2.1277065,53.9813436],[-2.1282213,53.981527],[-2.1288862,53.9817792],[-2.1295548,53.9820612],[-2.1299776,53.9822445],[-2.1304927,53.9824927],[-2.1310216,53.9827634],[-2.1316017,53.983105],[-2.1321309,53.9834358],[-2.132822,53.9839152],[-2.1334657,53.9844056],[-2.134295,53.9850117],[-2.1351128,53.9856188],[-2.1354849,53.9859156],[-2.1358544,53.9862361],[-2.1361786,53.9865682],[-2.1364596,53.9868917],[-2.1368137,53.9873917],[-2.1370941,53.9878883],[-2.1372672,53.9882409],[-2.1373899,53.988562],[-2.1374168,53.9886632],[-2.1374894,53.9889343],[-2.137543,53.9892222],[-2.1376659,53.9898466],[-2.1378005,53.9904352],[-2.1379273,53.9910146],[-2.1379783,53.9912286],[-2.1381051,53.9917687],[-2.1381795,53.9920471],[-2.1382765,53.9923052],[-2.1384195,53.9926544],[-2.1386005,53.9930024],[-2.1388136,53.9933553],[-2.1390375,53.9936713],[-2.1392377,53.9939434],[-2.1394746,53.9942129],[-2.1397192,53.9944767],[-2.1399638,53.994727],[-2.1403334,53.9950937],[-2.1407486,53.9954499],[-2.1409828,53.995645],[-2.141174,53.9958022],[-2.1414068,53.995974],[-2.1416414,53.9961274],[-2.1417725,53.9962083],[-2.141926,53.9963031],[-2.1420508,53.9963768],[-2.1430945,53.9969414],[-2.1441036,53.997475],[-2.1446631,53.9978131],[-2.1449054,53.9979752],[-2.1451696,53.9981589],[-2.1455458,53.9984374],[-2.1457204,53.9985696],[-2.1458947,53.9987026],[-2.1462308,53.998999],[-2.1464849,53.9992646],[-2.1471601,53.9999633],[-2.1477758,54.0005722],[-2.148387,54.0011793],[-2.1496424,54.0024507],[-2.1502884,54.0030685],[-2.1509534,54.0036338],[-2.1516851,54.0041589],[-2.1524901,54.004686],[-2.1534159,54.0051971],[-2.1543455,54.0056608],[-2.1549255,54.005933],[-2.1557231,54.0062739],[-2.156474,54.006541],[-2.1572414,54.0067904],[-2.1584097,54.0071148],[-2.1596099,54.0074008],[-2.1624839,54.00807],[-2.1652809,54.0087178],[-2.1687621,54.0094978],[-2.1708799,54.0100082],[-2.1719491,54.0102591],[-2.1725211,54.010373],[-2.1731496,54.0104755],[-2.1738645,54.0105655],[-2.1745261,54.010638],[-2.1749959,54.0106681],[-2.1754913,54.0106962],[-2.1763611,54.0107068],[-2.1770987,54.010692],[-2.177863,54.0106411],[-2.1795533,54.0104636],[-2.1812447,54.0102801],[-2.1814329,54.0102601],[-2.1828797,54.0101002],[-2.1840144,54.0099756],[-2.1846117,54.009897],[-2.1851743,54.0098065],[-2.1859257,54.0096509],[-2.1866319,54.0094758],[-2.1875461,54.0092071],[-2.188391,54.0089192],[-2.1888159,54.0087517],[-2.1892976,54.0085432],[-2.190511,54.0079092],[-2.1911705,54.0074975],[-2.1918677,54.007099],[-2.1925209,54.0067512],[-2.1932485,54.0064341],[-2.1939065,54.0061786],[-2.1946189,54.0059477],[-2.1955128,54.005699],[-2.1964523,54.0054892],[-2.1971019,54.005378],[-2.1978426,54.0052726],[-2.1985891,54.0052015],[-2.1994068,54.0051537],[-2.1999228,54.0051431],[-2.200472,54.0051431],[-2.2010181,54.0051556],[-2.201564,54.0051872],[-2.2026573,54.0052781],[-2.2037559,54.005403],[-2.2078444,54.00583],[-2.2088169,54.0059483],[-2.2103426,54.0060721],[-2.2113048,54.0061229],[-2.2125772,54.0061578],[-2.213857,54.0062233],[-2.2148731,54.0063055],[-2.2159393,54.0064247],[-2.2166808,54.0065367],[-2.2174891,54.0066732],[-2.2182945,54.0068375],[-2.2189576,54.0069933],[-2.2194541,54.0071317],[-2.2195038,54.0071445],[-2.2199455,54.0072732],[-2.2204523,54.0074258],[-2.2209198,54.0075694],[-2.2216575,54.0078342],[-2.2223344,54.0081033],[-2.2226472,54.0082356],[-2.2227417,54.0082756],[-2.2230408,54.0084021],[-2.2237382,54.0087106],[-2.2240969,54.0088945],[-2.2245076,54.009102],[-2.2249634,54.0093686],[-2.2258055,54.0099213],[-2.2261594,54.0101978],[-2.226426,54.0103369],[-2.2270297,54.0106744],[-2.2275986,54.0109789],[-2.2282156,54.0112582],[-2.2286804,54.0114497],[-2.229292,54.011693],[-2.2300078,54.0119457],[-2.2307958,54.0122062],[-2.2314555,54.0124024],[-2.2322194,54.0125829],[-2.2333172,54.0128183],[-2.2343375,54.0129847],[-2.2350803,54.0130816],[-2.2352993,54.0131007],[-2.2355203,54.0131246],[-2.236624,54.0132152],[-2.2403088,54.0134473],[-2.2433631,54.0136414],[-2.244775,54.0137467],[-2.2455126,54.0138145],[-2.2461165,54.0138854],[-2.2468792,54.0139895],[-2.2476362,54.0141265],[-2.2484046,54.0142763],[-2.2491191,54.0144403],[-2.2499171,54.0146394],[-2.2505189,54.014793],[-2.251203,54.0150182],[-2.2517635,54.0152179],[-2.2531439,54.0157524],[-2.2544019,54.016335],[-2.2547601,54.0165052],[-2.2551115,54.0166592],[-2.2562594,54.0172125],[-2.2573517,54.0177638],[-2.2583542,54.0183857],[-2.2588993,54.0187492],[-2.2592796,54.0190441],[-2.2607143,54.0202487],[-2.2614307,54.0208613],[-2.2622243,54.0214483],[-2.2638169,54.022517],[-2.2645907,54.0229669],[-2.2647501,54.0230513],[-2.2650942,54.0232652],[-2.2660076,54.0237058],[-2.2664511,54.0239207],[-2.2668947,54.0241248],[-2.268239,54.0247066],[-2.2692542,54.0250822],[-2.2698129,54.0252949],[-2.2703966,54.0255137],[-2.2714027,54.0258985],[-2.2719639,54.0261342],[-2.2724413,54.0263416],[-2.2727198,54.0264633],[-2.2729566,54.0265757],[-2.2734703,54.0268251],[-2.2739401,54.0270603],[-2.2744417,54.0273339],[-2.2769515,54.0288124],[-2.2785043,54.0297741],[-2.2791652,54.0301602],[-2.2797075,54.0304903],[-2.2800561,54.0307098],[-2.2803427,54.0309055],[-2.2805913,54.0310866],[-2.2806717,54.0311452],[-2.2808099,54.0312459],[-2.2812774,54.0316231],[-2.2816597,54.0319608],[-2.2819606,54.0322598],[-2.2824824,54.0328311],[-2.2828916,54.0333798],[-2.2835848,54.0345091],[-2.2836253,54.0345752],[-2.2840191,54.0352167],[-2.2844722,54.0359922],[-2.2846878,54.036391],[-2.284876,54.0367753],[-2.2851727,54.0375058],[-2.285417,54.038216],[-2.2855607,54.0388084],[-2.2856257,54.0391197],[-2.2856536,54.0392577],[-2.2857023,54.039533],[-2.2857434,54.040003],[-2.285748,54.040042],[-2.2857947,54.0403791],[-2.285843,54.0407632],[-2.285991,54.0421977],[-2.2860792,54.0431161],[-2.2861398,54.0439897],[-2.2861403,54.044588],[-2.2861311,54.0451795],[-2.2860969,54.0463408],[-2.2860642,54.0474971],[-2.286061,54.0475886],[-2.286008,54.049003],[-2.2859635,54.0504163],[-2.2859598,54.0507298],[-2.2859379,54.0510952],[-2.2859255,54.051507],[-2.2858085,54.0546584],[-2.2857857,54.0555368],[-2.2857892,54.0556308],[-2.2857882,54.0556534],[-2.2857383,54.0567904],[-2.2857098,54.057487],[-2.2856711,54.0579058],[-2.285596,54.0582533],[-2.2854633,54.0588265],[-2.285366,54.0591343],[-2.2852627,54.0594402],[-2.2851233,54.0598096],[-2.2849882,54.0601518],[-2.2848615,54.0604269],[-2.2846866,54.0607702],[-2.2845257,54.0610813],[-2.2840749,54.0618117],[-2.2836778,54.0624459],[-2.2828827,54.0637258],[-2.2828206,54.0638319],[-2.2823885,54.0644752],[-2.282,54.0650879],[-2.2812227,54.0662961],[-2.2808066,54.0669611],[-2.2806167,54.0672578],[-2.2804726,54.0674677],[-2.2797394,54.0686426],[-2.2796355,54.0688068],[-2.2793378,54.0692484],[-2.2788408,54.0700371],[-2.2784299,54.0706664],[-2.278191,54.0710782],[-2.2777033,54.071963],[-2.2775329,54.0723512],[-2.2774051,54.0727101],[-2.2772803,54.0731204],[-2.2771863,54.0735155],[-2.2771661,54.0735957],[-2.2770842,54.074212],[-2.2770628,54.0748438],[-2.2770777,54.0752312],[-2.2771051,54.075592],[-2.2771669,54.0759769],[-2.2771952,54.0761724],[-2.2772358,54.0763579],[-2.2774173,54.0771248],[-2.277456,54.07731],[-2.277559,54.0780362],[-2.277585,54.07862],[-2.2775877,54.0789772],[-2.2775655,54.0793516],[-2.277525,54.0797275],[-2.2774694,54.0800673],[-2.2774059,54.0803902],[-2.277334,54.0806621],[-2.2771382,54.0813247],[-2.2770055,54.0816742],[-2.2768691,54.0819953],[-2.2767067,54.0823333],[-2.2765567,54.0826334],[-2.2763753,54.0829725],[-2.2761936,54.0832821],[-2.2759862,54.0835977],[-2.275749,54.0839099],[-2.2754292,54.084349],[-2.2750186,54.0848445],[-2.2742987,54.0857312],[-2.2735812,54.0866229],[-2.2732318,54.0870721],[-2.2729386,54.0875175],[-2.272714,54.0878709],[-2.2725034,54.0882338],[-2.2723784,54.0884615],[-2.272283,54.0886936],[-2.2720738,54.0891928],[-2.2719027,54.0897219],[-2.271882,54.0897894],[-2.2718537,54.0898796],[-2.2717515,54.0902903],[-2.2717198,54.0904529],[-2.2716499,54.0908821],[-2.2716272,54.0911048],[-2.2716079,54.0913275],[-2.2715886,54.0917898],[-2.2716405,54.0927072],[-2.2717943,54.093559],[-2.2720311,54.094289],[-2.2727761,54.0957582],[-2.2732594,54.0964915],[-2.2738003,54.0971807],[-2.274588,54.0980511],[-2.2751097,54.0986119],[-2.2757039,54.0992202],[-2.276097,54.0996428],[-2.276159,54.0997094],[-2.2766813,54.1002708],[-2.2767478,54.1003423],[-2.2772483,54.1008803],[-2.2788409,54.1025332],[-2.2799153,54.1036815],[-2.2808544,54.1046983],[-2.2809825,54.104837],[-2.2814209,54.1053308],[-2.2818294,54.1058272],[-2.2818953,54.1058991],[-2.282246,54.1063521],[-2.2825749,54.1068047],[-2.2833251,54.1079199],[-2.283676,54.1084909],[-2.2839801,54.1090305],[-2.2842363,54.1094509],[-2.2845867,54.1099707],[-2.2851453,54.1107389],[-2.2857911,54.1114898],[-2.2864097,54.112131],[-2.2864899,54.1121984],[-2.2869494,54.1126549],[-2.2871651,54.1129025],[-2.2874169,54.1131916],[-2.2879067,54.1138393],[-2.288339,54.1145484],[-2.2885634,54.1149774],[-2.2886564,54.1151685],[-2.2887197,54.1153075],[-2.288902,54.1158376],[-2.2890594,54.1163639],[-2.2891279,54.1166737],[-2.2891564,54.1169326],[-2.2891842,54.1175154],[-2.2891972,54.1185052],[-2.2892152,54.1190455],[-2.2892383,54.1193149],[-2.2892793,54.1195906],[-2.289395,54.120216],[-2.2894915,54.1205973],[-2.2895703,54.1208515],[-2.2897446,54.1213687],[-2.2900648,54.1221286],[-2.2903661,54.1227033],[-2.2907188,54.1232764],[-2.2909977,54.1236712],[-2.2916592,54.1244947],[-2.2923843,54.1253128],[-2.2924919,54.125436],[-2.2933522,54.1264134],[-2.2934688,54.1265442],[-2.2954585,54.1287751],[-2.2962695,54.1296759],[-2.2963223,54.1297391],[-2.2973261,54.1308841],[-2.2981848,54.1318766],[-2.2989978,54.1328683],[-2.2991015,54.1330061],[-2.2993319,54.1333122],[-2.2995805,54.1337065],[-2.3000329,54.1344852],[-2.3004048,54.1352716],[-2.3005867,54.1357635],[-2.3007444,54.136201],[-2.3009033,54.1366789],[-2.3010162,54.1371192],[-2.3011577,54.137854],[-2.3012642,54.1387257],[-2.3012753,54.1389534],[-2.3012854,54.1392768],[-2.3012734,54.1398223],[-2.3012738,54.1398917],[-2.3012515,54.1402127],[-2.3012086,54.1405264],[-2.3011268,54.1411552],[-2.3009632,54.1424233],[-2.3008459,54.1436446],[-2.300829,54.1446938],[-2.3008966,54.1455692],[-2.3009071,54.145656],[-2.3009551,54.1459703],[-2.3009679,54.1460574],[-2.3010808,54.1466101],[-2.3012225,54.1471336],[-2.301363,54.1475823],[-2.3015459,54.1480695],[-2.3018098,54.1486736],[-2.3018836,54.1488261],[-2.3020971,54.1492473],[-2.3023343,54.1496588],[-2.302346,54.1496791],[-2.3028328,54.1504658],[-2.3028673,54.1505172],[-2.3028936,54.1505564],[-2.3034324,54.151267],[-2.3034896,54.1513424],[-2.3046359,54.1528259],[-2.3047404,54.1529652],[-2.3054368,54.1538533],[-2.3057863,54.1543046],[-2.3061308,54.1547586],[-2.3068168,54.1556149],[-2.3081794,54.157368],[-2.3091268,54.1586217],[-2.3116057,54.1617674],[-2.312209,54.1624153],[-2.3130633,54.1631991],[-2.3138678,54.1638627],[-2.3145552,54.1643897],[-2.3160148,54.1653719],[-2.3174724,54.1663162],[-2.3175564,54.166372],[-2.3187822,54.1672021],[-2.3200386,54.1680296],[-2.3201151,54.1680786],[-2.3230459,54.170055],[-2.3231158,54.1701026],[-2.3258515,54.1719506],[-2.3262427,54.1722234],[-2.3266079,54.1725025],[-2.3269316,54.1727499],[-2.3272721,54.1730221],[-2.32788,54.1735432],[-2.3279551,54.1736059],[-2.328407,54.1740345],[-2.3291586,54.174849],[-2.3295026,54.1752754],[-2.3298192,54.1756857],[-2.3298792,54.1757645],[-2.3302964,54.1763551],[-2.3306481,54.1769391],[-2.3307159,54.1770749],[-2.3308824,54.1773759],[-2.3316691,54.1788079],[-2.3323742,54.1802259],[-2.3324312,54.1803374],[-2.3328457,54.1811306],[-2.3333136,54.1820075],[-2.3338243,54.1829124],[-2.3342431,54.1837427],[-2.3348254,54.1849498],[-2.3348694,54.1850216],[-2.3365108,54.1881776],[-2.3379016,54.1908514],[-2.3382248,54.191489],[-2.3382544,54.1915473],[-2.3386249,54.1922293],[-2.3393566,54.1936357],[-2.3398932,54.1944502],[-2.3405516,54.1952524],[-2.3409877,54.1957938],[-2.3412886,54.1961593],[-2.3414234,54.1962965],[-2.3415626,54.1964384],[-2.3420257,54.1968849],[-2.3423146,54.1971486],[-2.342685,54.1974677],[-2.3428372,54.1975949],[-2.3431571,54.1978538],[-2.343639,54.1982186],[-2.3441672,54.1985993],[-2.3444484,54.1987933],[-2.3447395,54.198985],[-2.3453339,54.1993601],[-2.3467422,54.2002198],[-2.3481712,54.2010846],[-2.3486878,54.2013867],[-2.3491018,54.2016164],[-2.3495058,54.2018331],[-2.3498853,54.202025],[-2.3502748,54.2022168],[-2.3510369,54.2025676],[-2.3516206,54.202823],[-2.3522286,54.2030742],[-2.3528056,54.2032983],[-2.3533266,54.2034909],[-2.3537298,54.2036337],[-2.3541627,54.2037831],[-2.3546292,54.203933],[-2.355571,54.2042088],[-2.3573609,54.2047073],[-2.3581408,54.2049217],[-2.3589234,54.2051294],[-2.3597644,54.2053663],[-2.3599212,54.2054075],[-2.3603749,54.2055297],[-2.3609445,54.2056921],[-2.3615604,54.2058502],[-2.3620789,54.2060065],[-2.3625904,54.2061705],[-2.3630947,54.2063418],[-2.3635513,54.2065057],[-2.3640012,54.2066757],[-2.3642465,54.2067721],[-2.3647055,54.2069597],[-2.3651566,54.2071538],[-2.3656281,54.2073674],[-2.3660899,54.2075879],[-2.3668695,54.2079824],[-2.3679551,54.2086085],[-2.3682841,54.2088165],[-2.3686246,54.2090421],[-2.368956,54.2092723],[-2.3692779,54.2095071],[-2.3695903,54.2097462],[-2.3698929,54.2099895],[-2.3701856,54.210237],[-2.3704682,54.2104885],[-2.3707451,54.2107482],[-2.3710113,54.2110118],[-2.3712666,54.211279],[-2.3715108,54.2115498],[-2.3717439,54.2118239],[-2.3719503,54.2120815],[-2.3721467,54.2123418],[-2.3723332,54.2126045],[-2.3725096,54.2128696],[-2.3726734,54.213133],[-2.3728273,54.2133984],[-2.3729711,54.2136658],[-2.3730388,54.2137993],[-2.3731724,54.21408],[-2.3732756,54.214316],[-2.373442,54.2147441],[-2.3735831,54.2151753],[-2.3736676,54.2154824],[-2.3737537,54.2157893],[-2.3738061,54.2160222],[-2.3738508,54.2162557],[-2.3738878,54.2164896],[-2.3739193,54.2167454],[-2.3739417,54.2170015],[-2.3739549,54.2172579],[-2.3739582,54.2174024],[-2.3739107,54.218147],[-2.3739004,54.2182343],[-2.373858,54.2185417],[-2.3737617,54.2189425],[-2.3737188,54.2191475],[-2.3736419,54.2194014],[-2.373592,54.2195635],[-2.373494,54.2198425],[-2.3734751,54.2198907],[-2.3733594,54.2201904],[-2.373249,54.2204728],[-2.373179,54.2206577],[-2.3730952,54.2208651],[-2.3729902,54.2210986],[-2.3728839,54.2213563],[-2.3727685,54.221612],[-2.3726667,54.2218346],[-2.3725627,54.2220514],[-2.3723776,54.2224053],[-2.3721939,54.2227618],[-2.3719355,54.2232549],[-2.3697815,54.2272611],[-2.3696423,54.2275148],[-2.3696103,54.2275699],[-2.369473,54.2278543],[-2.3674092,54.2316712],[-2.3672554,54.231905],[-2.3669968,54.232279],[-2.3667078,54.2326482],[-2.3664087,54.2330095],[-2.3661164,54.2333749],[-2.3657815,54.2337314],[-2.3654278,54.2340906],[-2.3647814,54.2346556],[-2.3614537,54.2374136],[-2.3589214,54.2394939],[-2.3553982,54.2423779],[-2.3533636,54.2440574],[-2.3513511,54.2456995],[-2.350044,54.2467663],[-2.348361,54.2481339],[-2.3464595,54.2496853],[-2.3459237,54.2501469],[-2.3455432,54.2504626],[-2.3454855,54.2505165],[-2.3453854,54.25061],[-2.3449951,54.2509805],[-2.3449481,54.2510252],[-2.344901,54.2510699],[-2.3444591,54.2515423],[-2.3440522,54.2520257],[-2.3436832,54.2525185],[-2.3435151,54.2527697],[-2.3433508,54.2530215],[-2.3430651,54.2535378],[-2.342979,54.2537169],[-2.3427837,54.2541398],[-2.342665,54.2544363],[-2.3425529,54.2547654],[-2.3425039,54.2549211],[-2.3424631,54.2550767],[-2.3423852,54.2554006],[-2.3423227,54.2557175],[-2.3422752,54.2560532],[-2.3422457,54.2563884],[-2.3422266,54.2566848],[-2.3422285,54.2570383],[-2.3422313,54.2571315],[-2.3422616,54.2575346],[-2.3422994,54.2578294],[-2.3423383,54.25807],[-2.3423871,54.2583105],[-2.3424458,54.2585552],[-2.3425091,54.2587885],[-2.3426255,54.2591529],[-2.3427442,54.2594981],[-2.3429333,54.260034],[-2.3431055,54.2605532],[-2.3433727,54.2612839],[-2.3436231,54.2620043],[-2.3438326,54.2626066],[-2.3440139,54.2632003],[-2.344135,54.2637101],[-2.3442388,54.2644336],[-2.3443118,54.2653021],[-2.3443586,54.265723],[-2.3444158,54.2661367],[-2.3444868,54.266508],[-2.3445983,54.2669287],[-2.3447405,54.2673463],[-2.3449636,54.2678852],[-2.3451357,54.2682402],[-2.3453463,54.2686168],[-2.3456574,54.2690662],[-2.3457931,54.2692512],[-2.3462453,54.2698127],[-2.3464627,54.270056],[-2.3466569,54.2702592],[-2.3470076,54.2706025],[-2.3473447,54.2709118],[-2.3476772,54.2711905],[-2.3480141,54.2714655],[-2.3486928,54.2720045],[-2.3497255,54.2728228],[-2.3507898,54.2736569],[-2.3514115,54.2741489],[-2.3517255,54.2744017],[-2.3518939,54.274533],[-2.3520579,54.2746594],[-2.3527482,54.275206],[-2.3531871,54.2755452],[-2.3536137,54.2758649],[-2.3537348,54.2759534],[-2.3540021,54.2761365],[-2.3545072,54.2764763],[-2.3551295,54.2768674],[-2.3554459,54.2770594],[-2.3557601,54.277244],[-2.3586912,54.2788944],[-2.3597822,54.2794993],[-2.3607287,54.2800458],[-2.3610574,54.2802473],[-2.3613593,54.280446],[-2.3616444,54.2806461],[-2.3619321,54.2808618],[-2.362467,54.2813049],[-2.3627864,54.2816132],[-2.3629383,54.2817681],[-2.3630769,54.2819181],[-2.3633015,54.2821735],[-2.3636239,54.2825906],[-2.3637923,54.2828396],[-2.3639261,54.283059],[-2.3639797,54.2831547],[-2.3640978,54.2833635],[-2.3641793,54.2835225],[-2.3642626,54.2836951],[-2.3643558,54.2839455],[-2.3644817,54.2843014],[-2.3645995,54.2847662],[-2.3646113,54.2848339],[-2.3646783,54.2852179],[-2.3647088,54.2854522],[-2.3647123,54.2856299],[-2.3647123,54.2858471],[-2.3647051,54.2860326],[-2.3646845,54.2862621],[-2.3646464,54.2864958],[-2.364596,54.2867311],[-2.364559,54.2868881],[-2.3644879,54.2871608],[-2.3644079,54.2873951],[-2.3642374,54.2878755],[-2.3640836,54.2882946],[-2.3639256,54.288716],[-2.3635989,54.2895391],[-2.3632757,54.2903816],[-2.3631047,54.2908043],[-2.3629357,54.2912376],[-2.3623016,54.2929371],[-2.3614266,54.2952495],[-2.36103,54.2962672],[-2.3604501,54.2977995],[-2.3598762,54.2992915],[-2.359445,54.3003708],[-2.3589261,54.3014883],[-2.358633,54.3020574],[-2.3582418,54.3026047],[-2.3579066,54.3029833],[-2.357679,54.3032317],[-2.3575309,54.3033694],[-2.3573424,54.3035495],[-2.3570989,54.3037613],[-2.3568076,54.3039965],[-2.3566538,54.3041162],[-2.3565296,54.3042113],[-2.3562602,54.3043983],[-2.3560311,54.30455],[-2.3558158,54.30469],[-2.3555945,54.3048232],[-2.3553825,54.3049466],[-2.3551411,54.3050849],[-2.3549165,54.3052077],[-2.3544411,54.3054447],[-2.3539046,54.30571],[-2.3533509,54.3059795],[-2.352281,54.3065046],[-2.3512104,54.3070286],[-2.350139,54.3075486],[-2.3491217,54.3080484],[-2.3486103,54.3082975],[-2.3481068,54.3085468],[-2.3461053,54.3095388],[-2.3418885,54.3116313],[-2.3406986,54.3122878],[-2.3392355,54.313232],[-2.3385308,54.3137273],[-2.3378008,54.314228],[-2.3363679,54.3152053],[-2.335613,54.3157127],[-2.3348702,54.3162364],[-2.333756,54.316989],[-2.3334057,54.3172444],[-2.3325608,54.3178406],[-2.3310085,54.3188704],[-2.3301389,54.3194586],[-2.3296312,54.3197669],[-2.3292313,54.3200076],[-2.3287095,54.3203055],[-2.3281371,54.3206033],[-2.327975,54.3206874],[-2.3276104,54.3208746],[-2.3272455,54.3210489],[-2.3269891,54.3211691],[-2.3268529,54.3212333],[-2.3263553,54.3214501],[-2.3243511,54.3223225],[-2.3241779,54.3223979],[-2.3227651,54.3230812],[-2.3224387,54.3232685],[-2.3214199,54.3239363],[-2.3207105,54.3244962],[-2.3202742,54.3248824],[-2.3200529,54.325094],[-2.3197954,54.3253689],[-2.3195879,54.3256005],[-2.3193994,54.3258392],[-2.3192128,54.3260919],[-2.3190214,54.3263819],[-2.3188988,54.326601],[-2.3185943,54.3271682],[-2.3184548,54.3275604],[-2.3183254,54.3280196],[-2.3182754,54.3282126],[-2.3181526,54.3285909],[-2.3181492,54.3289756],[-2.3181516,54.3293204],[-2.3181433,54.3296807],[-2.3181807,54.3300012],[-2.3182547,54.3304111],[-2.3185277,54.3312991],[-2.318628,54.3315346],[-2.318711,54.3317422],[-2.3187905,54.3319145],[-2.318923,54.3321547],[-2.3190304,54.3323006],[-2.3196159,54.3331969],[-2.3199705,54.3335411],[-2.32005,54.3336182],[-2.3203948,54.3339511],[-2.3213473,54.3347333],[-2.3226362,54.33584],[-2.322967,54.3361067],[-2.323854,54.3369611],[-2.3242285,54.3374087],[-2.3244814,54.3377214],[-2.3253524,54.3388529],[-2.3254087,54.3389332],[-2.3257313,54.3395235],[-2.3260713,54.3400715],[-2.3262982,54.3405963],[-2.3269534,54.3423136],[-2.3273506,54.3430981],[-2.3274725,54.3433198],[-2.3276283,54.3435451],[-2.3282144,54.3444738],[-2.3288026,54.3453443],[-2.329338,54.3462231],[-2.3298987,54.3470933],[-2.3302987,54.3477303],[-2.3307325,54.3483726],[-2.3313447,54.3493215],[-2.3319673,54.3502577],[-2.3321493,54.3505384],[-2.3322017,54.3506192],[-2.3326371,54.3512906],[-2.3327632,54.3514881],[-2.3328626,54.3516409],[-2.3329459,54.3517657],[-2.3334769,54.3525612],[-2.3339254,54.3532199],[-2.334389,54.3538385],[-2.3351781,54.3550175],[-2.3358261,54.3560362],[-2.3364618,54.3570892],[-2.3366514,54.3573844],[-2.3368372,54.3576419],[-2.337197,54.358089],[-2.3375818,54.3585381],[-2.3379682,54.3589487],[-2.3385942,54.3595709],[-2.3388686,54.3598547],[-2.3391534,54.3601118],[-2.3396495,54.360499],[-2.3416297,54.3620117],[-2.3428012,54.3628872],[-2.343922,54.3637995],[-2.3443316,54.3641221],[-2.3451103,54.3647267],[-2.3459146,54.3653221],[-2.3467197,54.3659454],[-2.3474356,54.3665523],[-2.3477325,54.3667945],[-2.3482072,54.3672066],[-2.348304,54.3672972],[-2.3488552,54.3678732],[-2.3491562,54.3682838],[-2.3494466,54.3686651],[-2.3497118,54.369053],[-2.3498374,54.3692553],[-2.3500208,54.3695688],[-2.3501837,54.3698842],[-2.3503515,54.3702428],[-2.3504938,54.3705745],[-2.3506232,54.3709266],[-2.3507599,54.3713886],[-2.3508678,54.3718161],[-2.3509355,54.372179],[-2.3510103,54.3725871],[-2.3510541,54.3728036],[-2.3510726,54.3729512],[-2.3510784,54.3730784],[-2.3510505,54.3733284],[-2.3510248,54.3736625],[-2.3509843,54.3740577],[-2.3508942,54.3744516],[-2.3508082,54.374865],[-2.3506987,54.3752246],[-2.3505314,54.3756477],[-2.3503715,54.3760132],[-2.3501769,54.37641],[-2.3501379,54.3765039],[-2.3500949,54.3765795],[-2.3499653,54.3767877],[-2.349829,54.3769807],[-2.3496914,54.3771642],[-2.3494124,54.3775441],[-2.3493351,54.3776514],[-2.3488766,54.3782762],[-2.3481941,54.3791917],[-2.3475145,54.3800991],[-2.3466042,54.381336],[-2.3456824,54.3825669],[-2.3449669,54.3835619],[-2.3446158,54.3840635],[-2.3443073,54.3845717],[-2.3440009,54.3850898],[-2.34375,54.3855886],[-2.3433064,54.3865967],[-2.3430731,54.3871923],[-2.3428586,54.3877951],[-2.3426972,54.3884088],[-2.3425557,54.3889401],[-2.3425349,54.3890343],[-2.3423597,54.3900807],[-2.3422736,54.3909361],[-2.3422555,54.3914333],[-2.3422538,54.3914989],[-2.3422434,54.3917952],[-2.3422841,54.3926285],[-2.3423624,54.3933323],[-2.3423717,54.393526],[-2.3426457,54.3950103],[-2.3428023,54.3956985],[-2.3429293,54.3964129],[-2.3435418,54.3994603],[-2.3436581,54.400064],[-2.3437767,54.4006667],[-2.3440045,54.4018939],[-2.3442954,54.4032982],[-2.3445129,54.4043735],[-2.3445279,54.4044475],[-2.3449371,54.4064703],[-2.3449461,54.4065177],[-2.3451234,54.4073913],[-2.3451731,54.4077375],[-2.345242,54.4080532],[-2.3457675,54.4106692],[-2.3462988,54.4132599],[-2.3471983,54.4156756],[-2.3473884,54.4161614],[-2.3479585,54.4176861],[-2.3485557,54.419214],[-2.3494672,54.4215372],[-2.3497027,54.4220668],[-2.3499365,54.4225393],[-2.3502517,54.4230181],[-2.3505328,54.4233963],[-2.350912,54.4238362],[-2.3536847,54.4269235],[-2.353992,54.4272662],[-2.3545852,54.4278955],[-2.3552543,54.4284712],[-2.3562657,54.429332],[-2.3566364,54.4296498],[-2.3568808,54.4298901],[-2.3572992,54.4303029],[-2.3575419,54.4305561],[-2.3580566,54.4311723],[-2.3581343,54.4312751],[-2.3584939,54.4317918],[-2.3586577,54.4320624],[-2.3588968,54.4325411],[-2.3590011,54.4327433],[-2.3591704,54.4331259],[-2.3594706,54.4339919],[-2.3597571,54.4348855],[-2.3601523,54.4361059],[-2.3606708,54.4376768],[-2.3610364,54.4387522],[-2.36152,54.4402986],[-2.3620219,54.4418291],[-2.3622839,54.4426032],[-2.362723,54.4439167],[-2.3630639,54.4449882],[-2.3634165,54.4460596],[-2.36412,54.4481956],[-2.364267,54.4486516],[-2.3643912,54.4489978],[-2.3646776,54.4497829],[-2.3648013,54.4500701],[-2.3650591,54.4506143],[-2.3652167,54.4508812],[-2.3652639,54.450961],[-2.3653491,54.4511054],[-2.3656007,54.4514815],[-2.3658922,54.4519617],[-2.3663921,54.4526088],[-2.3674416,54.4537912],[-2.3680641,54.4543653],[-2.3686887,54.454921],[-2.3688367,54.45504],[-2.3692248,54.4553521],[-2.3694719,54.4555391],[-2.3698304,54.4558002],[-2.3701798,54.4560602],[-2.3710748,54.4566164],[-2.3719912,54.457147],[-2.3727932,54.4575803],[-2.3736521,54.457997],[-2.3759566,54.459064],[-2.3786416,54.4603113],[-2.3798264,54.4608596],[-2.3812007,54.4614943],[-2.3814381,54.4616026],[-2.382777,54.4622203],[-2.3833093,54.4624716],[-2.3847591,54.4631278],[-2.3854646,54.463409],[-2.3865667,54.4638064],[-2.386925,54.4639316],[-2.3878691,54.464234],[-2.3885846,54.4644287],[-2.3895948,54.4646777],[-2.3906778,54.4649177],[-2.392716,54.4652614],[-2.3936632,54.4653928],[-2.3945947,54.4654786],[-2.3955621,54.4655283],[-2.3964491,54.4655689],[-2.3973369,54.4655885],[-2.3988482,54.465593],[-2.4004012,54.465587],[-2.4019536,54.4655904],[-2.402861,54.4656206],[-2.403658,54.4656917],[-2.4040021,54.4657206],[-2.4046543,54.4657876],[-2.4053016,54.4658703],[-2.4059427,54.4659686],[-2.4065763,54.4660821],[-2.4072012,54.4662108],[-2.4078162,54.4663544],[-2.4079981,54.4664002],[-2.4087927,54.4666189],[-2.4095659,54.4668628],[-2.4103152,54.4671311],[-2.4110385,54.4674231],[-2.411808,54.467756],[-2.412204,54.4679548],[-2.4123927,54.4680667],[-2.4129173,54.4683889],[-2.4135884,54.4687801],[-2.4137663,54.4688812],[-2.4142089,54.469165],[-2.4148838,54.4696643],[-2.4152807,54.46999],[-2.4154377,54.4701186],[-2.415727,54.4703939],[-2.4164322,54.4711574],[-2.4174316,54.472202],[-2.4182927,54.4731167],[-2.4186374,54.4734651],[-2.4194451,54.4743],[-2.420216,54.4751248],[-2.4209665,54.4759399],[-2.4213563,54.47634],[-2.421708,54.4767438],[-2.4219345,54.4770139],[-2.4221412,54.4772754],[-2.4223439,54.4775511],[-2.4225027,54.4777611],[-2.4228012,54.4782067],[-2.4230656,54.4786674],[-2.4233239,54.4791714],[-2.4235901,54.4797638],[-2.423624,54.4798345],[-2.4237224,54.4800332],[-2.4237785,54.4801984],[-2.4239493,54.4806457],[-2.4241135,54.4810555],[-2.4243417,54.4816014],[-2.4245607,54.482149],[-2.4247358,54.4826156],[-2.4248421,54.482846],[-2.4251242,54.4835284],[-2.4253118,54.4840162],[-2.4255091,54.4844979],[-2.425898,54.4854485],[-2.4260921,54.4859636],[-2.4261291,54.4860616],[-2.4265749,54.4872446],[-2.4266709,54.4875907],[-2.4267542,54.4879373],[-2.4267653,54.4879989],[-2.4268644,54.4885485],[-2.4269237,54.489055],[-2.4269469,54.489326],[-2.426951,54.4895473],[-2.4269849,54.4905324],[-2.4269948,54.4907147],[-2.4270162,54.4910782],[-2.427051,54.4923018],[-2.4270878,54.4935248],[-2.4271062,54.4946302],[-2.4271142,54.4947309],[-2.4271705,54.4951042],[-2.4272488,54.4954617],[-2.4273382,54.4958234],[-2.4274576,54.4961749],[-2.4276035,54.4965811],[-2.427703,54.4967914],[-2.4277992,54.4969718],[-2.4282124,54.4977448],[-2.4287088,54.4984214],[-2.428967,54.4987548],[-2.4292215,54.4990583],[-2.429535,54.4994041],[-2.4298642,54.4997264],[-2.430186,54.5000092],[-2.4305446,54.50031],[-2.4313099,54.5009074],[-2.4345574,54.503033],[-2.4346913,54.5031213],[-2.4369189,54.5045489],[-2.439109,54.5059728],[-2.4393471,54.5061246],[-2.4407017,54.5070101],[-2.4420145,54.5078599],[-2.4423221,54.5080577],[-2.4440226,54.5091659],[-2.4442257,54.5092945],[-2.4449007,54.5097285],[-2.4479419,54.5117119],[-2.4487006,54.5121998],[-2.4488762,54.5123125],[-2.4489911,54.5123872],[-2.4509382,54.513652],[-2.4542634,54.5158065],[-2.4548962,54.5162427],[-2.4554133,54.5166276],[-2.4557721,54.5169286],[-2.4560814,54.5171968],[-2.4565366,54.5176243],[-2.4569382,54.5180497],[-2.4570146,54.5181336],[-2.457298,54.5184802],[-2.4574794,54.5187133],[-2.4576211,54.5189078],[-2.4579029,54.519334],[-2.458196,54.5198312],[-2.4583268,54.5200914],[-2.4584328,54.5203236],[-2.4586111,54.5207462],[-2.4586579,54.520881],[-2.4587585,54.5211992],[-2.4588687,54.5215894],[-2.4589437,54.5219771],[-2.4590133,54.5224503],[-2.4590315,54.5229172],[-2.4590351,54.523048],[-2.4590297,54.5231562],[-2.4590229,54.523365],[-2.4589941,54.5237401],[-2.4589865,54.5238271],[-2.4589108,54.5248739],[-2.4585573,54.5292281],[-2.4585269,54.5296029],[-2.4585188,54.5299364],[-2.4585723,54.530581],[-2.4586149,54.5308938],[-2.4586745,54.5312097],[-2.4587729,54.5316527],[-2.4589034,54.5321032],[-2.4590587,54.5325449],[-2.4591537,54.532774],[-2.4592462,54.5329803],[-2.459464,54.5334314],[-2.4596866,54.5338452],[-2.4599533,54.5342823],[-2.4602347,54.5346829],[-2.4604628,54.5350018],[-2.4607062,54.5353082],[-2.461069,54.5357331],[-2.4614429,54.5361274],[-2.4618423,54.5365518],[-2.4622489,54.5369711],[-2.4630276,54.5378244],[-2.4631625,54.5379832],[-2.4632731,54.5381129],[-2.4637201,54.5387001],[-2.4641172,54.5393014],[-2.4642781,54.5395648],[-2.4644051,54.5398166],[-2.4646429,54.5403377],[-2.4648468,54.5408269],[-2.4650058,54.5413023],[-2.4653539,54.5424181],[-2.4657229,54.5435311],[-2.4658068,54.5438156],[-2.4660712,54.5447182],[-2.4663369,54.5456114],[-2.4668792,54.5474052],[-2.4671424,54.5482461],[-2.4671992,54.5484243],[-2.4673405,54.5488833],[-2.4674747,54.5493321],[-2.4677527,54.5502391],[-2.4682165,54.5517267],[-2.4682307,54.5517733],[-2.4684926,54.5525674],[-2.4687332,54.553355],[-2.4687927,54.5535329],[-2.4689918,54.5541289],[-2.4692757,54.5550972],[-2.46948,54.5557801],[-2.4695248,54.5559365],[-2.4697031,54.5565589],[-2.4699337,54.557323],[-2.4704051,54.5588487],[-2.4712198,54.5614897],[-2.4714718,54.5623452],[-2.4717454,54.5632],[-2.4717827,54.5633222],[-2.4719657,54.5639365],[-2.4721498,54.5645588],[-2.4725211,54.5657751],[-2.4728065,54.5667399],[-2.4731043,54.5676979],[-2.4734884,54.5689243],[-2.4736706,54.5695323],[-2.4737874,54.5698596],[-2.4739009,54.5701141],[-2.4742046,54.5708015],[-2.4745521,54.5714267],[-2.474686,54.5716297],[-2.4750475,54.5722265],[-2.475382,54.5726971],[-2.4757101,54.5731164],[-2.4760518,54.5735182],[-2.4764306,54.5739438],[-2.4764604,54.5739737],[-2.4768215,54.5743355],[-2.4773379,54.5748301],[-2.4778145,54.5752315],[-2.4788118,54.5759963],[-2.4789916,54.5761551],[-2.480628,54.5772193],[-2.4811799,54.5775358],[-2.4815557,54.577745],[-2.483075,54.5785799],[-2.4846225,54.579414],[-2.4858231,54.5800548],[-2.4864996,54.5804184],[-2.4871675,54.5807732],[-2.4873386,54.5808642],[-2.4882485,54.5813608],[-2.4886293,54.5815663],[-2.4889552,54.5817422],[-2.4902695,54.5824604],[-2.4921638,54.5834724],[-2.4943584,54.5846449],[-2.4946519,54.5848159],[-2.4953564,54.5852237],[-2.4964409,54.5859094],[-2.4969095,54.5862287],[-2.4973364,54.5865349],[-2.4976302,54.5867542],[-2.4979947,54.5870331],[-2.4982698,54.5872541],[-2.4985068,54.5874673],[-2.4991409,54.5880387],[-2.4995567,54.5884198],[-2.4996608,54.5885169],[-2.5000772,54.5889186],[-2.500458,54.5893632],[-2.5010965,54.5901559],[-2.501789,54.5911728],[-2.5021071,54.5917177],[-2.502391,54.5922817],[-2.5026591,54.5929482],[-2.5034891,54.595206],[-2.5036552,54.5956625],[-2.5036894,54.5957614],[-2.5038044,54.5960935],[-2.5041299,54.5969724],[-2.504758,54.598725],[-2.5049155,54.5991767],[-2.5049411,54.5992469],[-2.5052457,54.6000798],[-2.5055479,54.6009046],[-2.5061595,54.6025541],[-2.5063963,54.603236],[-2.5066369,54.6039036],[-2.5066771,54.6040069],[-2.5068689,54.6045544],[-2.5070623,54.6050992],[-2.5070952,54.6051896],[-2.5072604,54.6056185],[-2.5074055,54.6060163],[-2.5076769,54.6068409],[-2.5077438,54.6070381],[-2.5080956,54.6078246],[-2.5081916,54.6080271],[-2.5087309,54.6090102],[-2.5093013,54.609871],[-2.5097794,54.6104516],[-2.5101246,54.6108561],[-2.5104011,54.6111792],[-2.5109788,54.6117363],[-2.5118837,54.6125667],[-2.5127549,54.6133104],[-2.5137232,54.6140005],[-2.5149282,54.6147214],[-2.5151599,54.6148646],[-2.5152805,54.6149405],[-2.5169052,54.6159639],[-2.5177919,54.6165275],[-2.5180583,54.616697],[-2.5188332,54.6172035],[-2.519938,54.6178975],[-2.5210368,54.6185987],[-2.5217583,54.6190603],[-2.5224497,54.6195157],[-2.5225878,54.6195972],[-2.5247803,54.6209657],[-2.5257473,54.6215774],[-2.5266813,54.6221798],[-2.5282793,54.623198],[-2.5289902,54.6236512],[-2.529084,54.6237121],[-2.5312935,54.6251159],[-2.5335006,54.6265155],[-2.5336512,54.6266129],[-2.5342916,54.6270142],[-2.5361301,54.6281902],[-2.5362644,54.6282758],[-2.53758,54.6290949],[-2.5389079,54.6299256],[-2.5397005,54.6304311],[-2.5404811,54.6309349],[-2.5410682,54.6313035],[-2.5416277,54.6316666],[-2.5417956,54.6317754],[-2.5427252,54.6323776],[-2.5438292,54.6330618],[-2.5444664,54.6334369],[-2.5449915,54.633728],[-2.5455525,54.6340157],[-2.5461504,54.6343196],[-2.5466864,54.6345921],[-2.549531,54.6360431],[-2.550503,54.6365338],[-2.5518493,54.6372209],[-2.5519795,54.6372825],[-2.5527142,54.6376543],[-2.5548143,54.6387221],[-2.5562518,54.6394344],[-2.5576492,54.6401456],[-2.5603842,54.6415398],[-2.5612283,54.6419705],[-2.5613211,54.6420193],[-2.5613846,54.6420527],[-2.5632258,54.6429937],[-2.5638552,54.643317],[-2.563931,54.6433559],[-2.5646684,54.6437073],[-2.5653358,54.6440194],[-2.5660753,54.644345],[-2.5666669,54.6445839],[-2.567198,54.6447823],[-2.5681678,54.6451355],[-2.5689423,54.6453828],[-2.5693236,54.6455031],[-2.5697187,54.6456168],[-2.5704008,54.6458034],[-2.5717292,54.6461308],[-2.5735999,54.6465917],[-2.5753852,54.6470348],[-2.5757922,54.6471316],[-2.5769023,54.6474058],[-2.5798305,54.6481092],[-2.5818638,54.6485995],[-2.5822159,54.6486859],[-2.5835805,54.6490128],[-2.5848845,54.6493345],[-2.5870725,54.6498194],[-2.5879441,54.6500437],[-2.5896971,54.6504791],[-2.5907087,54.6507297],[-2.5916783,54.650971],[-2.5922614,54.6511139],[-2.5927974,54.6512594],[-2.5933615,54.6514047],[-2.5937882,54.6515351],[-2.594147,54.6516448],[-2.594483,54.6517543],[-2.5951611,54.6519805],[-2.5955627,54.6521275],[-2.595924,54.6522638],[-2.596633,54.6525418],[-2.5983476,54.6532212],[-2.6008915,54.6542456],[-2.6031231,54.6551224],[-2.6032643,54.6551762],[-2.6044768,54.6556395],[-2.6047593,54.6557474],[-2.6061627,54.6563082],[-2.6070397,54.6566642],[-2.6083434,54.6571792],[-2.6118549,54.6585662],[-2.619578,54.6616385],[-2.6202713,54.6619079],[-2.6210519,54.6621971],[-2.6214795,54.6623522],[-2.6220085,54.6625304],[-2.6229483,54.6628068],[-2.6238803,54.6630426],[-2.6251136,54.6633142],[-2.6256163,54.6634347],[-2.626172,54.6635882],[-2.6266312,54.663729],[-2.6271328,54.6639108],[-2.6274099,54.6639993],[-2.6280197,54.6642205],[-2.6286718,54.6644678],[-2.6292493,54.6647072],[-2.6297088,54.6649171],[-2.6304052,54.6652434],[-2.6310614,54.6655787],[-2.6316661,54.6659058],[-2.6324095,54.666345],[-2.6330412,54.6667532],[-2.6335409,54.6671031],[-2.6339875,54.6674453],[-2.6348828,54.6681234],[-2.6359574,54.6691852],[-2.63612,54.6693599],[-2.6362994,54.6695607],[-2.6366327,54.6699629],[-2.6370417,54.6704852],[-2.637424,54.6710162],[-2.6383539,54.6722595],[-2.6386705,54.6726982],[-2.6389782,54.6731202],[-2.6395519,54.6738731],[-2.6396067,54.6739448],[-2.6400233,54.6744152],[-2.6404392,54.6748583],[-2.6406469,54.6750656],[-2.640837,54.6752449],[-2.641273,54.6756254],[-2.6417532,54.6760421],[-2.6421997,54.6764072],[-2.6423329,54.6765075],[-2.6429654,54.6769835],[-2.6434369,54.6773062],[-2.6435459,54.6773808],[-2.6441505,54.6777768],[-2.6453201,54.678563],[-2.6465318,54.6793467],[-2.6477067,54.6801352],[-2.6482046,54.6804893],[-2.6487047,54.6808705],[-2.6491141,54.6811991],[-2.6495139,54.6815497],[-2.6497428,54.6817455],[-2.6498952,54.6818949],[-2.650306,54.6822986],[-2.6511289,54.6831156],[-2.6530395,54.6850442],[-2.6531176,54.6851189],[-2.6541175,54.6861214],[-2.6556807,54.6876859],[-2.6572068,54.6892297],[-2.6572904,54.6893109],[-2.6586162,54.6906208],[-2.6586889,54.6906915],[-2.6591349,54.6911431],[-2.6594084,54.691424],[-2.6597156,54.6917106],[-2.6599879,54.6919371],[-2.6609088,54.6926748],[-2.6614192,54.6930411],[-2.6621234,54.6935176],[-2.6626357,54.6938463],[-2.6630049,54.6940532],[-2.6636278,54.694426],[-2.6640936,54.6947072],[-2.6642563,54.6948122],[-2.6644778,54.6949448],[-2.6654007,54.6955276],[-2.6655199,54.6956062],[-2.6660593,54.6959648],[-2.6665667,54.69633],[-2.6667731,54.6964905],[-2.6672622,54.6969021],[-2.6677599,54.6973422],[-2.6684112,54.6979419],[-2.6691321,54.6986945],[-2.6696985,54.6993467],[-2.6701063,54.6998785],[-2.6705099,54.700442],[-2.6705881,54.7005819],[-2.6709971,54.7014181],[-2.6712229,54.7019083],[-2.6714354,54.7024018],[-2.671715,54.7032548],[-2.6718491,54.7037901],[-2.6719523,54.7042955],[-2.6719572,54.7043496],[-2.6719611,54.7043924],[-2.6721126,54.7054744],[-2.6722994,54.7062599],[-2.6723271,54.7063625],[-2.6726935,54.7073896],[-2.6729105,54.707868],[-2.6731741,54.7083709],[-2.673629,54.7091259],[-2.6737925,54.7093663],[-2.6739411,54.709562],[-2.6741058,54.7097836],[-2.6743767,54.710117],[-2.6747455,54.7105409],[-2.6752306,54.7110807],[-2.6756073,54.7114621],[-2.676426,54.7122577],[-2.6768558,54.7126707],[-2.6770221,54.7128323],[-2.6775373,54.7133331],[-2.6779839,54.713861],[-2.6783441,54.7142994],[-2.6790806,54.7153447],[-2.6795826,54.716184],[-2.6799229,54.7167833],[-2.6801929,54.7175939],[-2.6802868,54.7178854],[-2.680425,54.7183703],[-2.6805425,54.7188512],[-2.6805776,54.7190997],[-2.6806608,54.7196875],[-2.6807046,54.7202003],[-2.6807743,54.7214956],[-2.6808951,54.7228216],[-2.6809239,54.7233936],[-2.6809707,54.7239441],[-2.681023,54.7244787],[-2.6810955,54.7254947],[-2.6812012,54.7264199],[-2.681276,54.7273422],[-2.6814004,54.7286056],[-2.6815037,54.7292398],[-2.6815893,54.7295983],[-2.6816117,54.7296675],[-2.6816856,54.7298958],[-2.68182,54.7303235],[-2.6819396,54.7307361],[-2.6822432,54.7313417],[-2.6826195,54.7320585],[-2.6832509,54.7331215],[-2.683932,54.734296],[-2.6839705,54.7343553],[-2.6840742,54.7345225],[-2.6841058,54.7345735],[-2.6846437,54.735378],[-2.6850154,54.7358387],[-2.685498,54.736446],[-2.6866362,54.7377126],[-2.6877966,54.738965],[-2.68856,54.7397929],[-2.6893199,54.7406002],[-2.6900102,54.7413151],[-2.6903797,54.7416563],[-2.6907566,54.7419798],[-2.6912913,54.7424344],[-2.6915699,54.7426594],[-2.6918651,54.7428681],[-2.69239,54.7432315],[-2.6924936,54.7433042],[-2.6928485,54.7435552],[-2.6934317,54.7439536],[-2.6939792,54.7443177],[-2.694604,54.7447331],[-2.6952494,54.745161],[-2.6961692,54.7457651],[-2.6970793,54.7463782],[-2.6978994,54.7469137],[-2.6987378,54.7474725],[-2.6996324,54.7480838],[-2.7026213,54.7500966],[-2.7029674,54.7503276],[-2.7033829,54.7506192],[-2.7037404,54.7508829],[-2.7039019,54.7510125],[-2.7040628,54.7511344],[-2.7043347,54.7513503],[-2.7048487,54.7517988],[-2.705479,54.7523832],[-2.7060527,54.7529824],[-2.7063949,54.7533568],[-2.7067095,54.7537577],[-2.7072842,54.7545415],[-2.7074443,54.7547765],[-2.7075524,54.7549591],[-2.7078261,54.7554134],[-2.7080318,54.7558125],[-2.7082293,54.7562282],[-2.7085815,54.7569837],[-2.7089596,54.7577496],[-2.7092969,54.758445],[-2.7097392,54.759248],[-2.7100038,54.7596632],[-2.7103129,54.7600895],[-2.7106231,54.7605001],[-2.7109893,54.7609339],[-2.711365,54.7613629],[-2.7118078,54.7617954],[-2.7122016,54.7621771],[-2.7126385,54.7625704],[-2.7131357,54.7629853],[-2.7136496,54.7633897],[-2.7140057,54.7636574],[-2.7143601,54.7639084],[-2.7157482,54.7648518],[-2.7169246,54.7656203],[-2.7174808,54.7659583],[-2.7180317,54.7662788],[-2.7188126,54.7667268],[-2.7197532,54.7671525],[-2.7205586,54.767528],[-2.7214414,54.767899],[-2.7223161,54.7682377],[-2.7232357,54.768568],[-2.7246496,54.7690011],[-2.7261718,54.769455],[-2.7297899,54.7705359],[-2.731693,54.7710951],[-2.7333731,54.7716138],[-2.7339163,54.7718033],[-2.7345032,54.772019],[-2.7354247,54.7724008],[-2.7362162,54.7727597],[-2.7368645,54.7730826],[-2.7375654,54.7734702],[-2.73825,54.7738695],[-2.7388254,54.7742333],[-2.7393094,54.7745586],[-2.7403686,54.7753855],[-2.7409473,54.7758935],[-2.7413739,54.7763403],[-2.7418792,54.7769117],[-2.7423692,54.7774858],[-2.7435003,54.7786577],[-2.7439461,54.7791326],[-2.7445352,54.7796492],[-2.745174,54.7801772],[-2.7458672,54.7806898],[-2.7466147,54.7811941],[-2.7476384,54.7818299],[-2.7481687,54.7821192],[-2.7492676,54.782711],[-2.7503395,54.7832563],[-2.7512679,54.7837404],[-2.7517082,54.7839465],[-2.752611,54.7843666],[-2.7534873,54.7847543],[-2.7540708,54.7849964],[-2.7543306,54.7850817],[-2.7551502,54.7853912],[-2.756184,54.7857497],[-2.7581932,54.7862987],[-2.7603711,54.7868354],[-2.7620584,54.787291],[-2.7633369,54.7876861],[-2.7645051,54.7880481],[-2.7652818,54.7883334],[-2.766065,54.7886622],[-2.7672499,54.7892266],[-2.770074,54.7906005],[-2.771155,54.7911452],[-2.7746213,54.7928823],[-2.7753785,54.7933282],[-2.7757555,54.7935674],[-2.7760932,54.7937975],[-2.776423,54.7940471],[-2.7767335,54.7943007],[-2.7772911,54.7948262],[-2.7775433,54.7950833],[-2.7777576,54.7953115],[-2.7780586,54.7956599],[-2.7783027,54.7959407],[-2.7785138,54.7962376],[-2.7789035,54.7968211],[-2.7791926,54.7973651],[-2.7793192,54.7976335],[-2.7794103,54.7978924],[-2.7795484,54.7983028],[-2.7796303,54.7986807],[-2.779747,54.8000932],[-2.7797477,54.8002758],[-2.7797337,54.8004437],[-2.7796959,54.8006829],[-2.779663,54.8009534],[-2.7796207,54.8012004],[-2.7795592,54.8014841],[-2.7795265,54.8016277],[-2.7794914,54.8017442],[-2.779412,54.8019852],[-2.7793303,54.802201],[-2.7792255,54.8024285],[-2.7791156,54.8026326],[-2.7788566,54.8031096],[-2.7787,54.8033474],[-2.7785407,54.8035708],[-2.7783067,54.803878],[-2.7780823,54.8041578],[-2.7778094,54.8044843],[-2.777522,54.804791],[-2.7771819,54.8051094],[-2.7768391,54.8054256],[-2.7766071,54.8056256],[-2.7763862,54.8057993],[-2.7759061,54.8061685],[-2.7751857,54.8067018],[-2.7744773,54.8072321],[-2.7739163,54.807692],[-2.773338,54.8081827],[-2.772684,54.8087799],[-2.7724844,54.8089763],[-2.7720045,54.8094893],[-2.7717644,54.8097842],[-2.7715234,54.8100789],[-2.771284,54.8103876],[-2.7710435,54.8107132],[-2.7708189,54.8110462],[-2.7706121,54.8113695],[-2.7703333,54.8118141],[-2.7700972,54.8122829],[-2.7697975,54.8129155],[-2.7696484,54.8132775],[-2.7695236,54.8136318],[-2.7694343,54.8138968],[-2.7693489,54.8141904],[-2.7692939,54.8144858],[-2.7692352,54.8147957],[-2.7690679,54.8158662],[-2.7689257,54.8168276],[-2.7688433,54.8172796],[-2.7688064,54.8174507],[-2.7687921,54.8175167],[-2.7687543,54.8176919],[-2.7686425,54.8180578],[-2.7685318,54.8183996],[-2.7683938,54.8187641],[-2.7682506,54.8191006],[-2.7680618,54.8194884],[-2.7678197,54.8199723],[-2.7673312,54.8208387],[-2.7671496,54.8211668],[-2.7670176,54.8214527],[-2.7668781,54.8217726],[-2.7663985,54.8227074],[-2.7658539,54.8238888],[-2.7656756,54.8244201],[-2.7655958,54.8246911],[-2.765533,54.8249755],[-2.7655007,54.8251945],[-2.7654828,54.8255089],[-2.7654911,54.8257747],[-2.7655144,54.826036],[-2.765583,54.8265643],[-2.7656049,54.8267488],[-2.765641,54.8269431],[-2.7656966,54.8270887],[-2.7659318,54.8275698],[-2.7661811,54.8280608],[-2.766444,54.8284898],[-2.7667187,54.8289194],[-2.7669887,54.8292559],[-2.7672575,54.8295766],[-2.7676435,54.8299762],[-2.7681015,54.8303867],[-2.7684719,54.8306911],[-2.7688867,54.8309836],[-2.7690883,54.8311098],[-2.7692924,54.8312357],[-2.7700905,54.8317199],[-2.7706021,54.8320117],[-2.7711325,54.832277],[-2.7715167,54.8324577],[-2.7719215,54.8326309],[-2.7723885,54.8328176],[-2.7727065,54.8329322],[-2.7730438,54.8330438],[-2.7737632,54.8332678],[-2.7745183,54.8334942],[-2.7762175,54.8339997],[-2.7776468,54.8344514],[-2.7782304,54.8346694],[-2.778748,54.834879],[-2.7794272,54.8351763],[-2.7800515,54.8354834],[-2.7810762,54.8360514],[-2.7818075,54.8364612],[-2.7821735,54.8366968],[-2.7823494,54.8368212],[-2.7824908,54.8369379],[-2.7828684,54.8372851],[-2.7831744,54.8376062],[-2.7844519,54.8390747],[-2.7851502,54.8398877],[-2.7855093,54.8403058],[-2.785868,54.8406728],[-2.786176,54.8409796],[-2.7865536,54.8413007],[-2.7868639,54.8415626],[-2.7871812,54.8418075],[-2.7877453,54.8422434],[-2.7883902,54.842681],[-2.7892657,54.8432285],[-2.790188,54.8437685],[-2.7916912,54.8446931],[-2.7926665,54.845283],[-2.7931435,54.845566],[-2.7955091,54.8470008],[-2.7979143,54.8484582],[-2.7997043,54.8494992],[-2.8003858,54.8498451],[-2.8010492,54.8501605],[-2.8011694,54.8502219],[-2.8016413,54.8504383],[-2.8021509,54.8506622],[-2.8035257,54.8512065],[-2.8044898,54.851545],[-2.8054963,54.8518752],[-2.8061321,54.8520669],[-2.8067901,54.8522524],[-2.8074562,54.8524313],[-2.8081712,54.8526033],[-2.8090852,54.8528035],[-2.8101194,54.8530146],[-2.8107912,54.8531371],[-2.8114804,54.8532527],[-2.8121195,54.8533511],[-2.8128359,54.853445],[-2.8136273,54.8535414],[-2.8148143,54.8536439],[-2.8159968,54.8537393],[-2.8189857,54.8539719],[-2.8216299,54.8541725],[-2.8221988,54.8542175],[-2.8230402,54.8542841],[-2.8245036,54.8543919],[-2.8251378,54.8544456],[-2.8257117,54.854509],[-2.8257985,54.8545189],[-2.82595,54.8545361],[-2.8263381,54.8545802],[-2.8269798,54.8546657],[-2.8279302,54.8548194],[-2.8287419,54.8549564],[-2.8295637,54.8551165],[-2.830435,54.8552978],[-2.8308957,54.8554117],[-2.8311905,54.8554846],[-2.8318383,54.8556499],[-2.8323479,54.8557776],[-2.8325744,54.85584],[-2.8328396,54.8559131],[-2.8338028,54.85621],[-2.8343191,54.85639],[-2.8348367,54.8565746],[-2.83589,54.8569918],[-2.8367029,54.8573271],[-2.8375013,54.8576823],[-2.8382932,54.8580362],[-2.8384306,54.8581014],[-2.8392453,54.8585269],[-2.8399276,54.858895],[-2.8406326,54.8593128],[-2.84117,54.8596601],[-2.8417244,54.860031],[-2.8418109,54.860092],[-2.8423279,54.8604568],[-2.8428723,54.8608825],[-2.8432302,54.8611829],[-2.8436129,54.8615145],[-2.843986,54.8618624],[-2.8452733,54.8631361],[-2.8464337,54.8643433],[-2.8469573,54.8648526],[-2.8474743,54.8653507],[-2.8480714,54.865952],[-2.8481572,54.8660385],[-2.8484657,54.8663491],[-2.848499,54.8663831],[-2.850423,54.8683485],[-2.8525375,54.8704614],[-2.8534923,54.8714551],[-2.8546829,54.8726324],[-2.85506,54.8730053],[-2.8566025,54.8745611],[-2.8577873,54.8757169],[-2.8589143,54.8768968],[-2.8597141,54.8775766],[-2.8608625,54.8784739],[-2.8611003,54.8786426],[-2.8611926,54.8787095],[-2.8618471,54.8791685],[-2.8629058,54.8798449],[-2.8637502,54.880354],[-2.8646717,54.8808635],[-2.8651128,54.8810989],[-2.8659549,54.8815105],[-2.8666653,54.8818468],[-2.86748,54.8822007],[-2.868059,54.882442],[-2.8687099,54.8826969],[-2.8695398,54.8829886],[-2.8703378,54.8832388],[-2.8711,54.8834671],[-2.8714401,54.883566],[-2.8720619,54.8837487],[-2.8728229,54.8839519],[-2.8735214,54.8841294],[-2.874175,54.8842857],[-2.8749979,54.8844753],[-2.8758734,54.8846596],[-2.8779259,54.8850466],[-2.8789422,54.885213],[-2.8802991,54.885411],[-2.8809261,54.8854877],[-2.8815592,54.8855537],[-2.8825267,54.8856451],[-2.8836677,54.8857419],[-2.8845162,54.8857913],[-2.885367,54.8858327],[-2.8861518,54.8858594],[-2.8869554,54.8858788],[-2.8878403,54.8858839],[-2.8887746,54.8858781],[-2.8931529,54.8858586],[-2.8940377,54.8858569],[-2.8941664,54.8858566],[-2.894429,54.8858561],[-2.895729,54.8858483],[-2.8970499,54.8858398],[-2.9000978,54.8858427],[-2.9020801,54.8858284],[-2.9046955,54.8857769],[-2.9073418,54.885732],[-2.9100788,54.8856845],[-2.9108562,54.8856786],[-2.9112477,54.8856824],[-2.9116046,54.8856912],[-2.9119742,54.8857102],[-2.9125109,54.8857521],[-2.9130457,54.8858048],[-2.9134436,54.8858407],[-2.9138254,54.8858741],[-2.9141889,54.8859037],[-2.914509,54.8859221],[-2.9147388,54.8859358],[-2.9150202,54.8859437],[-2.9156509,54.8859316],[-2.9161883,54.8859222],[-2.9172459,54.8859036],[-2.9206966,54.8858313],[-2.9222198,54.8858453],[-2.9223807,54.8858423],[-2.9225269,54.8858361],[-2.9226811,54.8858315],[-2.9229058,54.8858302],[-2.9229953,54.8858326],[-2.9240857,54.8858594],[-2.9257104,54.8858993],[-2.9260822,54.8859274],[-2.9265248,54.8859852],[-2.9265464,54.8859899],[-2.9269232,54.8860717],[-2.9273029,54.8861783],[-2.9275645,54.8862775],[-2.9277931,54.8863734],[-2.9280803,54.8865234],[-2.9283475,54.8866979],[-2.9287465,54.887019],[-2.9291779,54.887411],[-2.9294441,54.8876714],[-2.9297187,54.8879428],[-2.9298709,54.8880933],[-2.9302448,54.8884726],[-2.9304999,54.8887537],[-2.9305437,54.8888096],[-2.9306529,54.8889487],[-2.930745,54.8890661],[-2.9309142,54.8892976],[-2.9310826,54.8894994],[-2.9312302,54.889663],[-2.9316344,54.8899794],[-2.9319906,54.8902037]]}}]}