{"type":"FeatureCollection","metadata":{"name":"Train des Merveilles — Nice to Tende","preparedFor":"Rallii","source":"OpenStreetMap","sourceUrl":"https://www.openstreetmap.org/relation/1059561","license":"ODbL","relationIds":[1059561],"contributingWayIds":[257565933,315765326,23045939,1187669700,163417301,81755007,81755013,24162029,171029940,171029945,209189152,171029941,407673662,24162824,24162823,24037448,134107511,24037460,78174586,78174592,78174588,78174587,766356907,407719151,87256898,88816584,88816629,88816580,407717773,88816612,179123518,121941340,88816655,88816647,121949505,87965398,407712664],"preparedConnectorCount":1,"maximumPreparedConnectorKm":0.5,"coordinateCount":742,"calculatedDistanceKm":65.3,"orientation":"Nice to Tende","endpointSnapKm":[0.028,0.156]},"features":[{"type":"Feature","properties":{"name":"Train des Merveilles — Nice to Tende"},"geometry":{"type":"LineString","coordinates":[[7.2618605,43.7047542],[7.2645315,43.7058904],[7.2687658,43.7076674],[7.2701016,43.7082221],[7.2711222,43.7086667],[7.2716575,43.7088788],[7.2722193,43.709087],[7.2730183,43.7093826],[7.27384,43.7096491],[7.2754413,43.7101067],[7.2764277,43.7103748],[7.2769818,43.7105515],[7.2772923,43.7106572],[7.2776061,43.7107863],[7.2778728,43.7109191],[7.2780759,43.7110318],[7.2782688,43.7111494],[7.2790993,43.7118877],[7.2841184,43.7145238],[7.2855982,43.7149449],[7.2858218,43.7150035],[7.2860371,43.7150665],[7.2862298,43.7151271],[7.28643,43.7151984],[7.2866432,43.7152822],[7.2867887,43.7153515],[7.2869249,43.715414],[7.2871145,43.7155115],[7.2872823,43.7156074],[7.2874149,43.7156885],[7.2876041,43.7158124],[7.2877309,43.7158992],[7.2880957,43.7161546],[7.2884461,43.7163977],[7.2887924,43.7166402],[7.2889587,43.7167604],[7.2891141,43.7168808],[7.2893092,43.7170541],[7.2894495,43.7171976],[7.2895713,43.7173341],[7.2896788,43.7174704],[7.2897895,43.7176153],[7.289933,43.717799],[7.2900268,43.7179236],[7.2901349,43.7180868],[7.2902262,43.7182415],[7.2905112,43.7187025],[7.291022,43.7195288],[7.2911178,43.7197031],[7.2912106,43.7198967],[7.2912877,43.7200971],[7.29133,43.7202591],[7.2913676,43.7204219],[7.2913894,43.7205478],[7.2914053,43.7206721],[7.2914141,43.7207609],[7.2914195,43.7208498],[7.2914278,43.7210275],[7.2914417,43.7213837],[7.2914773,43.7222633],[7.2914869,43.7225192],[7.2915028,43.7229055],[7.2914972,43.7230923],[7.2914865,43.7232846],[7.2914725,43.7233852],[7.2914537,43.7235039],[7.2914265,43.7236218],[7.2912828,43.7240543],[7.2912361,43.7241521],[7.2911837,43.7242499],[7.2911101,43.724357],[7.2910322,43.724464],[7.2909455,43.724566],[7.2908517,43.7246669],[7.2907535,43.7247571],[7.2906481,43.7248462],[7.2904285,43.7250111],[7.2903603,43.7250589],[7.2873971,43.7273204],[7.2886202,43.7315701],[7.2887166,43.7316208],[7.2889662,43.7317418],[7.2910296,43.7326826],[7.2912381,43.7327728],[7.2913432,43.7328169],[7.2914507,43.7328601],[7.2915719,43.732905],[7.2916998,43.732947],[7.2918257,43.732986],[7.2919529,43.7330213],[7.2921213,43.7330616],[7.2922991,43.7330966],[7.2924795,43.7331273],[7.2926598,43.7331533],[7.2928703,43.7331791],[7.2930865,43.7332037],[7.2948888,43.7334187],[7.2953391,43.7334719],[7.2955662,43.733498],[7.2957934,43.7335212],[7.296247,43.7335566],[7.2964738,43.7335758],[7.2966993,43.7335988],[7.2972209,43.733664],[7.3002048,43.7340414],[7.3015269,43.7342072],[7.3017757,43.7342425],[7.3020258,43.7342817],[7.3023202,43.7343288],[7.3024693,43.7343551],[7.3026154,43.7343826],[7.3027857,43.7344151],[7.3029545,43.7344494],[7.3031244,43.7344865],[7.3032913,43.7345237],[7.3034866,43.7345687],[7.3036805,43.734617],[7.3038747,43.7346659],[7.3040671,43.7347187],[7.3041791,43.7347487],[7.3042911,43.734781],[7.3045141,43.7348478],[7.3047339,43.7349173],[7.3049514,43.7349909],[7.3052145,43.7350838],[7.3054697,43.7351819],[7.3056789,43.7352657],[7.3058828,43.7353513],[7.3061242,43.7354648],[7.3063355,43.7355679],[7.3065327,43.7356731],[7.3066676,43.7357501],[7.3067987,43.7358276],[7.3069245,43.7359042],[7.307051,43.7359864],[7.3072911,43.7361516],[7.3075193,43.7363228],[7.3076702,43.7364462],[7.307743,43.7365082],[7.3078127,43.7365702],[7.3079635,43.7367054],[7.3081066,43.736844],[7.308344,43.7370866],[7.3084585,43.7372084],[7.3085684,43.7373308],[7.308811,43.7376171],[7.3089469,43.737788],[7.3090786,43.7379603],[7.3092262,43.7381682],[7.3093461,43.7383511],[7.3095022,43.7386013],[7.309635,43.7388252],[7.3097582,43.7390541],[7.3099087,43.7393666],[7.3101167,43.7398648],[7.3103623,43.7404785],[7.3105034,43.7408604],[7.3105829,43.7410755],[7.3105926,43.7411113],[7.3106628,43.7413246],[7.3107984,43.7417065],[7.3109079,43.7419806],[7.310995,43.7421702],[7.3111066,43.7423575],[7.3112203,43.7425129],[7.3113391,43.7426537],[7.3114604,43.7427854],[7.3116916,43.7429831],[7.3118814,43.7431195],[7.3121199,43.7432735],[7.312337,43.7434003],[7.3125771,43.7435289],[7.3132437,43.7439148],[7.3140376,43.7444015],[7.314714,43.7449237],[7.3149749,43.74518],[7.3152387,43.7454811],[7.3161651,43.7485953],[7.3178811,43.7524496],[7.3182858,43.7529654],[7.3173279,43.7571443],[7.3178507,43.7611154],[7.3191987,43.7624201],[7.3246901,43.7642213],[7.324916,43.7642138],[7.3307894,43.7652815],[7.3366055,43.7639154],[7.3428165,43.7638988],[7.3473967,43.7636383],[7.352328,43.7648034],[7.3556709,43.765678],[7.3563084,43.7656119],[7.3566509,43.7655765],[7.3571368,43.7655494],[7.357492,43.7655563],[7.3577333,43.7655723],[7.3579654,43.7656031],[7.3582491,43.7656545],[7.3585562,43.7657266],[7.3588705,43.7658247],[7.3594171,43.7660385],[7.3602028,43.7663591],[7.3606135,43.7665091],[7.3611108,43.76666],[7.362187,43.7669454],[7.3627902,43.7670997],[7.3633201,43.7672476],[7.3635437,43.7673033],[7.3637742,43.7673565],[7.363923,43.767384],[7.364073,43.7674089],[7.3649069,43.7675115],[7.3651308,43.7675411],[7.3653606,43.7675748],[7.3654901,43.7675962],[7.365615,43.7676202],[7.3657417,43.7676453],[7.365866,43.7676755],[7.3660239,43.7677124],[7.3661782,43.7677543],[7.3663917,43.767816],[7.3665981,43.7678805],[7.3668418,43.7679649],[7.3671684,43.7680805],[7.367992,43.7683795],[7.3688502,43.7686879],[7.3695985,43.7689582],[7.3705968,43.7693218],[7.3713368,43.7695902],[7.3727583,43.7701008],[7.3733204,43.7703029],[7.3735966,43.7704058],[7.3737691,43.7704773],[7.3739363,43.7705518],[7.3741494,43.7706589],[7.3743505,43.7707767],[7.3744931,43.7708681],[7.3746357,43.7709711],[7.3748508,43.7711566],[7.3750319,43.7713416],[7.3751679,43.7715025],[7.3753322,43.7717434],[7.3753862,43.7718482],[7.3754362,43.7719529],[7.3754862,43.7720837],[7.3755434,43.7722418],[7.3730341,43.7763506],[7.372807,43.7766957],[7.372678,43.7769808],[7.3726176,43.777353],[7.3726077,43.7776611],[7.3726447,43.7780144],[7.3727247,43.7783043],[7.3728384,43.7786022],[7.3730037,43.7789124],[7.3731863,43.7792149],[7.3741615,43.7804185],[7.3748829,43.7814121],[7.3752399,43.7818857],[7.3756178,43.7823586],[7.3759326,43.7827428],[7.3766822,43.7862049],[7.3783363,43.7894988],[7.3810605,43.7935107],[7.3838974,43.7964995],[7.3843208,43.7975547],[7.3844952,43.7979971],[7.384554,43.7982315],[7.3845926,43.7984538],[7.3846096,43.7987419],[7.3845844,43.7989469],[7.384548,43.7991777],[7.3842984,43.8000388],[7.3842517,43.8002918],[7.3842285,43.8005692],[7.3842668,43.8010437],[7.3843623,43.8017815],[7.3843609,43.8019571],[7.3843467,43.8021683],[7.3843186,43.8023532],[7.3842751,43.8025396],[7.3842005,43.8027471],[7.3841,43.8029581],[7.3839055,43.8032601],[7.3836989,43.8035106],[7.3832939,43.803924],[7.3830014,43.8042472],[7.382928,43.80814],[7.3828891,43.8086137],[7.3818752,43.8149153],[7.3794586,43.8190491],[7.3790893,43.819511],[7.3785706,43.8201331],[7.3780182,43.8208302],[7.3776829,43.8211428],[7.3773995,43.8213808],[7.3770751,43.8215958],[7.3764252,43.8219133],[7.3760209,43.8220476],[7.3756292,43.8221272],[7.3751047,43.8221861],[7.3746403,43.8222153],[7.3740689,43.8222134],[7.373528,43.822213],[7.3731088,43.8222342],[7.3728145,43.8222807],[7.372469,43.8223596],[7.3710615,43.8229401],[7.3708914,43.8230543],[7.3707472,43.8231633],[7.3704911,43.8234008],[7.3702882,43.8236636],[7.3701065,43.8239767],[7.3697617,43.8247033],[7.3695419,43.8252093],[7.3693566,43.8256044],[7.3691195,43.8260461],[7.3689044,43.8263393],[7.3685702,43.8267126],[7.3682078,43.8271016],[7.3679926,43.8274011],[7.3678526,43.8276684],[7.3677366,43.8279697],[7.3676791,43.8282465],[7.367649,43.8285081],[7.3677429,43.8294116],[7.3677462,43.82981],[7.3677188,43.8300698],[7.3676528,43.8303257],[7.3675244,43.8306041],[7.3673792,43.8308853],[7.3671673,43.8311824],[7.3659063,43.8326205],[7.3656627,43.8328349],[7.3652525,43.8331263],[7.3649785,43.8332692],[7.3646557,43.8334169],[7.3638407,43.8337296],[7.36181,43.8344973],[7.3575805,43.8360587],[7.35384,43.8376644],[7.353043,43.8383122],[7.3524936,43.8388752],[7.3523126,43.839116],[7.3521385,43.8393668],[7.3520854,43.8394614],[7.3520199,43.8395921],[7.351965,43.8397282],[7.3519506,43.8397637],[7.3519459,43.8397754],[7.3518688,43.8400071],[7.3518335,43.8401385],[7.3518128,43.840266],[7.351784,43.8406796],[7.3517695,43.8413882],[7.3518113,43.8417845],[7.3519459,43.8422884],[7.3521843,43.8428697],[7.3524517,43.8432961],[7.3530516,43.8439531],[7.353587,43.8445099],[7.3538173,43.8447457],[7.3540668,43.8449486],[7.3545567,43.8452507],[7.3549738,43.84544],[7.3553851,43.8455595],[7.3560233,43.8456434],[7.3569721,43.8456508],[7.357763,43.8456254],[7.3584983,43.8456643],[7.3592776,43.8457911],[7.3602111,43.8460425],[7.364254,43.8470668],[7.3686538,43.8488982],[7.429635,43.879023],[7.430061,43.8792231],[7.4305528,43.8794317],[7.4311994,43.8796737],[7.4321256,43.8799921],[7.4340908,43.8806901],[7.4344524,43.8807954],[7.4348098,43.8808839],[7.4352985,43.8809742],[7.4356608,43.8810071],[7.4360112,43.8810115],[7.4364333,43.880981],[7.4368467,43.8809252],[7.4373209,43.8808119],[7.4378077,43.8806352],[7.4381701,43.880463],[7.4385712,43.8802205],[7.4403132,43.8791046],[7.4409429,43.8787164],[7.4411066,43.8786145],[7.4415161,43.8783422],[7.4420727,43.8780281],[7.4441571,43.8769972],[7.4465796,43.8757917],[7.4471324,43.8755713],[7.4474899,43.8754665],[7.4477906,43.8754009],[7.4519795,43.8760872],[7.4568825,43.8766167],[7.4608481,43.8767957],[7.4611599,43.8768141],[7.4632321,43.8768819],[7.4639332,43.876964],[7.4646263,43.8771604],[7.4658537,43.8776677],[7.4664626,43.8778463],[7.4670634,43.8779577],[7.4675269,43.8779886],[7.4682054,43.8779972],[7.4690895,43.8779972],[7.4699221,43.8780575],[7.4714413,43.8782678],[7.4725828,43.878472],[7.4735736,43.878678],[7.4745505,43.8789428],[7.4748024,43.8790071],[7.4778153,43.8797754],[7.4783823,43.8799496],[7.4788047,43.8801139],[7.4791604,43.8802798],[7.4805587,43.8810247],[7.4809588,43.8812649],[7.4817072,43.8816911],[7.4819255,43.8818543],[7.4821715,43.8820762],[7.4825435,43.8824817],[7.4826422,43.882617],[7.482929,43.8831136],[7.4835606,43.8845324],[7.4837008,43.8847936],[7.4838835,43.8850596],[7.4841366,43.8853272],[7.4844186,43.8855647],[7.4846271,43.8857115],[7.4847499,43.8857917],[7.4848977,43.8858764],[7.4851375,43.8859883],[7.489009,43.8880941],[7.4894934,43.8886317],[7.5136239,43.9174028],[7.5138679,43.9177364],[7.5140774,43.9180589],[7.5141831,43.9182474],[7.5142952,43.9184831],[7.5143654,43.9187222],[7.5144294,43.9189963],[7.5145109,43.9194019],[7.514558,43.9195884],[7.5146902,43.9199481],[7.5148935,43.9202937],[7.5151084,43.9205736],[7.515393,43.920877],[7.5162745,43.9216597],[7.5169409,43.9221772],[7.5176111,43.9226931],[7.5180364,43.9230537],[7.5182413,43.9232599],[7.5184648,43.9235856],[7.5186417,43.9239289],[7.5187756,43.9249827],[7.5185392,43.9282826],[7.5184089,43.9289163],[7.5181736,43.929474],[7.5167009,43.931068],[7.5145948,43.9323122],[7.5135326,43.9329303],[7.5127508,43.9334799],[7.5120279,43.9341453],[7.5114207,43.9348613],[7.5111535,43.9353042],[7.5110364,43.9357187],[7.5110328,43.9360826],[7.5111321,43.9364457],[7.5112868,43.9367591],[7.511488,43.9370601],[7.5129749,43.9392387],[7.5132061,43.9395959],[7.5136604,43.9402582],[7.5139761,43.9407008],[7.5142356,43.9410647],[7.5144166,43.9413186],[7.5150454,43.9421477],[7.5153634,43.942604],[7.515656,43.9430405],[7.5159691,43.9435082],[7.516335,43.9440355],[7.5183089,43.9469087],[7.5185182,43.9473132],[7.5186154,43.9475476],[7.5187012,43.9478373],[7.5187241,43.9480446],[7.518718,43.9483868],[7.5183984,43.9506546],[7.5183304,43.9511423],[7.5181384,43.9526406],[7.518136,43.9530129],[7.5181638,43.9532417],[7.5185021,43.9540998],[7.5186086,43.9542801],[7.5188863,43.9547727],[7.5190638,43.9551697],[7.5193074,43.9559641],[7.519475,43.9565547],[7.5197442,43.9574048],[7.5198345,43.9576333],[7.5199252,43.9578232],[7.5200658,43.9580934],[7.5208563,43.9594568],[7.5213298,43.9602185],[7.5218169,43.9609059],[7.5221036,43.9613287],[7.5222868,43.9616676],[7.5224876,43.9622034],[7.5226784,43.9627144],[7.5230892,43.963548],[7.5235297,43.9644399],[7.5254257,43.9663596],[7.5269358,43.9674794],[7.5280849,43.9682516],[7.5288278,43.9686795],[7.5292397,43.9688762],[7.5299026,43.9691225],[7.5315594,43.9697049],[7.5351631,43.9709304],[7.5356448,43.9711039],[7.5360398,43.9712705],[7.5365075,43.9715344],[7.5367445,43.9717201],[7.5369763,43.9719239],[7.5377054,43.9726598],[7.5380831,43.9730948],[7.5382666,43.9733643],[7.5384467,43.9736702],[7.5390787,43.9749207],[7.5394372,43.9756283],[7.5395634,43.9758531],[7.5398156,43.976387],[7.5402038,43.9770238],[7.5409854,43.9781059],[7.5425829,43.9796437],[7.5435156,43.9806751],[7.5457747,43.9837042],[7.5454044,43.9865197],[7.5474524,43.9902127],[7.5506866,43.9927026],[7.5512391,43.9931474],[7.5514684,43.9934252],[7.551578,43.993646],[7.5517535,43.9946897],[7.5517698,43.9951629],[7.5517476,43.9954256],[7.5516239,43.9966918],[7.5516211,43.9967205],[7.5515937,43.9971628],[7.5516066,43.9973644],[7.5516476,43.9975586],[7.5517258,43.9978024],[7.5518406,43.9980571],[7.5519868,43.9982905],[7.5522011,43.9985576],[7.5523549,43.9987083],[7.5525919,43.9989106],[7.5529519,43.9992072],[7.5544458,44.0003093],[7.5550459,44.0007046],[7.5554402,44.0010122],[7.5563773,44.0048063],[7.5563984,44.0049788],[7.5564413,44.0051688],[7.5565647,44.0055971],[7.5568474,44.0065941],[7.5571225,44.0077917],[7.5572647,44.0082816],[7.5574084,44.0085895],[7.5575692,44.0088274],[7.5577936,44.009091],[7.5582377,44.0095758],[7.5585799,44.0099284],[7.5589111,44.0103065],[7.5590806,44.0105418],[7.5592462,44.0108232],[7.559436,44.0111687],[7.5595553,44.0113826],[7.5597012,44.0116193],[7.5598209,44.011779],[7.5599579,44.0119413],[7.5601776,44.0121658],[7.5603597,44.0123263],[7.560541,44.0124594],[7.5610026,44.0127236],[7.5618762,44.0132299],[7.5621739,44.0134278],[7.5624023,44.0136086],[7.5626396,44.0138094],[7.5630556,44.0142587],[7.5634963,44.0147512],[7.564073,44.0153925],[7.5642387,44.0156274],[7.5643651,44.0158217],[7.564512,44.0161187],[7.5646476,44.0164411],[7.5650368,44.0175476],[7.565542,44.0213446],[7.5693521,44.0247621],[7.5696122,44.0249401],[7.5697484,44.0250551],[7.5698738,44.0251882],[7.5699878,44.0253453],[7.5700762,44.0255132],[7.5706422,44.0270984],[7.5708541,44.0275632],[7.5711644,44.0280453],[7.5722588,44.0290979],[7.5734061,44.0299512],[7.5738774,44.0302097],[7.5742538,44.0303643],[7.5746539,44.0305133],[7.5756317,44.0307951],[7.5761113,44.0309768],[7.576476,44.0311578],[7.5768017,44.0313701],[7.5772373,44.0317743],[7.5774282,44.032041],[7.577572,44.0323231],[7.5778285,44.0331261],[7.5787147,44.0363841],[7.5788578,44.0368001],[7.5790237,44.0371493],[7.5795622,44.0378527],[7.5830501,44.0417072],[7.5836644,44.0423319],[7.5842863,44.0428401],[7.5854575,44.0436705],[7.5871438,44.0444028],[7.5885816,44.0447472],[7.5894687,44.0449829],[7.5902602,44.0452426],[7.5912778,44.0457994],[7.5922755,44.0465369],[7.5929037,44.0472434],[7.5932373,44.0479008],[7.5933203,44.048268],[7.5933632,44.0486743],[7.5933284,44.0491625],[7.5932326,44.0495698],[7.5930545,44.0500873],[7.5928775,44.0504905],[7.5925001,44.0509982],[7.5920004,44.0514975],[7.5915946,44.0517478],[7.5911343,44.0519289],[7.590633,44.0520402],[7.5901121,44.0521004],[7.5868706,44.0514661],[7.5858714,44.0508223],[7.5849538,44.0501458],[7.5840478,44.0496367],[7.5836858,44.0494999],[7.5832502,44.0494022],[7.5825646,44.0493361],[7.5818149,44.049317],[7.5814542,44.0493515],[7.5809634,44.0494614],[7.5804359,44.0496634],[7.579872,44.0499597],[7.5794667,44.0503],[7.5791675,44.0506095],[7.5789168,44.0509727],[7.5786971,44.0514575],[7.5785762,44.0518884],[7.5785447,44.0522919],[7.5785655,44.05254],[7.5786567,44.0527944],[7.5788023,44.0531334],[7.5789732,44.0534017],[7.5792454,44.0536841],[7.5795772,44.0540116],[7.5803426,44.054465],[7.584179,44.056034],[7.5871499,44.0571631],[7.5918854,44.0590179],[7.5971324,44.0612634],[7.5977552,44.0616122],[7.5987093,44.0621192],[7.599083,44.062278],[7.5994642,44.0624061],[7.5997053,44.0624649],[7.5999978,44.0625239],[7.6003839,44.0625652],[7.6008596,44.0625913],[7.6030205,44.0625228],[7.603569,44.0625088],[7.6041129,44.0625098],[7.6046755,44.0625282],[7.6051532,44.0625604],[7.6056215,44.0626067],[7.605981,44.062648],[7.6063126,44.0626947],[7.6065785,44.062741],[7.6068346,44.0627992],[7.6070492,44.0628615],[7.6072396,44.0629275],[7.607414,44.0629959],[7.6075956,44.063073],[7.6080523,44.0632938],[7.6083514,44.0634739],[7.6086202,44.0636628],[7.6088476,44.0638854],[7.6089992,44.0641472],[7.6090582,44.0643576],[7.6090917,44.0645503],[7.6090998,44.0648789],[7.6090515,44.06525],[7.608956,44.0655392],[7.608743,44.0658551],[7.6084625,44.0661139],[7.6080295,44.0664217],[7.6074996,44.06675],[7.6056075,44.0677303],[7.6034403,44.0687315],[7.6006883,44.0698965],[7.5994514,44.0705233],[7.5989815,44.070982],[7.5988025,44.0714942],[7.5987732,44.0721184],[7.5988296,44.0725289],[7.5989287,44.0728554],[7.6000404,44.0761216],[7.5984828,44.080462],[7.5969085,44.0823852],[7.5962965,44.0867968],[7.5963056,44.0870148],[7.5962824,44.0872375],[7.5962439,44.0874203],[7.5961946,44.0876107],[7.5961272,44.0877796],[7.5960602,44.0879186],[7.5959059,44.0881767]]}}]}
