{"type":"FeatureCollection","metadata":{"route":"TranzAlpine","direction":"Christchurch to Greymouth","source":"OpenStreetMap contributors","license":"ODbL","prepared_at":"2026-08-12","geometry_version":1,"coordinate_count":3141,"calculated_distance_km":230.98,"relation_ids":[1598960,14005460],"way_ids":[1427710348,114642219,768397356,768397357,225561381,225561380,181653822,513723258,513723259,181653827,225561386,225561384,95211603,1062233907,1062233906,1124901740,1124901741,88301217,930472737,930472738,1062233904,1062233905,180235427,180235431,88301237,172795759,1427710345,172795751,172795756,931285477,931285478,769164034,769164033,1047355139,1047355140,769164039,474733532,474733531,769164043,769164042,88301185,985373381,985373382,88301189,88301191,97726005,396592960,1047337483,1047337484,396592959,1124896307,1124896306,1124896305,1124896304,1047337481,1047337480,97726010,214812570,214812571,801780327,801780328,88298991,745176527,88298990,88298339,1124896278,1124896277,1047337461,1047337460,1047337459,1047337458,88298341,769171391,769171392,769171396,769171395,769171398,769171397,573127775,88298347,769171399,769171400,769171402,769171401,769171404,769171403,769171406,769171405,769171408,769171407,769171409,769171410,769171412,769171411,88297416,985373289,88297431,985373290,769178686,769171415,769178685,769178688,769178687,769178689,769178690,1124891585,1124891586,769178692,769178691,769178694,769178693,88297423,88297434,769178696,769178695,181647968,181647962,769178698,1124891583,1124891582,769178697,769178700,769178699,1124891580,1124891581,99608219,1124891579,1124891578,1124891575,1124891576,769178702,769178703,1124891573,1124891574,99608213,1124891572,1124891571,165702220,1124891569,1124891570,769178705,769178704,182810872,883146713,181647956,181647966,34622410,34622409,181646695,26304350,16236889,214202839,26304327,214194817,34623149,214194818,1446855148,182810871,181646691,181646693,190108988,190108984,1038628349,28059933,1038628347,1038628348,28065805,336951873,118699958,118699960,28059934,28059935,118696116,118696121,1124891566,1124891565,32609499,1038628346,1038628345,387478431,1038628340,1038628341,1124891563,1124891564,298135394,1124885980,1124885979,132775838,1124885975,1124885976,132775837,132855733,132855734,1038628329,1038628328,1038628327,1038628326,1124885974,1124885973,132855749,132855751,132855752,132855753,132855754,132855755,181646689,181646694,132855757,132855758,1038590263,1038590264,1038590261,1038590262,1124885971,1124885972,1124885969,1124885970,132855759,41838742,41838743,115837026,115837049,1124885968,1124885967,115837024,1124885966,215051199,215051198,1038590256,120286243,1038590254,115837043,115837022,115837032,28060481,28060482,768458771,768458770,115837041,115837048,115837051,1038590251,1038590252,215050915,215050917,215050910,1124885964,1124885965,115837033,1124885963,1124885962,1038590250,1038590249,214805584,214805583,44333763,44333764,115837029,115837035,768422314,115837031,115837052,115837046,115837053,115837020,215050909,768422313,768422312,215050913,290967263,290967255,115837039,1124885961,1124885960,115832526,115832527,215050914,215050912,1124885958,1124885959,1124885954,1124885955,387478075,32609500,32609501,28060483,28060484,1038590243,1038590244,1038590226,1124885950,1124885949,1124885948,1124885947,1038590231,1038590230,1038590227,387478076,1124885943,1124885942,1124885941,1124885940,936190918,936190917,387473212,759696811,336951882,759696810,336951883,768419242,1038393413,1038393414,336951885,1446851275,336951884,114640291,336951879,1446780539,135131168,1330735604,1330735602,135130781,135130776,133583936,336951878,987616408,14026277,147377416,135355855,135355869,147377408,135130784,133583912,1044441622,1044441621,133583925,133583918,133583933,133583931]},"features":[{"type":"Feature","properties":{"name":"TranzAlpine railway alignment","source":"OpenStreetMap contributors","operator":"KiwiRail","from":"Christchurch","to":"Greymouth","geometry_version":1},"geometry":{"type":"LineString","coordinates":[[172.6090279,-43.5393211],[172.6089308,-43.5393853],[172.6088184,-43.5394583],[172.6086377,-43.5395706],[172.6080249,-43.539953],[172.6073256,-43.5403894],[172.6071199,-43.5405118],[172.6070575,-43.5405483],[172.6070049,-43.5405768],[172.6069346,-43.540613],[172.6068703,-43.540645],[172.6067863,-43.540682],[172.6067153,-43.5407114],[172.6066401,-43.5407403],[172.6065561,-43.5407696],[172.6064661,-43.5407979],[172.606355,-43.5408292],[172.6062682,-43.5408498],[172.6061849,-43.5408683],[172.6060891,-43.5408864],[172.6060563,-43.5408922],[172.6059912,-43.5409036],[172.6059046,-43.5409168],[172.6058249,-43.5409293],[172.6057434,-43.5409393],[172.605621,-43.5409546],[172.6055393,-43.5409662],[172.6054568,-43.5409795],[172.6053939,-43.5409895],[172.6052902,-43.5410033],[172.6051718,-43.541015],[172.605086,-43.5410206],[172.6049761,-43.5410262],[172.604782,-43.541029],[172.604569,-43.5410281],[172.6044386,-43.5410286],[172.6043307,-43.5410286],[172.6040447,-43.5410287],[172.60338,-43.5410277],[172.6027993,-43.5410288],[172.602213,-43.5410281],[172.6016312,-43.5410277],[172.6010505,-43.5410267],[172.6009063,-43.5410271],[172.6005443,-43.5410281],[172.5999065,-43.5410281],[172.5998528,-43.5410282],[172.5996934,-43.5410242],[172.5995719,-43.5410182],[172.5992821,-43.5409992],[172.5991798,-43.5409943],[172.5990894,-43.5409914],[172.5990032,-43.5409917],[172.5988057,-43.540991],[172.5987882,-43.5409911],[172.598363,-43.5409936],[172.5977201,-43.5409915],[172.5975668,-43.540991],[172.5971955,-43.5409908],[172.5970877,-43.5409891],[172.5969683,-43.5409899],[172.5968337,-43.54099],[172.5965761,-43.5409901],[172.5963452,-43.5409917],[172.5962948,-43.5409921],[172.5954518,-43.5409899],[172.5952416,-43.5409909],[172.5951283,-43.540987],[172.5950347,-43.5409812],[172.5948529,-43.5409664],[172.5947852,-43.5409619],[172.594722,-43.5409586],[172.5946322,-43.5409556],[172.594541,-43.5409556],[172.5936614,-43.5409544],[172.5929859,-43.5409551],[172.5926517,-43.540954],[172.5924045,-43.5409562],[172.5922734,-43.5409595],[172.5921639,-43.5409641],[172.5920622,-43.5409704],[172.591983,-43.5409763],[172.591872,-43.5409868],[172.5917515,-43.5410032],[172.591721,-43.5410079],[172.5915951,-43.5410228],[172.5915304,-43.5410276],[172.5911454,-43.5410518],[172.5910462,-43.5410576],[172.5909593,-43.5410618],[172.590883,-43.5410633],[172.5848602,-43.5410582],[172.5837068,-43.541064],[172.5834344,-43.5410628],[172.5832965,-43.5410617],[172.583199,-43.541058],[172.5831075,-43.54105],[172.5830194,-43.5410386],[172.5827995,-43.5410038],[172.582641,-43.5409775],[172.5824252,-43.5409547],[172.582249,-43.5409465],[172.5820926,-43.5409429],[172.5818713,-43.5409421],[172.5815034,-43.540946],[172.5811095,-43.5409544],[172.5807339,-43.5409525],[172.5806085,-43.5409499],[172.5804854,-43.5409521],[172.5803961,-43.540955],[172.5803149,-43.5409604],[172.5801497,-43.5409746],[172.579774,-43.5410053],[172.5796611,-43.5410119],[172.5795712,-43.5410151],[172.5794231,-43.5410158],[172.5788681,-43.5410014],[172.5786804,-43.5409968],[172.5786211,-43.5409953],[172.5784396,-43.5409924],[172.5782876,-43.5409904],[172.5782032,-43.5409897],[172.5779772,-43.5409889],[172.5777374,-43.5409889],[172.5774514,-43.5409872],[172.5773914,-43.5409872],[172.5772081,-43.5409917],[172.5771064,-43.5409967],[172.576852,-43.5410131],[172.5767272,-43.5410195],[172.5765644,-43.5410239],[172.576462,-43.5410242],[172.5762812,-43.5410276],[172.5761614,-43.5410339],[172.5759077,-43.5410486],[172.5757864,-43.5410541],[172.5755896,-43.5410584],[172.5754006,-43.5410592],[172.5747363,-43.5410592],[172.5739316,-43.5410592],[172.5727907,-43.5410588],[172.5718217,-43.5410575],[172.5706659,-43.5410592],[172.5694911,-43.5410562],[172.5689117,-43.5410562],[172.5681554,-43.5410572],[172.5669624,-43.5410563],[172.5656341,-43.5410565],[172.5643394,-43.5410559],[172.5626623,-43.5410553],[172.5603999,-43.5410533],[172.5593058,-43.541056],[172.5590149,-43.541055],[172.5582553,-43.5410545],[172.5574877,-43.5410538],[172.5569259,-43.5410534],[172.5557874,-43.5410526],[172.5552513,-43.5410533],[172.554665,-43.5410531],[172.5544044,-43.5410525],[172.5537238,-43.5410514],[172.5525114,-43.5410533],[172.5521727,-43.5410516],[172.5513374,-43.5410511],[172.5509526,-43.5410511],[172.5503678,-43.541051],[172.5493425,-43.5410512],[172.5490362,-43.5410513],[172.5469607,-43.5410513],[172.5457711,-43.5410485],[172.5445883,-43.5410494],[172.5436564,-43.5410482],[172.5435244,-43.5410483],[172.5430893,-43.5410485],[172.5422467,-43.5410475],[172.541036,-43.5410469],[172.5401279,-43.5410457],[172.5398381,-43.5410455],[172.5384245,-43.5410452],[172.537236,-43.5410441],[172.5361235,-43.5410429],[172.5345256,-43.5410417],[172.5344401,-43.5410413],[172.533692,-43.5410418],[172.5331856,-43.5410424],[172.5330339,-43.5410443],[172.5329334,-43.5410475],[172.5328043,-43.5410525],[172.5326796,-43.5410589],[172.5325356,-43.5410679],[172.5323483,-43.5410812],[172.5322533,-43.5410874],[172.5321447,-43.5410941],[172.5320202,-43.5411009],[172.5318889,-43.5411064],[172.5317705,-43.5411092],[172.5316164,-43.5411112],[172.5310055,-43.5411095],[172.5308574,-43.5411073],[172.5307265,-43.541104],[172.5305768,-43.5410969],[172.530146,-43.5410692],[172.529991,-43.5410588],[172.5298778,-43.5410521],[172.529713,-43.5410446],[172.5296085,-43.5410412],[172.5294743,-43.541039],[172.5292797,-43.5410377],[172.5286644,-43.5410376],[172.5282604,-43.5410376],[172.5275059,-43.5410376],[172.5269918,-43.5410376],[172.5268341,-43.5410376],[172.5266849,-43.5410368],[172.5265763,-43.5410369],[172.5238135,-43.5410353],[172.5237064,-43.5410356],[172.5217631,-43.5410323],[172.5215741,-43.541032],[172.5215052,-43.5410319],[172.5191904,-43.54103],[172.5175563,-43.5410297],[172.5168753,-43.5410303],[172.5152839,-43.5410289],[172.51519,-43.5410288],[172.5150932,-43.5410287],[172.5145448,-43.541028],[172.5133673,-43.541028],[172.5127661,-43.54104],[172.5123267,-43.5410611],[172.511868,-43.5410961],[172.5113177,-43.5411528],[172.5105426,-43.5412519],[172.5098295,-43.5413391],[172.5093789,-43.5414052],[172.5092636,-43.5414249],[172.5089547,-43.5414775],[172.5085202,-43.5415669],[172.5082531,-43.5416303],[172.5081854,-43.5416463],[172.5080673,-43.5416755],[172.5073114,-43.5418834],[172.5072461,-43.5419013],[172.5067349,-43.5420458],[172.5064425,-43.5421272],[172.5061675,-43.5422086],[172.505935,-43.5422847],[172.5055916,-43.5424062],[172.5054936,-43.5424419],[172.5053548,-43.5424928],[172.5038505,-43.5430445],[172.5021541,-43.5436594],[172.5018402,-43.5437707],[172.5012019,-43.5440063],[172.4991298,-43.5447911],[172.4979509,-43.5452399],[172.4971864,-43.5455325],[172.4962624,-43.5458861],[172.4957745,-43.5460728],[172.4955197,-43.5461701],[172.4948638,-43.5464153],[172.4929159,-43.5471586],[172.4922959,-43.5473953],[172.4919704,-43.54751],[172.4916647,-43.547612],[172.4912679,-43.5477471],[172.4909001,-43.5478869],[172.4908097,-43.5479207],[172.490727,-43.5479517],[172.4906322,-43.5479892],[172.4888814,-43.5486573],[172.4832813,-43.5507952],[172.4824834,-43.551099],[172.4786841,-43.5525453],[172.4741142,-43.554287],[172.4740147,-43.5543248],[172.4723336,-43.5549652],[172.4579235,-43.5604547],[172.4435547,-43.5659254],[172.4434103,-43.5659804],[172.4433353,-43.5660077],[172.4418932,-43.5665564],[172.4155651,-43.5765747],[172.4123253,-43.5778057],[172.4087328,-43.5791708],[172.4086533,-43.579201],[172.4086314,-43.5792093],[172.4085832,-43.5792276],[172.4026091,-43.581506],[172.401697,-43.5818533],[172.4012407,-43.582027],[172.4000525,-43.5824767],[172.3958498,-43.5840675],[172.390346,-43.5861613],[172.3901643,-43.5862315],[172.3856605,-43.5879404],[172.3855002,-43.5880012],[172.3853831,-43.588046],[172.3836268,-43.588718],[172.3802099,-43.5900094],[172.3798737,-43.5901361],[172.3794277,-43.5902734],[172.3785306,-43.590609],[172.3782887,-43.5906959],[172.3779894,-43.5907885],[172.3775879,-43.5908837],[172.3774676,-43.5909102],[172.3771078,-43.5909709],[172.3767752,-43.5910091],[172.3767017,-43.5910175],[172.3763239,-43.5910341],[172.3760289,-43.5910354],[172.3757201,-43.591026],[172.375451,-43.5910047],[172.3751643,-43.5909705],[172.3748138,-43.5909117],[172.3745246,-43.5908463],[172.3742013,-43.590762],[172.3740529,-43.5907147],[172.3739449,-43.5906802],[172.373659,-43.5905752],[172.3733397,-43.5904389],[172.3730661,-43.5903021],[172.372467,-43.5899673],[172.3723238,-43.5898861],[172.3696287,-43.5883576],[172.3686139,-43.5877853],[172.367696,-43.5872648],[172.366698,-43.5867017],[172.3666243,-43.5866601],[172.3648982,-43.5856833],[172.3634148,-43.5848409],[172.3622321,-43.5841707],[172.3612899,-43.5836346],[172.359453,-43.5825941],[172.3576064,-43.581562],[172.356776,-43.5810773],[172.3526148,-43.5787123],[172.3499439,-43.5771979],[172.3494195,-43.5768967],[172.3478957,-43.5760304],[172.3423383,-43.5728767],[172.3423308,-43.5728725],[172.3356922,-43.569105],[172.3311455,-43.5665158],[172.3305723,-43.5661907],[172.3196033,-43.5599543],[172.306509,-43.5525183],[172.3010025,-43.5493964],[172.2942725,-43.5455838],[172.2912645,-43.5438717],[172.2912513,-43.5438642],[172.2899346,-43.5431206],[172.2874997,-43.5417377],[172.2864408,-43.5411379],[172.2678662,-43.5305663],[172.2523999,-43.5217583],[172.2471294,-43.5187585],[172.2412389,-43.515395],[172.2403162,-43.5148704],[172.2403076,-43.5148655],[172.2363535,-43.5126173],[172.2332775,-43.5108656],[172.2327561,-43.5105633],[172.2304559,-43.5092533],[172.2281767,-43.5079559],[172.2250339,-43.5061683],[172.2229936,-43.5050076],[172.2220394,-43.5044676],[172.2214978,-43.5041583],[172.2209495,-43.5038466],[172.2175607,-43.5019122],[172.2159485,-43.500988],[172.2156352,-43.5008194],[172.2152757,-43.500626],[172.2149146,-43.5004428],[172.2146648,-43.5003299],[172.2145912,-43.5002966],[172.2141716,-43.5001241],[172.2136859,-43.4999421],[172.2132806,-43.4998126],[172.2131315,-43.4997679],[172.2128641,-43.4996954],[172.2126199,-43.4996328],[172.2123089,-43.4995622],[172.2120153,-43.4995027],[172.2117284,-43.4994475],[172.2114512,-43.4994039],[172.2110088,-43.4993468],[172.2105644,-43.4993008],[172.2066997,-43.4989028],[172.2066357,-43.4988961],[172.2026496,-43.4984803],[172.2008964,-43.4982988],[172.1995581,-43.4981591],[172.1982066,-43.4980205],[172.1970099,-43.4978964],[172.1967544,-43.4978693],[172.1906183,-43.4972348],[172.1861255,-43.4967682],[172.1841556,-43.4965646],[172.171988,-43.4952995],[172.1702912,-43.4951277],[172.1604847,-43.4941146],[172.1544286,-43.4934899],[172.1490558,-43.4929351],[172.1472027,-43.492739],[172.146068,-43.4926222],[172.1414545,-43.4921473],[172.1401071,-43.4920073],[172.139622,-43.4919559],[172.13543,-43.4915233],[172.1330729,-43.4912801],[172.125707,-43.4905216],[172.1256546,-43.4905163],[172.1199093,-43.4899271],[172.1180194,-43.4897327],[172.1179318,-43.4897235],[172.1176651,-43.4896956],[172.1174982,-43.4896781],[172.1171329,-43.4896194],[172.1169586,-43.4895915],[172.116771,-43.489571],[172.1166169,-43.4895542],[172.1139481,-43.4892838],[172.1113893,-43.489023],[172.1111425,-43.4889958],[172.1109119,-43.4889646],[172.1105444,-43.4889043],[172.1101154,-43.4888185],[172.1098443,-43.4887642],[172.1096539,-43.4887408],[172.1093586,-43.4887006],[172.1092382,-43.4886743],[172.1091386,-43.4886523],[172.1090357,-43.4886292],[172.108692,-43.4885435],[172.1083996,-43.4884647],[172.108216,-43.488409],[172.108067,-43.4883618],[172.1078184,-43.4882771],[172.1074256,-43.4881222],[172.107028,-43.4879492],[172.1067978,-43.4878305],[172.1067447,-43.4878031],[172.1064637,-43.4876544],[172.1059615,-43.4873515],[172.1055394,-43.4870636],[172.105154,-43.4867499],[172.1049427,-43.4865603],[172.1045823,-43.4862177],[172.1034836,-43.4850021],[172.0967706,-43.4775708],[172.095637,-43.4763151],[172.0940613,-43.4745696],[172.0926066,-43.472961],[172.092172,-43.4724823],[172.087681,-43.4675],[172.0876709,-43.4674888],[172.0858188,-43.4654339],[172.0808346,-43.4599073],[172.0807896,-43.4598575],[172.0799734,-43.4589556],[172.0766189,-43.4552489],[172.0758524,-43.4543466],[172.0710115,-43.4475369],[172.0663407,-43.4409462],[172.0594194,-43.4322935],[172.0583352,-43.4309472],[172.0572771,-43.4296282],[172.0545523,-43.4262183],[172.0526078,-43.423827],[172.0472307,-43.4171341],[172.0449284,-43.4142756],[172.0426415,-43.4114166],[172.0406303,-43.408921],[172.0403605,-43.4085769],[172.0383172,-43.4060378],[172.038278,-43.4059914],[172.0374662,-43.4049819],[172.0364382,-43.4037033],[172.035787,-43.4028927],[172.0350489,-43.401974],[172.034392,-43.4011579],[172.0340318,-43.4007083],[172.0338074,-43.4004275],[172.033424,-43.3999696],[172.0330634,-43.3995985],[172.0326089,-43.3991453],[172.0300742,-43.3966055],[172.0288806,-43.3954168],[172.0272631,-43.3938043],[172.0263162,-43.3928528],[172.0260297,-43.3925787],[172.0257424,-43.3923326],[172.0255142,-43.3921591],[172.0252571,-43.3919741],[172.0250455,-43.3918344],[172.0248312,-43.391702],[172.0244868,-43.3915012],[172.0233764,-43.3908641],[172.0224004,-43.390302],[172.0211654,-43.3895962],[172.0204746,-43.3891976],[172.0196608,-43.3887312],[172.017028,-43.3872255],[172.0166001,-43.3869661],[172.0162384,-43.38674],[172.0161826,-43.3867039],[172.0159514,-43.3865579],[172.0155494,-43.3863102],[172.0145475,-43.3857378],[172.0117408,-43.3841308],[172.0111347,-43.3837852],[172.0099311,-43.3830948],[171.998707,-43.3766674],[171.9954869,-43.3748227],[171.9954432,-43.3747976],[171.9914151,-43.3724899],[171.9908341,-43.3721565],[171.9907934,-43.3721332],[171.9711298,-43.3608488],[171.9691769,-43.3597371],[171.9642315,-43.3569014],[171.9641755,-43.3568697],[171.9640912,-43.3568219],[171.9631037,-43.3562547],[171.962486,-43.3559053],[171.9619788,-43.3556143],[171.9619351,-43.3555893],[171.9599403,-43.3544364],[171.959079,-43.3539436],[171.95904,-43.3539213],[171.9576723,-43.3531387],[171.9576244,-43.3531113],[171.9541445,-43.35112],[171.9520775,-43.3499323],[171.9501944,-43.3488532],[171.9460372,-43.3464674],[171.9410863,-43.3436283],[171.9406749,-43.3433907],[171.9403681,-43.3432081],[171.9400339,-43.343],[171.9398043,-43.3428443],[171.9394474,-43.3425942],[171.9389443,-43.3422022],[171.9385636,-43.3418685],[171.9382396,-43.341565],[171.9379353,-43.3412667],[171.9373653,-43.3407056],[171.9367989,-43.3401511],[171.9361806,-43.3395382],[171.9355924,-43.3389601],[171.9355767,-43.3389442],[171.9355586,-43.3389283],[171.9354419,-43.3388129],[171.9341957,-43.337588],[171.9327862,-43.3361909],[171.9325869,-43.3360012],[171.9321933,-43.3356128],[171.9306657,-43.3341056],[171.9287001,-43.3321782],[171.9282896,-43.3317727],[171.9274976,-43.3309903],[171.9269052,-43.330408],[171.926771,-43.330278],[171.926646,-43.3301568],[171.9263391,-43.3298784],[171.9260889,-43.3296712],[171.9257677,-43.3294277],[171.9254515,-43.3292095],[171.9252682,-43.3290884],[171.9249355,-43.3288882],[171.9246607,-43.3287381],[171.9243624,-43.3285826],[171.9241274,-43.3284724],[171.9239046,-43.3283693],[171.9235753,-43.3282317],[171.9232284,-43.3280995],[171.9229251,-43.3279928],[171.9224542,-43.3278464],[171.9222111,-43.3277795],[171.9219657,-43.3277161],[171.9214202,-43.3275898],[171.9207757,-43.3274709],[171.9201283,-43.3273557],[171.9198693,-43.3273043],[171.919655,-43.3272595],[171.9192559,-43.3271582],[171.9188317,-43.3270306],[171.9186281,-43.3269616],[171.9184162,-43.3268846],[171.918058,-43.3267395],[171.9177022,-43.3265744],[171.9174428,-43.3264408],[171.917154,-43.3262779],[171.9168666,-43.326098],[171.9165254,-43.3258619],[171.9162325,-43.3256292],[171.9159466,-43.3253762],[171.9157194,-43.3251455],[171.915546,-43.3249519],[171.9153226,-43.3246655],[171.91525,-43.3245634],[171.9152013,-43.3244902],[171.9151255,-43.3243702],[171.9149465,-43.3240411],[171.9148408,-43.3238105],[171.9147879,-43.3236749],[171.9147467,-43.323545],[171.9146675,-43.3232624],[171.9146177,-43.3229818],[171.9145351,-43.3221886],[171.9143979,-43.3207026],[171.9142077,-43.3188447],[171.9141368,-43.3182668],[171.9140976,-43.3178603],[171.9140769,-43.317345],[171.9141184,-43.3167295],[171.9142175,-43.3162411],[171.9143412,-43.315879],[171.9144539,-43.3155915],[171.9145842,-43.3153119],[171.9161958,-43.3121722],[171.9171086,-43.3103581],[171.9194833,-43.3057416],[171.9196871,-43.3053356],[171.9202495,-43.3042453],[171.9204025,-43.3039844],[171.9205491,-43.3037647],[171.9206982,-43.3035483],[171.9216596,-43.3022694],[171.9223387,-43.3013806],[171.9227574,-43.300833],[171.9240595,-43.2991224],[171.9247706,-43.2981853],[171.9255726,-43.2971354],[171.9269873,-43.2952768],[171.9278533,-43.294147],[171.9281122,-43.2937667],[171.9282726,-43.2934452],[171.9284268,-43.293054],[171.928672,-43.2923465],[171.9293907,-43.2902437],[171.9298255,-43.2889813],[171.9304383,-43.2871581],[171.9305046,-43.2869392],[171.9305653,-43.2866719],[171.9306237,-43.2861645],[171.9306245,-43.285787],[171.9306248,-43.2857242],[171.9306136,-43.2855631],[171.9304553,-43.2842808],[171.9304394,-43.2840021],[171.9304479,-43.2837282],[171.9304719,-43.2834994],[171.9305044,-43.2832934],[171.9305478,-43.2830639],[171.9306141,-43.2828311],[171.930691,-43.2825991],[171.9308192,-43.282295],[171.930903,-43.282122],[171.931038,-43.2818727],[171.9314055,-43.2812987],[171.9317845,-43.2807247],[171.9326375,-43.2794136],[171.9331259,-43.2786643],[171.9336526,-43.2777976],[171.9338509,-43.2774122],[171.9342143,-43.2768622],[171.9342508,-43.2768044],[171.9344469,-43.2764707],[171.9358912,-43.2740519],[171.93654,-43.2729636],[171.9368748,-43.2724367],[171.9371984,-43.271843],[171.9375463,-43.2710042],[171.9376367,-43.2707683],[171.9377234,-43.2705937],[171.9378216,-43.2704345],[171.9379399,-43.2702741],[171.9383421,-43.269813],[171.9387724,-43.2693487],[171.9389737,-43.2691678],[171.9392286,-43.2689596],[171.9396703,-43.2686728],[171.9399659,-43.2684456],[171.940162,-43.2682118],[171.940283,-43.2679857],[171.940339,-43.2677603],[171.9403452,-43.2675375],[171.9403234,-43.2673497],[171.9402543,-43.2671605],[171.9401858,-43.2670093],[171.9401397,-43.2669043],[171.9400571,-43.2667792],[171.9399439,-43.266636],[171.9395599,-43.2662886],[171.9391391,-43.2659277],[171.9389389,-43.2657473],[171.9387616,-43.2655601],[171.9386036,-43.2653718],[171.9384488,-43.265081],[171.938339,-43.2648424],[171.9382626,-43.2646244],[171.9382093,-43.2643888],[171.9381719,-43.2641904],[171.9381792,-43.2638839],[171.9382096,-43.2636931],[171.9382665,-43.2635248],[171.9392636,-43.2619952],[171.9402554,-43.2605897],[171.9404759,-43.2602026],[171.940876,-43.2594607],[171.940905,-43.2594068],[171.9422085,-43.2569894],[171.9424351,-43.2565165],[171.9427584,-43.2560475],[171.9431826,-43.2556925],[171.9436591,-43.2553962],[171.9443098,-43.2550885],[171.9448157,-43.2547808],[171.9451028,-43.2545495],[171.9453543,-43.2542623],[171.9454518,-43.2540528],[171.9454949,-43.2539086],[171.9455309,-43.2537585],[171.9455987,-43.2533189],[171.9455902,-43.2529885],[171.9455322,-43.2523083],[171.9454728,-43.251746],[171.9454416,-43.2509919],[171.9454543,-43.250573],[171.9457806,-43.2499328],[171.9461111,-43.2496217],[171.9470549,-43.2487327],[171.9476159,-43.2482584],[171.9482115,-43.2477155],[171.9486225,-43.2474547],[171.9489975,-43.2472757],[171.9493911,-43.2471374],[171.9495235,-43.247094],[171.9498016,-43.2470067],[171.9499259,-43.2469765],[171.9503395,-43.2468682],[171.9510386,-43.246533],[171.9515702,-43.2463019],[171.9519064,-43.2461876],[171.9522425,-43.2461073],[171.9527682,-43.2460381],[171.953119,-43.2459771],[171.9534325,-43.2459065],[171.9537274,-43.2458095],[171.953988,-43.2457054],[171.9542171,-43.2455839],[171.9544638,-43.2454077],[171.9546324,-43.2452376],[171.9548506,-43.2449701],[171.955043,-43.2446065],[171.9554379,-43.2436624],[171.9555506,-43.2433557],[171.9555894,-43.2431106],[171.9555934,-43.2428491],[171.9555492,-43.2425599],[171.9554868,-43.2422916],[171.9552363,-43.2414863],[171.9549524,-43.2406811],[171.9548569,-43.2403898],[171.9547654,-43.2400694],[171.9547002,-43.2397506],[171.9546725,-43.2394549],[171.9546641,-43.2382459],[171.9546578,-43.2378429],[171.9546379,-43.2361808],[171.9546261,-43.2357011],[171.9545633,-43.2352842],[171.9544419,-43.2348802],[171.9543594,-43.2346866],[171.9536065,-43.2330959],[171.9520434,-43.2298255],[171.9519419,-43.2296447],[171.9518042,-43.2294507],[171.951492,-43.2291561],[171.9510829,-43.228922],[171.950489,-43.2287142],[171.9499015,-43.2286306],[171.9493505,-43.2286557],[171.9490853,-43.2286827],[171.948774,-43.2287594],[171.9483383,-43.2289031],[171.9474539,-43.2292007],[171.9471311,-43.2292852],[171.9467929,-43.2293354],[171.9465638,-43.2293506],[171.9463231,-43.2293518],[171.9460842,-43.2293387],[171.9458128,-43.2293015],[171.9455513,-43.2292532],[171.9453051,-43.2291757],[171.9448911,-43.2290448],[171.9419473,-43.2281079],[171.9415339,-43.2279453],[171.9412396,-43.227773],[171.9410036,-43.2275862],[171.9407767,-43.2273339],[171.9405816,-43.2270416],[171.9404844,-43.2267346],[171.9404243,-43.226394],[171.9403638,-43.2261401],[171.9402483,-43.2258323],[171.940082,-43.2255704],[171.9399157,-43.225371],[171.9396743,-43.2251639],[171.93939,-43.2249841],[171.9390466,-43.2248238],[171.9383385,-43.2245502],[171.9376733,-43.2243039],[171.9361713,-43.2237645],[171.9357388,-43.2235969],[171.9344581,-43.2231255],[171.9340869,-43.2230004],[171.9337949,-43.222928],[171.9335212,-43.2228699],[171.933131,-43.2228076],[171.9329145,-43.2227601],[171.9326696,-43.2227078],[171.9323755,-43.2226676],[171.9311342,-43.2225109],[171.9299781,-43.2223309],[171.9297387,-43.2222853],[171.9295217,-43.2222362],[171.9292081,-43.2221238],[171.9289686,-43.2220067],[171.9287211,-43.22187],[171.9272957,-43.221001],[171.9270367,-43.2208327],[171.9267306,-43.2205379],[171.9265084,-43.220254],[171.9263786,-43.2197857],[171.9265929,-43.2175424],[171.92666,-43.2170712],[171.9266717,-43.216989],[171.926757,-43.2163905],[171.9268124,-43.2161376],[171.9268683,-43.2159822],[171.9270265,-43.2156466],[171.9272129,-43.2153854],[171.9274959,-43.2150839],[171.927977,-43.2146491],[171.9282886,-43.2143785],[171.9284795,-43.2141911],[171.9285932,-43.2140233],[171.9287938,-43.2137002],[171.9289869,-43.213239],[171.9290224,-43.2130879],[171.9290416,-43.2130066],[171.9290787,-43.2128486],[171.929147,-43.2124665],[171.9291353,-43.2120582],[171.9290649,-43.2117307],[171.9289654,-43.2115045],[171.92881,-43.211224],[171.9286529,-43.21103],[171.9284882,-43.2108405],[171.9245818,-43.2074832],[171.9242344,-43.2071873],[171.923534,-43.2066062],[171.9234702,-43.2065522],[171.9233524,-43.2064526],[171.9230621,-43.2062072],[171.9181084,-43.2020356],[171.9176625,-43.2016935],[171.9172548,-43.2013965],[171.9168668,-43.2011383],[171.9164721,-43.2008847],[171.9160294,-43.2006632],[171.9155214,-43.2004631],[171.9150216,-43.2003311],[171.914471,-43.2002301],[171.9141679,-43.2002034],[171.9138707,-43.2001811],[171.9132645,-43.2001438],[171.9126763,-43.200125],[171.9122143,-43.2000909],[171.9119413,-43.2000501],[171.9116747,-43.1999939],[171.9113323,-43.1998924],[171.9110508,-43.199754],[171.9108047,-43.1995975],[171.9105829,-43.1994106],[171.9104014,-43.1991941],[171.9102849,-43.1990043],[171.9102092,-43.1988525],[171.9101545,-43.1986785],[171.9101201,-43.1985046],[171.9101094,-43.1983141],[171.9101179,-43.1981324],[171.9102957,-43.1975386],[171.9106434,-43.1965513],[171.9106706,-43.1964399],[171.9107062,-43.1962092],[171.9107064,-43.1961307],[171.9106936,-43.1959884],[171.9106446,-43.1957846],[171.9105655,-43.1956221],[171.9104864,-43.1954595],[171.9102732,-43.1952151],[171.9099853,-43.1949711],[171.9096903,-43.1948075],[171.9093678,-43.1946779],[171.9089625,-43.1945803],[171.9087251,-43.1945532],[171.9084637,-43.1945366],[171.9075721,-43.1945431],[171.9051967,-43.1945683],[171.9047551,-43.1945565],[171.9045049,-43.1945282],[171.9042626,-43.1944884],[171.9036478,-43.1943335],[171.9034319,-43.1942577],[171.903221,-43.1941685],[171.9028769,-43.1939914],[171.9025207,-43.1937614],[171.9023058,-43.1936174],[171.9020967,-43.1935076],[171.9016292,-43.1932833],[171.9009974,-43.193047],[171.9007375,-43.1929662],[171.9002992,-43.1928591],[171.89992,-43.1927708],[171.8989882,-43.1925783],[171.8980007,-43.1924206],[171.8974795,-43.192343],[171.8971538,-43.1922912],[171.8970862,-43.1922805],[171.8948963,-43.1919089],[171.8941739,-43.1917293],[171.894137,-43.1917201],[171.89374,-43.1916552],[171.8933828,-43.1916196],[171.8931853,-43.1916119],[171.8929249,-43.1916108],[171.8923372,-43.1916141],[171.8916625,-43.1915085],[171.8914884,-43.1914762],[171.8895428,-43.1910496],[171.8893652,-43.1909877],[171.8892258,-43.1909393],[171.8890097,-43.1908426],[171.88876,-43.1907062],[171.8886147,-43.1905975],[171.8884616,-43.1904616],[171.8883533,-43.1903462],[171.888196,-43.1901193],[171.8880958,-43.1898869],[171.8878935,-43.1893218],[171.8876348,-43.1887263],[171.8875142,-43.1885263],[171.8873903,-43.1883471],[171.8872134,-43.1881478],[171.887023,-43.187974],[171.8868424,-43.1878488],[171.8866102,-43.1877137],[171.8863624,-43.1876077],[171.8861303,-43.1875289],[171.8858547,-43.1874505],[171.8853398,-43.1873378],[171.8850698,-43.1872727],[171.884886,-43.1872177],[171.8847306,-43.187166],[171.8845772,-43.1871042],[171.8844051,-43.1870231],[171.8840134,-43.186807],[171.8836447,-43.1866033],[171.8834205,-43.1864602],[171.8832159,-43.1863085],[171.8830219,-43.1861333],[171.882871,-43.1859782],[171.882741,-43.1858192],[171.8826368,-43.1856633],[171.8825242,-43.1854629],[171.8823146,-43.1850615],[171.882052,-43.1845362],[171.8817866,-43.1838975],[171.8812525,-43.1829634],[171.8804664,-43.1816106],[171.8799299,-43.1806045],[171.8791009,-43.1790521],[171.8788215,-43.1784832],[171.878716,-43.178173],[171.8786451,-43.1778452],[171.8786151,-43.1775622],[171.878603,-43.1773325],[171.8786141,-43.177114],[171.8787276,-43.1755009],[171.8787514,-43.1750186],[171.8787341,-43.174601],[171.8786963,-43.1743137],[171.878656,-43.1740956],[171.8785653,-43.1737269],[171.8783111,-43.173137],[171.8775521,-43.1716548],[171.8767006,-43.1699393],[171.8766326,-43.1697721],[171.8765375,-43.1695111],[171.8764145,-43.1690801],[171.8763697,-43.1688331],[171.8763454,-43.1685812],[171.8763378,-43.1681621],[171.8763536,-43.1678896],[171.8764098,-43.1674164],[171.8764249,-43.167003],[171.8764108,-43.1668014],[171.8763612,-43.1665322],[171.8762796,-43.1662303],[171.8760754,-43.165714],[171.8753577,-43.1639532],[171.8744693,-43.1618138],[171.8737644,-43.1600747],[171.8733177,-43.1590142],[171.8732996,-43.1589714],[171.8729854,-43.1582255],[171.8722729,-43.1565097],[171.8721035,-43.156084],[171.8717833,-43.1552792],[171.8715411,-43.1546959],[171.8715146,-43.1546319],[171.8712424,-43.1539764],[171.8711632,-43.1537805],[171.8710776,-43.1535073],[171.8710127,-43.1531887],[171.8709846,-43.1526751],[171.8710368,-43.1522756],[171.871204,-43.1517019],[171.8712272,-43.1516223],[171.8715682,-43.1504523],[171.8717555,-43.1498237],[171.8718782,-43.1494046],[171.8720769,-43.1486914],[171.8720974,-43.148615],[171.8721439,-43.1483503],[171.8721574,-43.1480428],[171.8721475,-43.147773],[171.8721172,-43.1475434],[171.8720663,-43.1473175],[171.8719953,-43.1470999],[171.8718794,-43.146812],[171.8716636,-43.146354],[171.8714899,-43.1459597],[171.8712495,-43.1454222],[171.8711461,-43.1451641],[171.871084,-43.1448381],[171.8710855,-43.1446214],[171.8711077,-43.1444085],[171.8711429,-43.1442533],[171.8711937,-43.144083],[171.8713398,-43.1438009],[171.8714802,-43.1435976],[171.8716309,-43.143432],[171.871844,-43.1432417],[171.8720623,-43.1430854],[171.8723867,-43.1428927],[171.8726737,-43.1427622],[171.8735899,-43.1423496],[171.8738875,-43.1421716],[171.8742007,-43.1419067],[171.8743893,-43.1417016],[171.8745499,-43.1414637],[171.8746846,-43.1411768],[171.8747647,-43.1408829],[171.8749013,-43.1397363],[171.8749498,-43.1393652],[171.8750387,-43.1385841],[171.8750473,-43.1381926],[171.8750306,-43.1379292],[171.8749825,-43.1376715],[171.8748863,-43.1374252],[171.8747527,-43.1371537],[171.8745429,-43.1368499],[171.8743905,-43.1366872],[171.8742382,-43.1365244],[171.8739773,-43.1363159],[171.873765,-43.1361735],[171.8734888,-43.1360135],[171.8731723,-43.1358535],[171.8719026,-43.135234],[171.871668,-43.1351136],[171.8713729,-43.1349595],[171.8710177,-43.1347282],[171.8707931,-43.134521],[171.8705998,-43.1343138],[171.870357,-43.133999],[171.8701769,-43.1336699],[171.8700443,-43.1332922],[171.8700222,-43.1330456],[171.8700041,-43.1327789],[171.8700299,-43.1322245],[171.8700442,-43.1319067],[171.8701244,-43.1305229],[171.8700996,-43.130142],[171.8700432,-43.129921],[171.8699491,-43.1296358],[171.8697714,-43.1293177],[171.8695914,-43.1290688],[171.8693794,-43.1288267],[171.869164,-43.1286419],[171.8687853,-43.1283895],[171.8679568,-43.127867],[171.8676065,-43.1276137],[171.8673515,-43.1273764],[171.8672808,-43.1272954],[171.8672126,-43.1272173],[171.8671444,-43.1271391],[171.867002,-43.1269062],[171.8669006,-43.1267082],[171.8666262,-43.1260729],[171.8661091,-43.1248391],[171.8659725,-43.124427],[171.8659113,-43.1241411],[171.8658829,-43.1238443],[171.8658898,-43.1235606],[171.8659082,-43.1234003],[171.8659144,-43.1233471],[171.865932,-43.1231938],[171.8660297,-43.1228001],[171.8661977,-43.122208],[171.8668787,-43.1197343],[171.8668893,-43.1196947],[171.8672422,-43.118375],[171.8681104,-43.1152178],[171.8681875,-43.114946],[171.8683424,-43.1143944],[171.8684111,-43.114038],[171.8684878,-43.1134116],[171.8684841,-43.1129417],[171.8682537,-43.1109218],[171.8680711,-43.1095652],[171.8679908,-43.1092497],[171.8678831,-43.1089766],[171.8676688,-43.108591],[171.8673676,-43.1081611],[171.8670938,-43.1078757],[171.8665119,-43.107295],[171.8638327,-43.1046825],[171.8638271,-43.1046768],[171.8631281,-43.103975],[171.8621043,-43.1031366],[171.8578565,-43.0998965],[171.8578263,-43.0998735],[171.8565784,-43.0989216],[171.8565027,-43.0988672],[171.8533789,-43.0964783],[171.8526553,-43.0959408],[171.8523483,-43.0957425],[171.8519392,-43.0955004],[171.8514761,-43.0952806],[171.8509902,-43.095067],[171.8507651,-43.0949903],[171.8505875,-43.0949289],[171.8498647,-43.094694],[171.849086,-43.0944449],[171.8489079,-43.0943881],[171.8488457,-43.0943683],[171.8476369,-43.0939832],[171.8460203,-43.0934721],[171.8443413,-43.0929314],[171.8426641,-43.0923926],[171.8390473,-43.0912571],[171.8351464,-43.0900085],[171.827504,-43.087583],[171.8225309,-43.085976],[171.8178203,-43.0844925],[171.8174567,-43.0843735],[171.8169627,-43.0841899],[171.8165637,-43.0840196],[171.8161647,-43.083822],[171.8159055,-43.0836901],[171.8156416,-43.0835411],[171.8153112,-43.0833424],[171.8149575,-43.0831165],[171.8143617,-43.0826665],[171.8140626,-43.082416],[171.8136034,-43.0819822],[171.8072904,-43.0758221],[171.8067585,-43.0752994],[171.8061688,-43.0747253],[171.8041308,-43.0727378],[171.8037306,-43.0723459],[171.7996212,-43.0683314],[171.7989488,-43.0676879],[171.7986111,-43.067359],[171.7982788,-43.0670312],[171.7978228,-43.06652],[171.797575,-43.0662289],[171.7973958,-43.0659915],[171.7971728,-43.065704],[171.7970063,-43.0655203],[171.7968279,-43.0653552],[171.7966706,-43.0652263],[171.7965007,-43.0651077],[171.7963231,-43.0650015],[171.7961455,-43.0648953],[171.7959073,-43.0647854],[171.7956541,-43.0646821],[171.7951368,-43.0645068],[171.7925926,-43.0636522],[171.7925389,-43.0636342],[171.79157,-43.0633136],[171.7905386,-43.0629623],[171.790029,-43.062758],[171.7897086,-43.0625921],[171.7895798,-43.0625119],[171.7894509,-43.0624316],[171.789254,-43.0622849],[171.7890628,-43.0621036],[171.7889518,-43.0619991],[171.7888588,-43.0618892],[171.7886728,-43.0616683],[171.7883533,-43.0612166],[171.7874546,-43.0600026],[171.7870649,-43.0594652],[171.7868155,-43.0590392],[171.7858623,-43.0570924],[171.785667,-43.0567642],[171.7855573,-43.0566369],[171.785347,-43.0563971],[171.7849832,-43.0560932],[171.7846466,-43.0558782],[171.7843697,-43.0557412],[171.7840703,-43.0556168],[171.7837696,-43.0555168],[171.7835185,-43.055453],[171.7831872,-43.0553835],[171.7828029,-43.0553312],[171.7822,-43.0552753],[171.7818647,-43.0552408],[171.781543,-43.0551865],[171.7813324,-43.0551398],[171.7811131,-43.0550803],[171.7808094,-43.0549741],[171.7806147,-43.0548912],[171.7804201,-43.0548083],[171.778359,-43.0538817],[171.7770784,-43.0532966],[171.7767434,-43.0531341],[171.7762056,-43.0528333],[171.7742225,-43.0517096],[171.7735013,-43.0512812],[171.7728838,-43.0509416],[171.7722889,-43.0506803],[171.7715994,-43.0504222],[171.7699741,-43.0498525],[171.7696961,-43.0497306],[171.7694543,-43.049612],[171.7690457,-43.0493618],[171.7686934,-43.0490802],[171.7682368,-43.0487047],[171.7677606,-43.0483022],[171.7677206,-43.0482679],[171.7676217,-43.048184],[171.7672157,-43.0478393],[171.7668863,-43.0474979],[171.7667011,-43.0472559],[171.7664935,-43.0469155],[171.7657091,-43.0453961],[171.7653976,-43.0447638],[171.7651045,-43.0441565],[171.7648584,-43.0437082],[171.7647351,-43.043516],[171.7644796,-43.0431629],[171.7642156,-43.0428923],[171.7640011,-43.0427007],[171.7636915,-43.0424599],[171.7633639,-43.0422554],[171.7630094,-43.0420702],[171.7623926,-43.041781],[171.7618569,-43.0415291],[171.7615832,-43.0413938],[171.7613467,-43.0412602],[171.7601168,-43.0405142],[171.7589444,-43.0398102],[171.7585946,-43.0395519],[171.7582769,-43.0392357],[171.7581046,-43.0389989],[171.7579811,-43.0387536],[171.7579151,-43.0385727],[171.7579077,-43.0385522],[171.7578608,-43.0384237],[171.7577918,-43.0381198],[171.7574957,-43.0372772],[171.7572281,-43.0365263],[171.7569696,-43.0357798],[171.7566883,-43.0349719],[171.7563935,-43.034155],[171.7562906,-43.0338427],[171.7560593,-43.0331393],[171.7559523,-43.0326302],[171.7558456,-43.0318367],[171.7557547,-43.0314995],[171.7557439,-43.0314109],[171.7557375,-43.0313591],[171.7553979,-43.0285859],[171.7552021,-43.0270516],[171.754889,-43.024492],[171.7548692,-43.0243615],[171.7548571,-43.0242812],[171.7548384,-43.0241573],[171.7548103,-43.0238153],[171.7548022,-43.0233828],[171.7549519,-43.0220711],[171.7550639,-43.0209823],[171.7550381,-43.0206007],[171.7549802,-43.0202078],[171.7548798,-43.0197845],[171.75477,-43.0192621],[171.7546195,-43.0183422],[171.7544561,-43.017787],[171.7542064,-43.0171894],[171.7539948,-43.0168481],[171.7539188,-43.0166741],[171.7538373,-43.0164818],[171.7537891,-43.0163414],[171.7537453,-43.0160078],[171.7537728,-43.0157754],[171.7537768,-43.015742],[171.7537846,-43.0156759],[171.7538256,-43.0154968],[171.7538985,-43.0153197],[171.753982,-43.015144],[171.7542062,-43.0148379],[171.754298,-43.0147279],[171.7544187,-43.0146073],[171.754739,-43.0143519],[171.7552214,-43.014012],[171.7555176,-43.0137552],[171.7557127,-43.0135465],[171.7559157,-43.0132976],[171.7560749,-43.0129998],[171.7561206,-43.0128977],[171.7561663,-43.0127955],[171.7562391,-43.012586],[171.7563049,-43.0123036],[171.7563298,-43.0119829],[171.7563155,-43.0117971],[171.7562869,-43.011609],[171.756221,-43.0113043],[171.7561002,-43.0110283],[171.7560003,-43.0108429],[171.7557698,-43.0104904],[171.7555092,-43.0101198],[171.7552034,-43.0097478],[171.7549035,-43.0094431],[171.7541257,-43.0088436],[171.7537397,-43.0085449],[171.7533363,-43.0082462],[171.752978,-43.0080325],[171.7526269,-43.0078611],[171.7517702,-43.007474],[171.7514807,-43.0073658],[171.7511225,-43.0072621],[171.7507409,-43.0071722],[171.7476219,-43.0064749],[171.7475415,-43.0064572],[171.7471366,-43.0063682],[171.7469503,-43.0063346],[171.7468112,-43.0063097],[171.746712,-43.0062987],[171.7465357,-43.006282],[171.7463565,-43.0062719],[171.7461899,-43.0062709],[171.7460135,-43.0062777],[171.745875,-43.006288],[171.7455338,-43.0063295],[171.7446098,-43.006469],[171.7442931,-43.0065262],[171.7439161,-43.0065769],[171.7436207,-43.0065916],[171.7434112,-43.0065966],[171.7431813,-43.0065836],[171.7429747,-43.0065618],[171.7427825,-43.0065383],[171.7424131,-43.0064942],[171.7422453,-43.0064799],[171.7420557,-43.0064727],[171.7418543,-43.0064762],[171.7416433,-43.0064893],[171.741344,-43.0065286],[171.7405275,-43.0067217],[171.735775,-43.0079983],[171.7353626,-43.0080861],[171.7349259,-43.0081361],[171.7345714,-43.008149],[171.7342432,-43.0081364],[171.734003,-43.0081185],[171.7337587,-43.0080844],[171.733413,-43.0080154],[171.7328998,-43.0078845],[171.7323725,-43.0077434],[171.7318764,-43.0076103],[171.7316103,-43.0075467],[171.731314,-43.0074919],[171.7310858,-43.00747],[171.7308335,-43.0074657],[171.7305353,-43.0074657],[171.7301274,-43.0075118],[171.7298125,-43.0075911],[171.7294431,-43.0077013],[171.7290846,-43.0078239],[171.7285573,-43.0080116],[171.7280178,-43.0081904],[171.7265614,-43.0086869],[171.7260931,-43.0088626],[171.7256335,-43.0090588],[171.7252494,-43.00926],[171.7244628,-43.0097445],[171.7234141,-43.0103818],[171.7229277,-43.0106696],[171.7218981,-43.0112779],[171.7211555,-43.0117274],[171.7206128,-43.0120348],[171.7202427,-43.0122034],[171.7198361,-43.0123415],[171.7195931,-43.0124173],[171.719337,-43.0124771],[171.7189085,-43.0125559],[171.718585,-43.0125917],[171.7182702,-43.0126095],[171.7178805,-43.012611],[171.7175013,-43.0125811],[171.7170933,-43.0125273],[171.7166629,-43.0124407],[171.7164027,-43.0123693],[171.715687,-43.0120862],[171.7156101,-43.0120469],[171.7154947,-43.0119886],[171.71537,-43.0119172],[171.7152304,-43.0118352],[171.7150739,-43.0117362],[171.7149235,-43.0116335],[171.7141859,-43.011136],[171.7140131,-43.0110305],[171.7138887,-43.0109596],[171.7137559,-43.0108898],[171.7136098,-43.0108194],[171.7134684,-43.0107558],[171.7132691,-43.0106773],[171.7131704,-43.0106422],[171.7129322,-43.0105704],[171.7126819,-43.0104987],[171.7124397,-43.010443],[171.7121539,-43.0103888],[171.7119142,-43.0103632],[171.7116894,-43.010343],[171.7114418,-43.010333],[171.7111572,-43.0103246],[171.7063591,-43.0106135],[171.7044291,-43.0107191],[171.7039887,-43.0107153],[171.7035255,-43.0106952],[171.7017553,-43.0105678],[171.7007064,-43.0104922],[171.6989492,-43.0103658],[171.6931126,-43.0099382],[171.6927182,-43.0099093],[171.6923238,-43.0098918],[171.6919971,-43.0098886],[171.6916522,-43.0098938],[171.6911051,-43.0099275],[171.6906489,-43.0099709],[171.6904648,-43.0099972],[171.690134,-43.0100487],[171.6897881,-43.010114],[171.6890895,-43.0102921],[171.6884567,-43.0104967],[171.6880531,-43.0106515],[171.6876803,-43.0108268],[171.6844377,-43.0124308],[171.6841665,-43.0125652],[171.6836452,-43.0128192],[171.6834459,-43.0129043],[171.6829625,-43.0130738],[171.6826636,-43.0131428],[171.6823288,-43.0132198],[171.68196,-43.0133066],[171.6816447,-43.0133708],[171.6813322,-43.0134291],[171.6809877,-43.0134688],[171.6806856,-43.0134954],[171.6803782,-43.0135142],[171.6800914,-43.0135225],[171.6798099,-43.0135275],[171.6795417,-43.0135246],[171.6793021,-43.0135107],[171.6790403,-43.0134944],[171.6787705,-43.0134681],[171.6784953,-43.0134358],[171.6778521,-43.0133297],[171.6767512,-43.0131498],[171.675654,-43.0129727],[171.6752089,-43.0129061],[171.6747637,-43.0128677],[171.674299,-43.0127902],[171.6738407,-43.0127187],[171.6734287,-43.0126785],[171.6731583,-43.0126662],[171.6728825,-43.0126657],[171.6726619,-43.0126757],[171.6724412,-43.0126856],[171.6720075,-43.0127405],[171.6715064,-43.0128434],[171.6683271,-43.0137522],[171.6679172,-43.0138447],[171.6674871,-43.0139168],[171.6673948,-43.0139273],[171.6644262,-43.0142573],[171.6630502,-43.014408],[171.6628362,-43.0144286],[171.6624159,-43.0144447],[171.6620229,-43.0144467],[171.6616224,-43.0144289],[171.6608625,-43.0143349],[171.6604737,-43.0142756],[171.6600142,-43.0142031],[171.6596315,-43.014128],[171.6588349,-43.0139599],[171.6584158,-43.0138837],[171.6582129,-43.0138459],[171.6579968,-43.0138129],[171.6566495,-43.0136023],[171.6558794,-43.0134762],[171.6544965,-43.013263],[171.6536428,-43.0131305],[171.653217,-43.0130628],[171.6527871,-43.0129988],[171.6521719,-43.01292],[171.6517026,-43.0128779],[171.6514547,-43.0128583],[171.6512263,-43.0128495],[171.6501892,-43.0128192],[171.6495245,-43.0127956],[171.6487937,-43.0127678],[171.6484362,-43.012756],[171.6480688,-43.0127443],[171.6477026,-43.012724],[171.6474134,-43.012691],[171.6471826,-43.0126574],[171.6469598,-43.0126122],[171.6466192,-43.0125232],[171.6462139,-43.0123885],[171.6452213,-43.012004],[171.6446738,-43.0117911],[171.6441978,-43.0116045],[171.6437227,-43.0114187],[171.6434359,-43.0113287],[171.6431932,-43.01126],[171.6429643,-43.0112079],[171.6425607,-43.011138],[171.6421516,-43.0110863],[171.6374764,-43.0108467],[171.6363166,-43.0107899],[171.6356767,-43.010758],[171.6351377,-43.0107271],[171.6345196,-43.0106648],[171.6340128,-43.0105934],[171.6315595,-43.0101411],[171.6314975,-43.0101297],[171.6267459,-43.0092435],[171.6234105,-43.0086242],[171.6206793,-43.0081174],[171.6198512,-43.00796],[171.6185982,-43.0077263],[171.6173676,-43.0074965],[171.6149373,-43.0070451],[171.6135966,-43.0067935],[171.6120047,-43.0064949],[171.6106358,-43.0062439],[171.6087572,-43.0058966],[171.6081803,-43.0057822],[171.6068676,-43.005538],[171.6046371,-43.0051256],[171.6035205,-43.0049237],[171.6028831,-43.0048062],[171.6018583,-43.0046021],[171.601189,-43.0044769],[171.6008514,-43.0044149],[171.6004815,-43.0043434],[171.6001328,-43.0042665],[171.5996603,-43.0041213],[171.599397,-43.0040172],[171.5991338,-43.0039072],[171.5987709,-43.0037106],[171.5986331,-43.0036361],[171.5984883,-43.0035424],[171.5981705,-43.0033116],[171.5979202,-43.0031039],[171.5975589,-43.0027217],[171.5973672,-43.0024568],[171.5971419,-43.0020911],[171.5970345,-43.0018334],[171.5969142,-43.0014578],[171.5967749,-43.0007862],[171.5964897,-42.9994887],[171.5964886,-42.9994837],[171.5949555,-42.992508],[171.5947895,-42.9917692],[171.5947326,-42.9915027],[171.5946292,-42.9910791],[171.5945185,-42.9907947],[171.5944109,-42.9905947],[171.594265,-42.9904024],[171.5940893,-42.9902101],[171.5938709,-42.9900143],[171.5937178,-42.9899137],[171.5935389,-42.9898089],[171.5932772,-42.9896759],[171.5929754,-42.9895549],[171.5917569,-42.9890085],[171.591697,-42.9889798],[171.5911009,-42.9886943],[171.5907431,-42.9884408],[171.5905114,-42.9882193],[171.5902888,-42.9879412],[171.5901438,-42.9876779],[171.5900527,-42.9874085],[171.5899827,-42.9870563],[171.5900073,-42.9868043],[171.5900631,-42.9865391],[171.5901546,-42.9862798],[171.5903278,-42.9859571],[171.5920847,-42.9827432],[171.5929554,-42.9811318],[171.5932181,-42.9805661],[171.5932937,-42.9802388],[171.593287,-42.9798479],[171.5932311,-42.9795185],[171.5930605,-42.9791722],[171.5928644,-42.9788971],[171.5926349,-42.9786588],[171.5924204,-42.9784754],[171.592063,-42.9782667],[171.5918455,-42.9781567],[171.5910331,-42.9777589],[171.5889606,-42.9767535],[171.5879372,-42.9762413],[171.5875722,-42.9760355],[171.5865003,-42.9753502],[171.5862721,-42.9752091],[171.5847375,-42.9742355],[171.5841127,-42.9738352],[171.5834844,-42.9734322],[171.5823173,-42.9726881],[171.5819762,-42.9724701],[171.5817915,-42.9723574],[171.5815343,-42.9721886],[171.5811915,-42.9719755],[171.5808275,-42.9717406],[171.5804636,-42.9714941],[171.5801555,-42.9712347],[171.5798605,-42.970939],[171.5795912,-42.9706015],[171.579375,-42.9702558],[171.5792431,-42.9699453],[171.5791926,-42.9697863],[171.5791218,-42.9695335],[171.5790721,-42.9692571],[171.5789857,-42.9682185],[171.5789556,-42.9679602],[171.578868,-42.9675668],[171.5787962,-42.9672538],[171.57867,-42.9669438],[171.5785217,-42.9666609],[171.5783179,-42.9663331],[171.577756,-42.9654265],[171.5772448,-42.96455],[171.5765769,-42.963414],[171.5762341,-42.9628088],[171.5756438,-42.9618017],[171.5753145,-42.961241],[171.5751496,-42.9609686],[171.5749472,-42.96065],[171.5747723,-42.9603978],[171.5747447,-42.9603625],[171.5746088,-42.9601801],[171.5743469,-42.9598531],[171.5741052,-42.959535],[171.573577,-42.9588698],[171.5733388,-42.9585381],[171.5717272,-42.9564885],[171.5714513,-42.9561377],[171.5708548,-42.9553685],[171.5704091,-42.9547945],[171.5700349,-42.9543063],[171.5697602,-42.9539094],[171.569695,-42.9538004],[171.5695549,-42.9535589],[171.5693121,-42.95307],[171.5692018,-42.9527918],[171.5691037,-42.9525164],[171.5690251,-42.9522395],[171.5689676,-42.9520076],[171.5688852,-42.9515984],[171.5684281,-42.9491878],[171.5683592,-42.9488497],[171.5683062,-42.9486145],[171.5682039,-42.94832],[171.5681429,-42.9481781],[171.5681123,-42.9481075],[171.5681019,-42.9480828],[171.5680918,-42.9480593],[171.568082,-42.9480361],[171.5679087,-42.9476958],[171.5677535,-42.9474521],[171.5676241,-42.9472673],[171.5674497,-42.9470429],[171.5672982,-42.9468719],[171.5671699,-42.9467342],[171.566968,-42.9465378],[171.5668255,-42.9464156],[171.5668042,-42.9463946],[171.5667538,-42.9463521],[171.5667028,-42.9463067],[171.5663163,-42.9459663],[171.5662023,-42.9458656],[171.5659234,-42.9455637],[171.5658237,-42.9454685],[171.5655502,-42.945219],[171.5653774,-42.9450228],[171.5651714,-42.9447933],[171.5650114,-42.9446062],[171.5648991,-42.9444605],[171.5646028,-42.9440246],[171.5644496,-42.9437773],[171.5642837,-42.9435175],[171.5641425,-42.9432954],[171.5640191,-42.9430612],[171.5639277,-42.9428591],[171.5638381,-42.9426213],[171.5637488,-42.942339],[171.5637435,-42.9423149],[171.5637357,-42.9422658],[171.5637313,-42.9422422],[171.5637269,-42.9422102],[171.5637156,-42.9421214],[171.5637069,-42.9420318],[171.5637004,-42.9419173],[171.5636974,-42.9417627],[171.5636985,-42.941648],[171.5637133,-42.9414499],[171.5637363,-42.9413122],[171.5637415,-42.9412896],[171.5637668,-42.9411796],[171.5638379,-42.9409152],[171.5638516,-42.9408663],[171.5640281,-42.9403737],[171.5640642,-42.9402739],[171.5640888,-42.9401893],[171.5641174,-42.9400931],[171.5641397,-42.9400133],[171.5641682,-42.9398925],[171.5641938,-42.9397075],[171.5641958,-42.9396451],[171.5641928,-42.9395481],[171.5641921,-42.9394627],[171.5641901,-42.9393996],[171.5641753,-42.9393113],[171.5641278,-42.9390989],[171.5497091,-42.8628788],[171.5496489,-42.8626144],[171.5495861,-42.8622478],[171.5495427,-42.861931],[171.5495463,-42.8616807],[171.5495635,-42.8615512],[171.5495895,-42.8614217],[171.5496785,-42.8611735],[171.5497643,-42.8609477],[171.5499146,-42.8606597],[171.550065,-42.8604465],[171.5502209,-42.8602411],[171.5504871,-42.8599633],[171.5527206,-42.8577423],[171.5535404,-42.8569199],[171.5547914,-42.8556691],[171.5555464,-42.8548999],[171.5561566,-42.8541561],[171.5565126,-42.853658],[171.556736,-42.8532987],[171.5570088,-42.8528],[171.557148,-42.8525428],[171.558358,-42.8496076],[171.5584946,-42.8492577],[171.5596406,-42.8463962],[171.5608744,-42.8433602],[171.5610405,-42.8428727],[171.5618996,-42.8402211],[171.5623374,-42.8388309],[171.5627244,-42.8376295],[171.5627961,-42.8374072],[171.5631049,-42.8364579],[171.5633627,-42.8354858],[171.5634385,-42.8346393],[171.5634287,-42.8342497],[171.5633386,-42.8334833],[171.5632947,-42.8331646],[171.5631103,-42.831863],[171.5630339,-42.8313238],[171.5629433,-42.8306745],[171.562939,-42.8304091],[171.562963,-42.8295097],[171.5629636,-42.8292807],[171.5629487,-42.8290604],[171.5629165,-42.8288006],[171.5629053,-42.8287322],[171.5628644,-42.828482],[171.5628023,-42.8280457],[171.562739,-42.8275559],[171.5627256,-42.827184],[171.5627422,-42.8268798],[171.5627578,-42.8266425],[171.5627954,-42.826319],[171.5628406,-42.8259707],[171.562926,-42.8256027],[171.5630315,-42.8251683],[171.5630548,-42.8250723],[171.5631117,-42.8248861],[171.5632093,-42.8244132],[171.563355,-42.8238489],[171.5651117,-42.8168004],[171.5651412,-42.8166822],[171.5663028,-42.8120356],[171.5664799,-42.8113292],[171.5666418,-42.810931],[171.5668098,-42.8105623],[171.5670599,-42.8101115],[171.5673167,-42.8097162],[171.5676493,-42.8092891],[171.567998,-42.8089028],[171.5683641,-42.8085439],[171.568792,-42.8081518],[171.5701681,-42.8070993],[171.57072,-42.8066858],[171.5708865,-42.8065607],[171.5741665,-42.8040975],[171.5745159,-42.8038373],[171.5751551,-42.8033409],[171.5755858,-42.8029295],[171.5758305,-42.8026539],[171.5760771,-42.8023544],[171.5766412,-42.8015434],[171.5767622,-42.8013729],[171.5781843,-42.79931],[171.5782108,-42.7992716],[171.5784113,-42.7989807],[171.5787038,-42.7986037],[171.5789518,-42.7983603],[171.5792103,-42.7981494],[171.579478,-42.7979804],[171.5797285,-42.797851],[171.5801048,-42.7976845],[171.5807339,-42.7974565],[171.5810811,-42.797323],[171.5814121,-42.7971524],[171.5817136,-42.796968],[171.582306,-42.7965677],[171.5825796,-42.7963966],[171.5828805,-42.79625],[171.5831698,-42.7961414],[171.5834646,-42.7960466],[171.5838767,-42.7959581],[171.584338,-42.7958958],[171.5874537,-42.7957783],[171.5875615,-42.795774],[171.5876161,-42.7957718],[171.5877376,-42.7957669],[171.58799,-42.7957439],[171.5882707,-42.7957009],[171.588549,-42.7956413],[171.5888297,-42.7955582],[171.5890357,-42.7954851],[171.5893568,-42.7953516],[171.589668,-42.795182],[171.5900473,-42.7949445],[171.5926588,-42.7931796],[171.5927797,-42.7930953],[171.5932401,-42.7927939],[171.593797,-42.7924825],[171.5942592,-42.7922486],[171.5965849,-42.7910692],[171.5989469,-42.7899934],[171.5992138,-42.78986],[171.5994884,-42.7897093],[171.6001049,-42.7893204],[171.6020636,-42.7880901],[171.6026599,-42.7876817],[171.6030092,-42.787407],[171.6055152,-42.7853509],[171.6060263,-42.7849566],[171.6070698,-42.7842903],[171.6125039,-42.7810023],[171.6134332,-42.7803992],[171.6134735,-42.780373],[171.6135908,-42.7802969],[171.6168568,-42.7781815],[171.6187246,-42.7769719],[171.6188656,-42.7768793],[171.6225695,-42.7744487],[171.6229658,-42.7741944],[171.6231193,-42.7740908],[171.6235724,-42.7737874],[171.6237718,-42.7736325],[171.6239013,-42.7734993],[171.6241,-42.7732713],[171.6242543,-42.773063],[171.6243824,-42.7728486],[171.6245028,-42.7725485],[171.6245624,-42.7722873],[171.624593,-42.7720023],[171.6245907,-42.7717551],[171.6245585,-42.7715021],[171.6244944,-42.7711686],[171.6244027,-42.7707548],[171.6241718,-42.7696313],[171.6238899,-42.7683421],[171.6238563,-42.7682415],[171.6238431,-42.7682019],[171.6238025,-42.7680802],[171.6236774,-42.767836],[171.623554,-42.7676518],[171.6234037,-42.7674677],[171.6231691,-42.7672337],[171.6228493,-42.7669744],[171.6220826,-42.7664345],[171.619927,-42.7649127],[171.6196691,-42.7647459],[171.6195036,-42.7646459],[171.619461,-42.7646202],[171.6193898,-42.7645772],[171.6191377,-42.7644444],[171.6188225,-42.7643112],[171.6185123,-42.7642183],[171.6181616,-42.7641257],[171.6177957,-42.7640658],[171.617493,-42.7640378],[171.6166897,-42.764045],[171.6158811,-42.7641034],[171.614735,-42.7641781],[171.6139979,-42.7642247],[171.6139144,-42.7642301],[171.613346,-42.7642368],[171.6129693,-42.7642168],[171.6109841,-42.7640781],[171.6106516,-42.7640341],[171.6105969,-42.7640248],[171.6101891,-42.763943],[171.6097721,-42.7638342],[171.6093018,-42.7636957],[171.608991,-42.7636083],[171.6088098,-42.763562],[171.6085938,-42.7635205],[171.6083779,-42.7634791],[171.6078601,-42.763412],[171.6072551,-42.7633562],[171.6065313,-42.7633248],[171.6061869,-42.7633328],[171.6058382,-42.7633472],[171.6051443,-42.7634214],[171.604325,-42.7635209],[171.603956,-42.7635673],[171.6035739,-42.7635978],[171.6032182,-42.7636179],[171.6029626,-42.7636237],[171.602681,-42.7636293],[171.6026194,-42.7636291],[171.6021104,-42.7636209],[171.6015782,-42.7635902],[171.6008971,-42.7635483],[171.5983548,-42.7633995],[171.5978396,-42.7633764],[171.5973744,-42.7633724],[171.5967819,-42.7633944],[171.5961973,-42.7634323],[171.5945432,-42.7635777],[171.5941186,-42.7635885],[171.5936794,-42.7635724],[171.5932757,-42.7635358],[171.5928805,-42.7634835],[171.592473,-42.7633987],[171.5918135,-42.7632397],[171.5913442,-42.763114],[171.5906062,-42.762931],[171.590099,-42.7628337],[171.589836,-42.7627935],[171.5895545,-42.7627554],[171.589214,-42.7627173],[171.5881073,-42.7626319],[171.5856298,-42.7624615],[171.5839241,-42.7623471],[171.5834027,-42.7623405],[171.5830989,-42.7623619],[171.582787,-42.7624089],[171.5820859,-42.7625614],[171.581836,-42.7626157],[171.5814308,-42.7626883],[171.5811941,-42.7627172],[171.5809332,-42.7627347],[171.580562,-42.7627324],[171.5801307,-42.7626929],[171.5796879,-42.7626161],[171.5791031,-42.7624369],[171.5784889,-42.7621789],[171.5780057,-42.7619489],[171.5775896,-42.7617112],[171.5774014,-42.7615913],[171.576764,-42.7610876],[171.5763257,-42.7607594],[171.5761061,-42.7606151],[171.5758656,-42.7604708],[171.5756659,-42.7603624],[171.5752352,-42.760143],[171.5748931,-42.7599967],[171.5744457,-42.7598279],[171.5742837,-42.7597702],[171.5737266,-42.7596089],[171.5731503,-42.7594719],[171.5726388,-42.7593554],[171.5719437,-42.7591918],[171.5716142,-42.7591022],[171.5714011,-42.7590332],[171.5710287,-42.7589109],[171.5705915,-42.7587587],[171.5696903,-42.7584398],[171.5693644,-42.7583294],[171.5690349,-42.7582191],[171.5684258,-42.758011],[171.5679018,-42.7578313],[171.56764,-42.7577402],[171.5674053,-42.7576605],[171.5670507,-42.7575636],[171.566748,-42.7574809],[171.5663277,-42.7573839],[171.5657752,-42.7572776],[171.5645734,-42.7570505],[171.5641226,-42.7569657],[171.5597439,-42.7561507],[171.5579604,-42.7558157],[171.5578863,-42.7558007],[171.557732,-42.7557721],[171.5541373,-42.7551057],[171.5518467,-42.7546645],[171.5515179,-42.7545675],[171.5511218,-42.7544282],[171.550831,-42.7543051],[171.5505163,-42.7541485],[171.5485107,-42.7529676],[171.5481527,-42.7527521],[171.5472136,-42.7522063],[171.5471513,-42.7521694],[171.5464689,-42.7517595],[171.5445284,-42.7506195],[171.5444834,-42.7505911],[171.5437336,-42.7501292],[171.5423195,-42.7492049],[171.5412332,-42.748488],[171.5406738,-42.748126],[171.5400158,-42.7476857],[171.5394885,-42.7473474],[171.5391582,-42.7471579],[171.5388164,-42.7469798],[171.5385067,-42.746828],[171.5379398,-42.7465789],[171.5378831,-42.7465574],[171.5377181,-42.7464948],[171.5372836,-42.7463415],[171.5367137,-42.7461717],[171.5355013,-42.7458605],[171.534089,-42.7454953],[171.5340225,-42.7454779],[171.5333176,-42.7452983],[171.533016,-42.745216],[171.5320189,-42.7448971],[171.5318799,-42.7448531],[171.5304623,-42.7443788],[171.5304159,-42.7443638],[171.5303292,-42.7443357],[171.5276337,-42.7434322],[171.527338,-42.7433634],[171.5271288,-42.7433024],[171.526874,-42.7432236],[171.5265199,-42.7430995],[171.5262678,-42.7430148],[171.5260023,-42.742938],[171.5257743,-42.7428789],[171.5255383,-42.7428316],[171.5252137,-42.7427745],[171.524924,-42.742737],[171.5246612,-42.7427193],[171.5244117,-42.7427055],[171.5241891,-42.7427055],[171.5237312,-42.742716],[171.5206915,-42.742804],[171.5204582,-42.7427922],[171.5201272,-42.7427827],[171.5178738,-42.7428409],[171.5160844,-42.7428921],[171.5157022,-42.7429016],[171.5155435,-42.7429022],[171.5153606,-42.742894],[171.5151979,-42.7428783],[171.515037,-42.7428599],[171.5149054,-42.742838],[171.5147384,-42.7428046],[171.5145758,-42.742765],[171.514406,-42.7427107],[171.5141299,-42.7426063],[171.5138258,-42.7424679],[171.5135325,-42.7422822],[171.5132895,-42.7420826],[171.5130648,-42.7418536],[171.5128978,-42.741603],[171.5127642,-42.7413373],[171.5126438,-42.7410294],[171.5123481,-42.7402489],[171.5114217,-42.737808],[171.5113515,-42.7376117],[171.5111844,-42.7372896],[171.5110342,-42.7370748],[171.5108358,-42.7368699],[171.5105755,-42.7366533],[171.5102912,-42.736473],[171.5099613,-42.7363124],[171.5095724,-42.7361824],[171.509154,-42.7360859],[171.5088029,-42.7360328],[171.5083466,-42.7359638],[171.5066191,-42.735721],[171.5057902,-42.7356009],[171.5027557,-42.7351744],[171.5015759,-42.7350083],[171.499274,-42.7346807],[171.4982587,-42.7345375],[171.4948675,-42.7340568],[171.4921745,-42.733676],[171.4909312,-42.7335013],[171.4903536,-42.7334178],[171.489834,-42.7333456],[171.4876394,-42.7330345],[171.4871185,-42.7329621],[171.4864682,-42.7328647],[171.4859294,-42.7327631],[171.4855763,-42.7326809],[171.4851357,-42.7325667],[171.484639,-42.7324121],[171.4843906,-42.7323348],[171.4841422,-42.7322575],[171.4824416,-42.7317145],[171.4807618,-42.7311843],[171.479424,-42.7307604],[171.4789593,-42.7306068],[171.4774521,-42.7301356],[171.4772176,-42.7300605],[171.4763752,-42.7297925],[171.4759212,-42.7296038],[171.4754653,-42.7293083],[171.4750683,-42.7289576],[171.474851,-42.7286207],[171.474641,-42.728157],[171.4744841,-42.7277516],[171.4744057,-42.727472],[171.4743648,-42.7270254],[171.4743816,-42.7265736],[171.4744455,-42.7262199],[171.4745587,-42.7258583],[171.4747991,-42.7254026],[171.475071,-42.7250405],[171.4755539,-42.7245499],[171.4760633,-42.7241736],[171.4769003,-42.7236652],[171.4789817,-42.7223509],[171.4817041,-42.7206543],[171.4841422,-42.719137],[171.4847631,-42.7188025],[171.4853384,-42.7185418],[171.486116,-42.7182597],[171.4869029,-42.718015],[171.4878539,-42.7177402],[171.4886318,-42.7175138],[171.4892721,-42.7173268],[171.4898293,-42.7171411],[171.490264,-42.716971],[171.4905994,-42.7168152],[171.4912599,-42.7165265],[171.491734,-42.7163195],[171.4920927,-42.7161657],[171.4928185,-42.7158426],[171.4937186,-42.7154445],[171.4942565,-42.7152017],[171.4942951,-42.7151852],[171.4954849,-42.7146748],[171.4960921,-42.7143896],[171.4963246,-42.7142772],[171.4965975,-42.71412],[171.4968117,-42.7139885],[171.4972665,-42.7136713],[171.4975412,-42.7134457],[171.4978415,-42.7131728],[171.4988761,-42.7121975],[171.4989124,-42.7121629],[171.5026867,-42.708617],[171.5048417,-42.7065924],[171.5049358,-42.7065059],[171.5050001,-42.7064476],[171.5078267,-42.7037994],[171.5078788,-42.703752],[171.5108969,-42.7009032],[171.511699,-42.7001513],[171.5127875,-42.6991309],[171.514038,-42.6979531],[171.5145435,-42.6974797],[171.5152038,-42.696948],[171.5153864,-42.6968188],[171.5156338,-42.6966531],[171.5163909,-42.6961636],[171.5174184,-42.6955228],[171.5191423,-42.6944359],[171.5196922,-42.6940381],[171.5203766,-42.6934953],[171.5204332,-42.6934447],[171.5279646,-42.6873724],[171.5282332,-42.687148],[171.52847,-42.6869432],[171.528736,-42.6866851],[171.5291328,-42.6862674],[171.5291791,-42.686217],[171.5296216,-42.6856344],[171.5298432,-42.6852731],[171.5300211,-42.6849628],[171.5309579,-42.6832188],[171.5346303,-42.6763754],[171.5346743,-42.6762949],[171.5354009,-42.6749668],[171.5360061,-42.6738049],[171.5361664,-42.6733714],[171.5362751,-42.6729324],[171.5363501,-42.672371],[171.5364751,-42.6706309],[171.5368509,-42.6658413],[171.5369021,-42.6650975],[171.5369191,-42.6649114],[171.5369825,-42.6642306],[171.537022,-42.663566],[171.5369751,-42.6630996],[171.5369034,-42.6628314],[171.5368362,-42.6626331],[171.5364665,-42.6617729],[171.5363245,-42.6614579],[171.5351468,-42.6588831],[171.5349307,-42.658239],[171.534889,-42.6580853],[171.5348658,-42.6579136],[171.5348966,-42.6575276],[171.5349194,-42.6573467],[171.5351149,-42.6568763],[171.5351597,-42.6567568],[171.5352888,-42.6562623],[171.535334,-42.6558067],[171.535272,-42.6553506],[171.5351638,-42.6546432],[171.5351754,-42.65431],[171.5355494,-42.6526834],[171.5356555,-42.6521935],[171.5356895,-42.6518819],[171.5356601,-42.6514677],[171.5355694,-42.6510471],[171.5354097,-42.6506392],[171.535145,-42.6501775],[171.534904,-42.6497669],[171.5345838,-42.649199],[171.5336772,-42.6476286],[171.5333494,-42.647073],[171.532961,-42.6464172],[171.5328122,-42.6462017],[171.5326232,-42.6459823],[171.5324509,-42.6458122],[171.5322529,-42.6456359],[171.5319838,-42.6454341],[171.5317458,-42.6452676],[171.5315198,-42.6451267],[171.5309714,-42.6448047],[171.5302523,-42.6443728],[171.5293712,-42.6438437],[171.5284952,-42.6433249],[171.5281963,-42.6431525],[171.5277007,-42.6428968],[171.5269874,-42.6426072],[171.5260548,-42.6422894],[171.5254867,-42.6420992],[171.5241983,-42.6416545],[171.5238476,-42.6415026],[171.5235359,-42.6413317],[171.5232471,-42.6411159],[171.5230897,-42.6409709],[171.5229419,-42.6408084],[171.5228494,-42.6406745],[171.5227761,-42.6405448],[171.5227206,-42.6404385],[171.5226488,-42.6402801],[171.5225901,-42.6400583],[171.5225444,-42.6397897],[171.5225078,-42.6393678],[171.5224168,-42.6384753],[171.5223589,-42.637929],[171.5223478,-42.6378108],[171.5223021,-42.6373372],[171.522281,-42.6370681],[171.5222181,-42.6366482],[171.5220989,-42.6362286],[171.5219708,-42.6359385],[171.5217624,-42.6355892],[171.5215023,-42.6352228],[171.5204598,-42.6338722],[171.5201544,-42.6334813],[171.5199087,-42.6331164],[171.519758,-42.632877],[171.5193635,-42.6321768],[171.5191568,-42.6317753],[171.5191187,-42.6316977],[171.5188424,-42.6312021],[171.5186303,-42.6308081],[171.5166559,-42.6271706],[171.5164868,-42.6265399],[171.5162896,-42.6260241],[171.5161452,-42.6257952],[171.5160978,-42.6257201],[171.5158543,-42.6254059],[171.5151046,-42.6243981],[171.5137376,-42.6225524],[171.5134497,-42.622006],[171.5133764,-42.6217771],[171.5132352,-42.62117],[171.51318,-42.6208648],[171.5130994,-42.620414],[171.5129403,-42.6196083],[171.5128234,-42.6190503],[171.51276,-42.6188113],[171.5127048,-42.6186411],[171.5124955,-42.6182326],[171.5123668,-42.6179831],[171.5122772,-42.6177854],[171.5122382,-42.6176595],[171.5121867,-42.6173917],[171.5121639,-42.617128],[171.5121078,-42.6162526],[171.5120652,-42.6154633],[171.51201,-42.6145781],[171.511981,-42.6139605],[171.5119438,-42.6134481],[171.5119122,-42.6129634],[171.5118584,-42.6126715],[171.5117986,-42.6124182],[171.5117001,-42.6121837],[171.5115729,-42.6119202],[171.5114403,-42.611671],[171.5111257,-42.6111553],[171.5109769,-42.6109043],[171.5102413,-42.6096558],[171.5089248,-42.6074266],[171.5081268,-42.6060749],[171.5077443,-42.6054208],[171.5073176,-42.6047014],[171.5068552,-42.603931],[171.5065594,-42.603424],[171.5064167,-42.6031098],[171.5063444,-42.6027716],[171.5063285,-42.6025181],[171.5063336,-42.6022846],[171.506366,-42.6013669],[171.5063633,-42.6011612],[171.5063375,-42.600748],[171.5062215,-42.6003171],[171.5060554,-42.5999871],[171.5056641,-42.5993348],[171.5050955,-42.5983828],[171.5048305,-42.5979312],[171.5046831,-42.5976363],[171.5046017,-42.5974391],[171.5044481,-42.5969938],[171.5043281,-42.5963508],[171.5038818,-42.5937766],[171.5038689,-42.5933863],[171.5039343,-42.5930285],[171.5041444,-42.592213],[171.5047422,-42.5898533],[171.505537,-42.5867995],[171.5056083,-42.5863303],[171.5056178,-42.5860166],[171.5055687,-42.5856889],[171.5050214,-42.5837399],[171.5049166,-42.5833558],[171.5043174,-42.5811591],[171.5041528,-42.5807614],[171.5040519,-42.5805791],[171.5039294,-42.5804102],[171.5037564,-42.5802144],[171.5035915,-42.5800733],[171.5034013,-42.5799215],[171.5031468,-42.5797684],[171.5028851,-42.5796524],[171.5024511,-42.5794852],[171.5021253,-42.5793844],[171.5012435,-42.5791113],[171.5009096,-42.5790251],[171.5005631,-42.5789495],[171.5001119,-42.5789061],[171.499704,-42.5788947],[171.4993206,-42.5789142],[171.498407,-42.5790245],[171.4969274,-42.5792205],[171.4931396,-42.5797317],[171.4923274,-42.5798425],[171.4918082,-42.5799086],[171.4913738,-42.57996],[171.4911062,-42.5799785],[171.4909271,-42.5799863],[171.4906925,-42.5799798],[171.4904417,-42.5799573],[171.4901565,-42.5799089],[171.4899147,-42.5798552],[171.4895103,-42.5797177],[171.4891601,-42.5795537],[171.4888007,-42.5793095],[171.488508,-42.5790785],[171.4876898,-42.5783635],[171.4872224,-42.5779526],[171.4870184,-42.577802],[171.4868,-42.5776699],[171.4865616,-42.5775546],[171.4863274,-42.5774572],[171.4860715,-42.5773785],[171.4858185,-42.5773212],[171.4855187,-42.5772719],[171.4850813,-42.577229],[171.4837966,-42.5771591],[171.4819703,-42.577086],[171.4814933,-42.5770271],[171.4806913,-42.5769896],[171.479318,-42.5769225],[171.4780386,-42.5768612],[171.4775931,-42.5768432],[171.4772552,-42.5768151],[171.4769389,-42.5767763],[171.4766439,-42.5767309],[171.4751955,-42.5764899],[171.4745061,-42.5763813],[171.4739816,-42.576329],[171.472901,-42.5761438],[171.4723744,-42.5760146],[171.4720861,-42.5759138],[171.4718678,-42.5758247],[171.4716359,-42.5757056],[171.4713919,-42.5755682],[171.4711417,-42.5753967],[171.47088,-42.5751601],[171.4707173,-42.5749985],[171.4705438,-42.5747956],[171.4703987,-42.5745785],[171.470273,-42.5743545],[171.4702228,-42.5742319],[171.4701861,-42.574114],[171.4701548,-42.5739958],[171.4701381,-42.5738729],[171.4701143,-42.5736739],[171.470115,-42.5734671],[171.470132,-42.5732802],[171.4701715,-42.5730581],[171.4702201,-42.5728747],[171.4703008,-42.5726474],[171.4710159,-42.5712303],[171.4716445,-42.5699794],[171.4719443,-42.5693844],[171.4729254,-42.5674188],[171.4730459,-42.567193],[171.4731548,-42.566946],[171.4732255,-42.5667301],[171.4732691,-42.5665169],[171.4732929,-42.5662039],[171.4733302,-42.5633784],[171.4733272,-42.5626702],[171.4733047,-42.5624046],[171.4732648,-42.5621736],[171.4731563,-42.5618815],[171.4729971,-42.5615871],[171.4727638,-42.5612104],[171.4723288,-42.5604899],[171.4720746,-42.560104],[171.4718619,-42.5598179],[171.4714667,-42.5593994],[171.4711438,-42.5591085],[171.4706537,-42.5587715],[171.4702683,-42.558541],[171.4697923,-42.558283],[171.4693632,-42.5580782],[171.4688624,-42.557868],[171.4683504,-42.557703],[171.4679627,-42.5575953],[171.4675569,-42.5575062],[171.4666233,-42.5573513],[171.4655524,-42.5571965],[171.4648064,-42.5570806],[171.4642697,-42.556962],[171.463716,-42.5568127],[171.4609267,-42.556092],[171.4604438,-42.555959],[171.4551987,-42.5545977],[171.4548144,-42.5544994],[171.4517116,-42.5536907],[171.4509528,-42.5534882],[171.4439418,-42.5516583],[171.4430002,-42.5514186],[171.437114,-42.5498878],[171.4366226,-42.5497552],[171.4363732,-42.5496896],[171.4360181,-42.5495807],[171.4355805,-42.5494172],[171.4352323,-42.5492675],[171.4351251,-42.5492193],[171.4346663,-42.5490142],[171.4335863,-42.5485205],[171.4332026,-42.5483446],[171.4331572,-42.5483238],[171.4305377,-42.5471229],[171.4293975,-42.5465993],[171.4292504,-42.5465317],[171.4291033,-42.5464642],[171.4286686,-42.5462867],[171.428185,-42.546112],[171.4277804,-42.5460077],[171.4273758,-42.5459034],[171.4249477,-42.5453204],[171.4238908,-42.5450681],[171.4228754,-42.5448227],[171.4225744,-42.544745],[171.4222772,-42.5446909],[171.4221329,-42.5446708],[171.4218124,-42.5446348],[171.4215931,-42.5446272],[171.4213795,-42.5446308],[171.4208408,-42.5446639],[171.4185752,-42.5449271],[171.4179695,-42.545003],[171.4176961,-42.5450298],[171.4173713,-42.5450596],[171.4170599,-42.5450567],[171.4169093,-42.5450486],[171.4166828,-42.5450282],[171.4164734,-42.5449858],[171.4162676,-42.5449398],[171.416021,-42.544873],[171.4155653,-42.5446805],[171.4152664,-42.5445079],[171.4150207,-42.5443365],[171.4148439,-42.5441814],[171.4146891,-42.5440182],[171.4144665,-42.5437084],[171.4143323,-42.5434326],[171.4142576,-42.543181],[171.4142183,-42.5428982],[171.414215,-42.5426882],[171.4142359,-42.5425203],[171.414266,-42.5423616],[171.4143196,-42.5422156],[171.4144032,-42.5420434],[171.4145145,-42.5418626],[171.4146862,-42.5416473],[171.4152823,-42.5410752],[171.4158261,-42.5405569],[171.4164862,-42.5399099],[171.4169214,-42.5393925],[171.4172574,-42.5389026],[171.4176251,-42.5382071],[171.4178361,-42.5379528],[171.4180652,-42.5377341],[171.4183758,-42.5375013],[171.4186392,-42.537334],[171.4192287,-42.5369976],[171.419859,-42.5366109],[171.4202592,-42.5364161],[171.4207065,-42.5362086],[171.4211841,-42.5359812],[171.421485,-42.5358055],[171.4218147,-42.5355729],[171.4219623,-42.5354215],[171.4221696,-42.5351865],[171.4223649,-42.5348979],[171.4224886,-42.5344782],[171.4225106,-42.5340921],[171.422483,-42.5337585],[171.422377,-42.5334527],[171.4222132,-42.533153],[171.421951,-42.5328428],[171.4215871,-42.5325496],[171.4211449,-42.5323119],[171.4203831,-42.5319572],[171.4192361,-42.5314111],[171.4186887,-42.5311685],[171.4180918,-42.5309318],[171.4177707,-42.5308111],[171.4174523,-42.5306789],[171.4169834,-42.5304552],[171.4165943,-42.530245],[171.4163512,-42.5301228],[171.4161419,-42.5300195],[171.4157691,-42.5298901],[171.4153384,-42.5297994],[171.4150689,-42.5297648],[171.4148215,-42.5297436],[171.4145876,-42.5297446],[171.4143014,-42.5297556],[171.4140625,-42.5297868],[171.4138288,-42.5298277],[171.4134785,-42.5299171],[171.4131483,-42.5300441],[171.412889,-42.5301752],[171.4126589,-42.5303222],[171.4117634,-42.5309479],[171.4112519,-42.53127],[171.4107684,-42.5314739],[171.4102702,-42.5316201],[171.4098672,-42.531721],[171.4094991,-42.5317618],[171.4091218,-42.5317645],[171.4086741,-42.5316875],[171.4082717,-42.5315746],[171.4079643,-42.5314199],[171.4077123,-42.5312581],[171.407547,-42.5311273],[171.4073567,-42.5308417],[171.4072564,-42.5306738],[171.4071788,-42.5304738],[171.4071309,-42.5302645],[171.4070579,-42.5298714],[171.4069846,-42.5294178],[171.406786,-42.5280445],[171.4066671,-42.5272349],[171.4063518,-42.5251899],[171.4062719,-42.5246631],[171.4061411,-42.5238249],[171.4060857,-42.5234638],[171.4060459,-42.5232358],[171.4059853,-42.5230197],[171.4058827,-42.522798],[171.4057617,-42.5225981],[171.4056444,-42.5224375],[171.4054935,-42.5222667],[171.4053277,-42.5220972],[171.405075,-42.5218879],[171.4047856,-42.5217053],[171.4045309,-42.5215689],[171.4041992,-42.521432],[171.4038526,-42.5213224],[171.4036044,-42.5212594],[171.4033524,-42.5212162],[171.4029339,-42.5211494],[171.4020988,-42.5210478],[171.4007613,-42.5208523],[171.4004332,-42.5208051],[171.3999091,-42.5207303],[171.3994264,-42.5206554],[171.3991005,-42.5205902],[171.398792,-42.5205057],[171.3984988,-42.5203933],[171.3982121,-42.5202568],[171.3979871,-42.520136],[171.397851,-42.5200491],[171.3976912,-42.5199374],[171.397499,-42.5197743],[171.3972753,-42.5195633],[171.3970227,-42.5192271],[171.3968228,-42.5188574],[171.3965493,-42.5182289],[171.3963213,-42.5176851],[171.3960809,-42.5170351],[171.3959819,-42.5166984],[171.3959404,-42.5165009],[171.3959327,-42.5161385],[171.3959619,-42.5158129],[171.3960706,-42.5150685],[171.3961792,-42.5143242],[171.3961809,-42.513912],[171.3961288,-42.513618],[171.396094,-42.5134809],[171.3960198,-42.5132951],[171.3959344,-42.5131036],[171.3958247,-42.5129171],[171.3956993,-42.5127395],[171.3955535,-42.5125668],[171.395404,-42.5124123],[171.3952619,-42.5122828],[171.3951039,-42.5121594],[171.3949011,-42.5120214],[171.3946577,-42.5118802],[171.3944008,-42.5117578],[171.3941954,-42.5116734],[171.3939931,-42.5116056],[171.3937895,-42.511542],[171.3935935,-42.5114929],[171.3933374,-42.5114386],[171.3930737,-42.5113875],[171.3927917,-42.5113384],[171.3925233,-42.5112814],[171.3922427,-42.5112157],[171.3919117,-42.5111153],[171.3916541,-42.5110028],[171.3913965,-42.5108902],[171.3911482,-42.5107385],[171.3909971,-42.5106387],[171.3908449,-42.5105193],[171.3907228,-42.5104111],[171.3906303,-42.5103287],[171.3904592,-42.5101478],[171.3902564,-42.5099009],[171.3900959,-42.5096482],[171.3894476,-42.5086249],[171.389412,-42.5085686],[171.3885992,-42.5072914],[171.3883886,-42.5069561],[171.3872802,-42.505197],[171.3870013,-42.5047473],[171.3868538,-42.5044939],[171.3866975,-42.5041619],[171.3866064,-42.5039317],[171.386499,-42.5035502],[171.3863783,-42.5026543],[171.3863083,-42.5021007],[171.386241,-42.5015847],[171.3861861,-42.5011676],[171.386145,-42.5008252],[171.3860803,-42.5005283],[171.3860182,-42.5002897],[171.3859331,-42.5000579],[171.3858449,-42.4998603],[171.3857293,-42.4996544],[171.3854523,-42.4992227],[171.3852076,-42.4988619],[171.385161,-42.498784],[171.3851441,-42.4987558],[171.3850802,-42.4986439],[171.3849998,-42.4985199],[171.3847191,-42.4981214],[171.3837239,-42.4966169],[171.3832786,-42.4959302],[171.3829018,-42.4953834],[171.3822137,-42.4943235],[171.3789497,-42.4893733],[171.3777021,-42.4874781],[171.3756544,-42.4843825],[171.3752815,-42.483813],[171.3752653,-42.4837883],[171.3752492,-42.4837637],[171.3747956,-42.483071],[171.3741072,-42.4820302],[171.3738063,-42.4815783],[171.3733192,-42.480846],[171.3717292,-42.4784281],[171.3713807,-42.4779068],[171.3707113,-42.4768839],[171.367727,-42.4723669],[171.367709,-42.4723384],[171.3672857,-42.4716917],[171.3669247,-42.4711348],[171.3667861,-42.4708727],[171.3666143,-42.4704772],[171.3664719,-42.4700648],[171.3663264,-42.4692491],[171.365815,-42.4654466],[171.3657256,-42.4648049],[171.3656552,-42.4642494],[171.3650968,-42.460248],[171.364969,-42.4592389],[171.364882,-42.4586564],[171.3648137,-42.4580943],[171.3648115,-42.4575163],[171.3648491,-42.4571084],[171.3651277,-42.4548347],[171.365196,-42.4541806],[171.3652339,-42.4536532],[171.365174,-42.4532504],[171.3650098,-42.452665],[171.3647326,-42.4521746],[171.3643073,-42.4515626],[171.3622958,-42.4488038],[171.3620896,-42.448514],[171.3618564,-42.4482202],[171.3616674,-42.4480259],[171.3614366,-42.4478247],[171.3611841,-42.4476443],[171.3600039,-42.4470379],[171.3597446,-42.4468643],[171.3595418,-42.4467227],[171.3592895,-42.4464773],[171.3590879,-42.4462228],[171.3586057,-42.4454589],[171.3585852,-42.4454264],[171.3584875,-42.4452716],[171.3569438,-42.4426435],[171.3566756,-42.4420043],[171.3564435,-42.4416186],[171.3561337,-42.4411174],[171.3559478,-42.440843],[171.3558409,-42.4406677],[171.3556424,-42.4402537],[171.3555655,-42.4400017],[171.3555187,-42.4398074],[171.3554607,-42.4393793],[171.3554923,-42.4387451],[171.3554936,-42.4386724],[171.3554946,-42.4384629],[171.3554772,-42.4382073],[171.3554466,-42.4379484],[171.3553399,-42.4375032],[171.3552983,-42.437372],[171.3552406,-42.4372289],[171.3551682,-42.4371225],[171.3550796,-42.4370161],[171.3549787,-42.4369132],[171.3548643,-42.4368163],[171.3547268,-42.4367253],[171.3545934,-42.4366564],[171.3544654,-42.4365955],[171.3543167,-42.4365329],[171.3541436,-42.4364837],[171.3539796,-42.4364528],[171.3537995,-42.4364318],[171.3536029,-42.4364194],[171.3534324,-42.4364232],[171.3532726,-42.4364309],[171.3530389,-42.4364503],[171.3523278,-42.4365274],[171.3504318,-42.4367367],[171.3502413,-42.4367596],[171.3495599,-42.4368416],[171.3482543,-42.4370471],[171.3468488,-42.4372768],[171.3463706,-42.4373565],[171.3444983,-42.4376687],[171.3425186,-42.4379845],[171.3417767,-42.4381082],[171.3398308,-42.4384205],[171.3395893,-42.4384628],[171.3384575,-42.4386541],[171.3378051,-42.4387531],[171.3376363,-42.4387714],[171.3374725,-42.4387789],[171.337328,-42.4387753],[171.3371753,-42.4387668],[171.336997,-42.4387523],[171.3366155,-42.4387221],[171.3363871,-42.4387061],[171.3361318,-42.4386889],[171.3359727,-42.4386878],[171.3351199,-42.4386832],[171.3349629,-42.4386752],[171.3348313,-42.4386628],[171.3346956,-42.4386391],[171.334562,-42.4386082],[171.334452,-42.4385748],[171.3343442,-42.4385341],[171.3342406,-42.4384883],[171.3341375,-42.4384355],[171.3340159,-42.4383643],[171.3339462,-42.4383174],[171.3338165,-42.4382243],[171.3332129,-42.4377658],[171.3329671,-42.4375619],[171.3326047,-42.4372283],[171.3324105,-42.4370498],[171.3322918,-42.4369149],[171.3322048,-42.4367671],[171.3321333,-42.4365838],[171.3320522,-42.4362698],[171.3319357,-42.4356328],[171.331894,-42.4355112],[171.3318693,-42.435439],[171.3318107,-42.4352679],[171.3316665,-42.4349933],[171.3313935,-42.4346412],[171.3312093,-42.4344274],[171.3309889,-42.4342506],[171.3308285,-42.4341438],[171.3303336,-42.4338704],[171.3297274,-42.4335932],[171.3294232,-42.433452],[171.3290558,-42.4333209],[171.3288646,-42.4332674],[171.3285943,-42.4331991],[171.3280655,-42.4331517],[171.3277577,-42.4331137],[171.3273701,-42.433058],[171.3271979,-42.4330383],[171.3270334,-42.4330331],[171.3268801,-42.433037],[171.3267347,-42.4330485],[171.3265915,-42.4330708],[171.3264424,-42.4331035],[171.3262766,-42.4331475],[171.3260812,-42.433209],[171.3258823,-42.4332805],[171.3255501,-42.4334056],[171.32462,-42.4337796],[171.3239546,-42.4340402],[171.3235298,-42.4342112],[171.3234019,-42.4342789],[171.3232869,-42.4343397],[171.3230968,-42.4344522],[171.3229382,-42.4345607],[171.3222803,-42.4350156],[171.3216736,-42.4354266],[171.321152,-42.4358022],[171.3210202,-42.435926],[171.3208872,-42.4360869],[171.320665,-42.4363679],[171.3202193,-42.4370004],[171.3200434,-42.4372847],[171.3199618,-42.4374434],[171.3198711,-42.4376196],[171.3197909,-42.4378214],[171.3197125,-42.4380805],[171.3196363,-42.4383672],[171.3195917,-42.4386427],[171.3195825,-42.4391105],[171.3195694,-42.4400435],[171.3195227,-42.4408099],[171.3193481,-42.4415388],[171.3191022,-42.4421855],[171.3189685,-42.4424941],[171.3188508,-42.4426833],[171.3187203,-42.4428336],[171.3185104,-42.4429946],[171.3182528,-42.4431831],[171.3181089,-42.443305],[171.3179762,-42.443453],[171.3178562,-42.4436656],[171.3177514,-42.4440152],[171.3176718,-42.4441916],[171.3175956,-42.4443235],[171.3174934,-42.4444536],[171.3173498,-42.4445691],[171.3171444,-42.4446966],[171.3167622,-42.4448801],[171.3164728,-42.4450122],[171.3162105,-42.4451564],[171.3158636,-42.445399],[171.3153441,-42.4458155],[171.314959,-42.4461592],[171.3146566,-42.4464607],[171.314251,-42.446887],[171.313819,-42.4473707],[171.3132825,-42.4479784],[171.3127292,-42.4485497],[171.3120031,-42.4490109],[171.3108654,-42.4495554],[171.3106012,-42.4496865],[171.3095993,-42.4501585],[171.3085034,-42.4506828],[171.3057664,-42.4519889],[171.3055717,-42.4520809],[171.3034015,-42.4531314],[171.302894,-42.4533654],[171.3020747,-42.4537507],[171.3019109,-42.4538273],[171.3016349,-42.453942],[171.301357,-42.4540515],[171.3010953,-42.4541475],[171.3007002,-42.4542747],[171.3003921,-42.4543655],[171.300084,-42.4544462],[171.2998245,-42.454508],[171.2992802,-42.4546257],[171.2972831,-42.455043],[171.2957707,-42.455362],[171.2930774,-42.455927],[171.2925834,-42.4560332],[171.2920175,-42.4561464],[171.291474,-42.4562336],[171.290983,-42.4562971],[171.2906409,-42.4563286],[171.2903206,-42.4563476],[171.2899342,-42.4563608],[171.2895181,-42.4563655],[171.2892058,-42.4563574],[171.2889144,-42.4563429],[171.2884591,-42.4563103],[171.2683922,-42.454853],[171.2678011,-42.4548192],[171.2673187,-42.4548104],[171.266847,-42.4548372],[171.2663314,-42.4549069],[171.265746,-42.45505],[171.2646581,-42.455457],[171.263122,-42.4561045],[171.2629044,-42.4562051],[171.2606453,-42.4571595],[171.2602936,-42.4573102],[171.2598476,-42.4575241],[171.2594691,-42.4577427],[171.2592423,-42.4578684],[171.2588574,-42.4581107],[171.2541588,-42.46149],[171.2538931,-42.461654],[171.2537516,-42.4617495],[171.2521303,-42.4626831],[171.2513063,-42.4631032],[171.25034,-42.4635577],[171.2492999,-42.4640338],[171.2484977,-42.4643921],[171.2480051,-42.4645955],[171.2475623,-42.464734],[171.2471089,-42.4648488],[171.2466257,-42.4649177],[171.2461318,-42.4649511],[171.2455291,-42.46494],[171.2452005,-42.4649116],[171.2448128,-42.4648584],[171.2444079,-42.4647685],[171.2440591,-42.4646666],[171.243627,-42.4645195],[171.2430401,-42.4642304],[171.242102,-42.4635823],[171.2417304,-42.46331],[171.2411977,-42.4628608],[171.2408249,-42.4624343],[171.2403215,-42.4617498],[171.2401025,-42.4614406],[171.2399869,-42.46125],[171.2398824,-42.4610481],[171.2397848,-42.4608019],[171.2396895,-42.4604891],[171.2395994,-42.460197],[171.239487,-42.4599024],[171.2393447,-42.4596109],[171.2392525,-42.459443],[171.2390268,-42.4591953],[171.2387928,-42.4589928],[171.2385703,-42.458834],[171.2383599,-42.4586963],[171.2379449,-42.4584473],[171.237754,-42.4583515],[171.2375923,-42.4582684],[171.237365,-42.4581896],[171.2371826,-42.4581426],[171.2370156,-42.4581095],[171.2367903,-42.4580788],[171.2365206,-42.4580416],[171.2363558,-42.4580069],[171.2361826,-42.4579638],[171.2360014,-42.4579],[171.2340933,-42.4572216],[171.2335109,-42.4570292],[171.2333085,-42.4569781],[171.2330794,-42.4569346],[171.2328487,-42.4568852],[171.2326261,-42.4568139],[171.2325079,-42.4567532],[171.2323775,-42.4566712],[171.232291,-42.4566126],[171.2322416,-42.4565711],[171.2321621,-42.4565013],[171.2320733,-42.4564076],[171.2319437,-42.4562685],[171.2318804,-42.4561906],[171.2318074,-42.4561054],[171.2317003,-42.4560074],[171.2315532,-42.4559036],[171.2310811,-42.4556029],[171.2304535,-42.4551615],[171.2302537,-42.4550103],[171.2298593,-42.4546707],[171.2297137,-42.4545125],[171.229572,-42.4542596],[171.229166,-42.4533943],[171.2288038,-42.4528809],[171.2286407,-42.4527111],[171.2284379,-42.4525459],[171.228236,-42.4524236],[171.2280047,-42.4523112],[171.2277883,-42.4522262],[171.2275648,-42.4521337],[171.2273311,-42.452012],[171.2271618,-42.4518922],[171.2269732,-42.4517244],[171.2258987,-42.4505779],[171.2257424,-42.4504131],[171.2255996,-42.4502838],[171.2253868,-42.4501408],[171.2251806,-42.4500191],[171.224735,-42.4498162],[171.2238257,-42.4493986],[171.2234996,-42.4492492],[171.2231489,-42.4490939],[171.2228356,-42.4489618],[171.2224752,-42.4488262],[171.2220623,-42.4486944],[171.2216576,-42.4485665],[171.2204943,-42.4481925],[171.2200955,-42.4480763],[171.2197307,-42.4479971],[171.2194877,-42.4479525],[171.2191941,-42.4479125],[171.2188333,-42.4478792],[171.2185106,-42.4478668],[171.2180541,-42.4478635],[171.2178018,-42.447861],[171.2171374,-42.4478545],[171.2166594,-42.4478498],[171.2161525,-42.4478466],[171.2160227,-42.4478568],[171.2158833,-42.4478755],[171.2158243,-42.4478853],[171.2156943,-42.4479175],[171.2156528,-42.4479306],[171.2154855,-42.4479824],[171.2154307,-42.4480071],[171.2153311,-42.4480489],[171.2146272,-42.4483494],[171.213784,-42.4487093],[171.2137434,-42.4487252],[171.2134998,-42.4488281],[171.2132117,-42.4489329],[171.2129451,-42.4490199],[171.2127456,-42.4490834],[171.2125103,-42.4491696],[171.212355,-42.4492321],[171.2121525,-42.4493224],[171.2112839,-42.4497568],[171.2112684,-42.4497646],[171.2111735,-42.449812],[171.2110629,-42.4498673],[171.2109328,-42.4499355],[171.2108684,-42.4499685],[171.2096752,-42.450583],[171.2096185,-42.4506189],[171.2086194,-42.4512514],[171.2084865,-42.4513417]]}}]}